<?xml version="1.0" encoding="UTF-8"?>
<gpx xmlns="http://www.topografix.com/GPX/1/0" xmlns:xsi="http://www.w3.org/2001/XMLSchema-instance" version="1.0" creator="Calcul itineraires - enriched by RunVaucluse" xsi:schemaLocation="http://www.topografix.com/GPX/1/0 http://www.topografix.com/GPX/1/0/gpx.xsd">
  <trk>
    <name>Les Monts de Mathias - Visan 13KM</name>
    <trkseg>
      <trkpt lat="44.31533437904753" lon="4.9508211981135">
        <ele>195</ele>
      </trkpt>
      <trkpt lat="44.31551861582134" lon="4.9510360431553">
        <ele>203</ele>
      </trkpt>
      <trkpt lat="44.315626087005626" lon="4.9512452537919">
        <ele>203</ele>
      </trkpt>
      <trkpt lat="44.31561073399132" lon="4.9514491000104">
        <ele>203</ele>
      </trkpt>
      <trkpt lat="44.31549558625624" lon="4.9515670905417">
        <ele>203</ele>
      </trkpt>
      <trkpt lat="44.3153842765642" lon="4.9516958399076">
        <ele>205</ele>
      </trkpt>
      <trkpt lat="44.315368923486666" lon="4.9519104432941">
        <ele>205</ele>
      </trkpt>
      <trkpt lat="44.316086675565955" lon="4.9518942783768">
        <ele>200</ele>
      </trkpt>
      <trkpt lat="44.31677755162802" lon="4.9518728190381">
        <ele>196</ele>
      </trkpt>
      <trkpt lat="44.31683128609192" lon="4.9519855134814">
        <ele>196</ele>
      </trkpt>
      <trkpt lat="44.31691572586431" lon="4.9522215862062">
        <ele>196</ele>
      </trkpt>
      <trkpt lat="44.31709228135944" lon="4.9522376111302">
        <ele>196</ele>
      </trkpt>
      <trkpt lat="44.31736095174578" lon="4.952173213115">
        <ele>196</ele>
      </trkpt>
      <trkpt lat="44.31792899365545" lon="4.9519746879833">
        <ele>197</ele>
      </trkpt>
      <trkpt lat="44.31818230786925" lon="4.9519640174778">
        <ele>197</ele>
      </trkpt>
      <trkpt lat="44.31861217191135" lon="4.9520123155725">
        <ele>197</ele>
      </trkpt>
      <trkpt lat="44.318765694020335" lon="4.9519908362348">
        <ele>197</ele>
      </trkpt>
      <trkpt lat="44.31893072983945" lon="4.9519425481395">
        <ele>197</ele>
      </trkpt>
      <trkpt lat="44.31958703048011" lon="4.9518030449388">
        <ele>198</ele>
      </trkpt>
      <trkpt lat="44.31992093500601" lon="4.9518835795393">
        <ele>198</ele>
      </trkpt>
      <trkpt lat="44.32024716173057" lon="4.952044537079">
        <ele>198</ele>
      </trkpt>
      <trkpt lat="44.32106463955497" lon="4.9521303444353">
        <ele>203</ele>
      </trkpt>
      <trkpt lat="44.32155588835537" lon="4.9522752020545">
        <ele>203</ele>
      </trkpt>
      <trkpt lat="44.32197037633124" lon="4.9525541934568">
        <ele>214</ele>
      </trkpt>
      <trkpt lat="44.32253837361625" lon="4.952613133725">
        <ele>221</ele>
      </trkpt>
      <trkpt lat="44.32284155910513" lon="4.9526667762387">
        <ele>221</ele>
      </trkpt>
      <trkpt lat="44.32315625630976" lon="4.9525165092036">
        <ele>221</ele>
      </trkpt>
      <trkpt lat="44.323386521487585" lon="4.9523287429064">
        <ele>229</ele>
      </trkpt>
      <trkpt lat="44.32429222241804" lon="4.9522590421369">
        <ele>236</ele>
      </trkpt>
      <trkpt lat="44.32505975463336" lon="4.9524039480872">
        <ele>240</ele>
      </trkpt>
      <trkpt lat="44.32530920044112" lon="4.9524629300202">
        <ele>240</ele>
      </trkpt>
      <trkpt lat="44.32548189307127" lon="4.9525970638031">
        <ele>246</ele>
      </trkpt>
      <trkpt lat="44.32549724350268" lon="4.9525111647846">
        <ele>246</ele>
      </trkpt>
      <trkpt lat="44.325389790398454" lon="4.9522643515576">
        <ele>240</ele>
      </trkpt>
      <trkpt lat="44.325343739007806" lon="4.9519263648897">
        <ele>240</ele>
      </trkpt>
      <trkpt lat="44.325389790398454" lon="4.9518406125308">
        <ele>240</ele>
      </trkpt>
      <trkpt lat="44.32601148063364" lon="4.9518084426886">
        <ele>251</ele>
      </trkpt>
      <trkpt lat="44.32643361222274" lon="4.9516743005726">
        <ele>251</ele>
      </trkpt>
      <trkpt lat="44.3266446768781" lon="4.9516099492219">
        <ele>248</ele>
      </trkpt>
      <trkpt lat="44.32673294005425" lon="4.9510787268439">
        <ele>258</ele>
      </trkpt>
      <trkpt lat="44.32682504061818" lon="4.9506764354897">
        <ele>254</ele>
      </trkpt>
      <trkpt lat="44.326901790977665" lon="4.9505263101145">
        <ele>254</ele>
      </trkpt>
      <trkpt lat="44.32696702870426" lon="4.9503707403251">
        <ele>254</ele>
      </trkpt>
      <trkpt lat="44.32745822808062" lon="4.9502098061176">
        <ele>254</ele>
      </trkpt>
      <trkpt lat="44.32755800245135" lon="4.9501025344228">
        <ele>256</ele>
      </trkpt>
      <trkpt lat="44.32770382622632" lon="4.9501240320931">
        <ele>256</ele>
      </trkpt>
      <trkpt lat="44.3277115011518" lon="4.9502367132037">
        <ele>256</ele>
      </trkpt>
      <trkpt lat="44.327780575435966" lon="4.9504727859285">
        <ele>256</ele>
      </trkpt>
      <trkpt lat="44.32782662491357" lon="4.9506444273064">
        <ele>256</ele>
      </trkpt>
      <trkpt lat="44.32782662491357" lon="4.9507946243449">
        <ele>256</ele>
      </trkpt>
      <trkpt lat="44.32788802416075" lon="4.950885801119">
        <ele>262</ele>
      </trkpt>
      <trkpt lat="44.32802617223199" lon="4.9509018710408">
        <ele>262</ele>
      </trkpt>
      <trkpt lat="44.32804152199758" lon="4.951014553818">
        <ele>262</ele>
      </trkpt>
      <trkpt lat="44.32800698501933" lon="4.9511594031043">
        <ele>262</ele>
      </trkpt>
      <trkpt lat="44.32790721141232" lon="4.9514813231835">
        <ele>262</ele>
      </trkpt>
      <trkpt lat="44.32784581218522" lon="4.9517495274192">
        <ele>266</ele>
      </trkpt>
      <trkpt lat="44.32786116199802" lon="4.9519265248821">
        <ele>266</ele>
      </trkpt>
      <trkpt lat="44.32780743763562" lon="4.9520981845925">
        <ele>266</ele>
      </trkpt>
      <trkpt lat="44.327761388142974" lon="4.9523020424771">
        <ele>266</ele>
      </trkpt>
      <trkpt lat="44.32777290051954" lon="4.95253808687">
        <ele>273</ele>
      </trkpt>
      <trkpt lat="44.32780743763562" lon="4.9528599786172">
        <ele>273</ele>
      </trkpt>
      <trkpt lat="44.327849649638786" lon="4.9532086741221">
        <ele>273</ele>
      </trkpt>
      <trkpt lat="44.327834299822975" lon="4.9535680934632">
        <ele>279</ele>
      </trkpt>
      <trkpt lat="44.32780743763562" lon="4.9539650720635">
        <ele>279</ele>
      </trkpt>
      <trkpt lat="44.32779208780877" lon="4.954303012067">
        <ele>275</ele>
      </trkpt>
      <trkpt lat="44.3277076636892" lon="4.954624872149">
        <ele>275</ele>
      </trkpt>
      <trkpt lat="44.32757335233947" lon="4.9549467372308">
        <ele>275</ele>
      </trkpt>
      <trkpt lat="44.327431365721054" lon="4.955290066651">
        <ele>287</ele>
      </trkpt>
      <trkpt lat="44.327327753647474" lon="4.9556763180819">
        <ele>287</ele>
      </trkpt>
      <trkpt lat="44.327254841337826" lon="4.9559820649108">
        <ele>293</ele>
      </trkpt>
      <trkpt lat="44.32721262890661" lon="4.9562717384846">
        <ele>293</ele>
      </trkpt>
      <trkpt lat="44.327155066451446" lon="4.9566472744121">
        <ele>293</ele>
      </trkpt>
      <trkpt lat="44.32711669144995" lon="4.957081810605">
        <ele>303</ele>
      </trkpt>
      <trkpt lat="44.32713204145357" lon="4.9575324267192">
        <ele>310</ele>
      </trkpt>
      <trkpt lat="44.32718960393132" lon="4.9578542518029">
        <ele>310</ele>
      </trkpt>
      <trkpt lat="44.327274028796516" lon="4.9582727064078">
        <ele>310</ele>
      </trkpt>
      <trkpt lat="44.32733542862217" lon="4.9584657554602">
        <ele>316</ele>
      </trkpt>
      <trkpt lat="44.32732007867179" lon="4.9587447318632">
        <ele>316</ele>
      </trkpt>
      <trkpt lat="44.327331591134936" lon="4.9590451459392">
        <ele>316</ele>
      </trkpt>
      <trkpt lat="44.32735077856854" lon="4.9593562855181">
        <ele>330</ele>
      </trkpt>
      <trkpt lat="44.32740450334919" lon="4.959678153933">
        <ele>330</ele>
      </trkpt>
      <trkpt lat="44.3274850904279" lon="4.9600000190148">
        <ele>330</ele>
      </trkpt>
      <trkpt lat="44.3275426525592" lon="4.9603487145197">
        <ele>325</ele>
      </trkpt>
      <trkpt lat="44.32757335233947" lon="4.9607081338609">
        <ele>325</ele>
      </trkpt>
      <trkpt lat="44.32755800245135" lon="4.9611373089689">
        <ele>328</ele>
      </trkpt>
      <trkpt lat="44.32757335233947" lon="4.9612713277573">
        <ele>328</ele>
      </trkpt>
      <trkpt lat="44.32752730266304" lon="4.9615878850851">
        <ele>328</ele>
      </trkpt>
      <trkpt lat="44.3275426525592" lon="4.9619902431027">
        <ele>325</ele>
      </trkpt>
      <trkpt lat="44.32758870222357" lon="4.9620759754625">
        <ele>325</ele>
      </trkpt>
      <trkpt lat="44.3278534870921" lon="4.9620813148817">
        <ele>325</ele>
      </trkpt>
      <trkpt lat="44.32785732454519" lon="4.9622744922613">
        <ele>325</ele>
      </trkpt>
      <trkpt lat="44.327834299822975" lon="4.9625266382412">
        <ele>326</ele>
      </trkpt>
      <trkpt lat="44.32776522560207" lon="4.9626392476886">
        <ele>326</ele>
      </trkpt>
      <trkpt lat="44.32767312651435" lon="4.9626982412876">
        <ele>326</ele>
      </trkpt>
      <trkpt lat="44.327623239448116" lon="4.9627787125578">
        <ele>326</ele>
      </trkpt>
      <trkpt lat="44.327650101719826" lon="4.9629557683514">
        <ele>326</ele>
      </trkpt>
      <trkpt lat="44.327788250351404" lon="4.9636962330312">
        <ele>323</ele>
      </trkpt>
      <trkpt lat="44.32777290051954" lon="4.9638033247344">
        <ele>323</ele>
      </trkpt>
      <trkpt lat="44.32780743763562" lon="4.9640447652104">
        <ele>323</ele>
      </trkpt>
      <trkpt lat="44.327788250351404" lon="4.9642968961911">
        <ele>329</ele>
      </trkpt>
      <trkpt lat="44.32780360017927" lon="4.9645007290769">
        <ele>329</ele>
      </trkpt>
      <trkpt lat="44.32804535943837" lon="4.9647743360621">
        <ele>329</ele>
      </trkpt>
      <trkpt lat="44.32820653172416" lon="4.9651874395816">
        <ele>337</ele>
      </trkpt>
      <trkpt lat="44.32837154098654" lon="4.9654663476545">
        <ele>324</ele>
      </trkpt>
      <trkpt lat="44.32854422460124" lon="4.9656701722074">
        <ele>324</ele>
      </trkpt>
      <trkpt lat="44.328709232913596" lon="4.9655788854385">
        <ele>324</ele>
      </trkpt>
      <trkpt lat="44.32893947629462" lon="4.9654125651474">
        <ele>324</ele>
      </trkpt>
      <trkpt lat="44.3289893622414" lon="4.9655628671809">
        <ele>324</ele>
      </trkpt>
      <trkpt lat="44.32899703699867" lon="4.9658847855935">
        <ele>326</ele>
      </trkpt>
      <trkpt lat="44.3290814592624" lon="4.9662871419445">
        <ele>326</ele>
      </trkpt>
      <trkpt lat="44.32913901982712" lon="4.9664801959967">
        <ele>326</ele>
      </trkpt>
      <trkpt lat="44.32910832086629" lon="4.966501600338">
        <ele>326</ele>
      </trkpt>
      <trkpt lat="44.3290814592624" lon="4.9665928171102">
        <ele>326</ele>
      </trkpt>
      <trkpt lat="44.329035410769976" lon="4.9669630486168">
        <ele>332</ele>
      </trkpt>
      <trkpt lat="44.329020061264465" lon="4.9673278273762">
        <ele>332</ele>
      </trkpt>
      <trkpt lat="44.32904308552122" lon="4.9677784651561">
        <ele>337</ele>
      </trkpt>
      <trkpt lat="44.32898168748311" lon="4.967971504209">
        <ele>337</ele>
      </trkpt>
      <trkpt lat="44.32889726507575" lon="4.9683417040504">
        <ele>340</ele>
      </trkpt>
      <trkpt lat="44.328801330374475" lon="4.9687440454022">
        <ele>340</ele>
      </trkpt>
      <trkpt lat="44.32873609468797" lon="4.9690283228929">
        <ele>340</ele>
      </trkpt>
      <trkpt lat="44.32865934672858" lon="4.9690872614945">
        <ele>340</ele>
      </trkpt>
      <trkpt lat="44.328440614493424" lon="4.9690228501466">
        <ele>340</ele>
      </trkpt>
      <trkpt lat="44.32820269429392" lon="4.9688940841148">
        <ele>338</ele>
      </trkpt>
      <trkpt lat="44.3279724480207" lon="4.9688243650129">
        <ele>338</ele>
      </trkpt>
      <trkpt lat="44.327788250351404" lon="4.9688029223401">
        <ele>338</ele>
      </trkpt>
      <trkpt lat="44.32757335233947" lon="4.9688243933449">
        <ele>338</ele>
      </trkpt>
      <trkpt lat="44.32733926610913" lon="4.9688243866786">
        <ele>330</ele>
      </trkpt>
      <trkpt lat="44.32704761638401" lon="4.9688243866786">
        <ele>330</ele>
      </trkpt>
      <trkpt lat="44.32713971645386" lon="4.9696024689481">
        <ele>328</ele>
      </trkpt>
      <trkpt lat="44.327331591134936" lon="4.9698758976084">
        <ele>328</ele>
      </trkpt>
      <trkpt lat="44.327465903038245" lon="4.9701226525048">
        <ele>322</ele>
      </trkpt>
      <trkpt lat="44.327650101719826" lon="4.9704928356804">
        <ele>330</ele>
      </trkpt>
      <trkpt lat="44.32772685099975" lon="4.9708629805244">
        <ele>318</ele>
      </trkpt>
      <trkpt lat="44.32773068846113" lon="4.9712706879608">
        <ele>318</ele>
      </trkpt>
      <trkpt lat="44.32769998876321" lon="4.972043277485">
        <ele>315</ele>
      </trkpt>
      <trkpt lat="44.327680801443854" lon="4.9725796459582">
        <ele>312</ele>
      </trkpt>
      <trkpt lat="44.32769998876321" lon="4.9727243635841">
        <ele>312</ele>
      </trkpt>
      <trkpt lat="44.32753114013745" lon="4.9729174976324">
        <ele>312</ele>
      </trkpt>
      <trkpt lat="44.32737380348056" lon="4.9730676880046">
        <ele>309</ele>
      </trkpt>
      <trkpt lat="44.327135878953854" lon="4.9731320343555">
        <ele>309</ele>
      </trkpt>
      <trkpt lat="44.32685957829236" lon="4.9731373804411">
        <ele>309</ele>
      </trkpt>
      <trkpt lat="44.326686889718026" lon="4.9731534770284">
        <ele>309</ele>
      </trkpt>
      <trkpt lat="44.32657943879299" lon="4.973217865044">
        <ele>322</ele>
      </trkpt>
      <trkpt lat="44.32645279995007" lon="4.9733037023988">
        <ele>322</ele>
      </trkpt>
      <trkpt lat="44.32636453635239" lon="4.9734646582719">
        <ele>315</ele>
      </trkpt>
      <trkpt lat="44.326287785289956" lon="4.9736577873205">
        <ele>315</ele>
      </trkpt>
      <trkpt lat="44.326237897045495" lon="4.9738938350465">
        <ele>315</ele>
      </trkpt>
      <trkpt lat="44.32619184632068" lon="4.9741513337784">
        <ele>315</ele>
      </trkpt>
      <trkpt lat="44.32614963312448" lon="4.9743927275899">
        <ele>331</ele>
      </trkpt>
      <trkpt lat="44.32609206962617" lon="4.9746448585705">
        <ele>331</ele>
      </trkpt>
      <trkpt lat="44.325999967911386" lon="4.974880887964">
        <ele>331</ele>
      </trkpt>
      <trkpt lat="44.325669935579256" lon="4.975261806642">
        <ele>331</ele>
      </trkpt>
      <trkpt lat="44.32542049130547" lon="4.9755621890529">
        <ele>331</ele>
      </trkpt>
      <trkpt lat="44.32515185782435" lon="4.975926989478">
        <ele>342</ele>
      </trkpt>
      <trkpt lat="44.32489857370115" lon="4.9762756716501">
        <ele>342</ele>
      </trkpt>
      <trkpt lat="44.32465680147246" lon="4.9765009388758">
        <ele>342</ele>
      </trkpt>
      <trkpt lat="44.32448026873956" lon="4.9767530748562">
        <ele>350</ele>
      </trkpt>
      <trkpt lat="44.32426535860859" lon="4.9770320329267">
        <ele>350</ele>
      </trkpt>
      <trkpt lat="44.3240389345832" lon="4.977343179172">
        <ele>356</ele>
      </trkpt>
      <trkpt lat="44.3247757688841" lon="4.9771713678021">
        <ele>350</ele>
      </trkpt>
      <trkpt lat="44.32494462544127" lon="4.9772250819791">
        <ele>350</ele>
      </trkpt>
      <trkpt lat="44.32485252192489" lon="4.9779870493289">
        <ele>363</ele>
      </trkpt>
      <trkpt lat="44.32466063913465" lon="4.9789097792276">
        <ele>364</ele>
      </trkpt>
      <trkpt lat="44.32452248313705" lon="4.9794890297132">
        <ele>360</ele>
      </trkpt>
      <trkpt lat="44.32453783381955" lon="4.9801757085528">
        <ele>356</ele>
      </trkpt>
      <trkpt lat="44.324645288484334" lon="4.9809535774991">
        <ele>357</ele>
      </trkpt>
      <trkpt lat="44.324806470112485" lon="4.981597265998">
        <ele>357</ele>
      </trkpt>
      <trkpt lat="44.32491776193057" lon="4.9819297632538">
        <ele>364</ele>
      </trkpt>
      <trkpt lat="44.3248947360545" lon="4.9821282050562">
        <ele>364</ele>
      </trkpt>
      <trkpt lat="44.324787281846625" lon="4.9822032685771">
        <ele>364</ele>
      </trkpt>
      <trkpt lat="44.32455702216696" lon="4.9822032452449">
        <ele>364</ele>
      </trkpt>
      <trkpt lat="44.32428070935834" lon="4.9822032452449">
        <ele>364</ele>
      </trkpt>
      <trkpt lat="44.32399671983773" lon="4.9822783704295">
        <ele>363</ele>
      </trkpt>
      <trkpt lat="44.32373575528235" lon="4.9822514183455">
        <ele>363</ele>
      </trkpt>
      <trkpt lat="44.32352084242392" lon="4.9821978624943">
        <ele>363</ele>
      </trkpt>
      <trkpt lat="44.323401872467294" lon="4.9821334878114">
        <ele>363</ele>
      </trkpt>
      <trkpt lat="44.32312939198015" lon="4.9818866679181">
        <ele>359</ele>
      </trkpt>
      <trkpt lat="44.32294517910282" lon="4.9823321296043">
        <ele>359</ele>
      </trkpt>
      <trkpt lat="44.32278015457569" lon="4.9828632336547">
        <ele>367</ele>
      </trkpt>
      <trkpt lat="44.32267653428651" lon="4.9834211414627">
        <ele>371</ele>
      </trkpt>
      <trkpt lat="44.322499995594555" lon="4.983920014007">
        <ele>371</ele>
      </trkpt>
      <trkpt lat="44.32228507820904" lon="4.9843974405453">
        <ele>371</ele>
      </trkpt>
      <trkpt lat="44.32193967361863" lon="4.9852344014194">
        <ele>370</ele>
      </trkpt>
      <trkpt lat="44.32170940276194" lon="4.9856419638626">
        <ele>370</ele>
      </trkpt>
      <trkpt lat="44.32147145526053" lon="4.9860496596329">
        <ele>366</ele>
      </trkpt>
      <trkpt lat="44.32119512791876" lon="4.9865217484185">
        <ele>366</ele>
      </trkpt>
      <trkpt lat="44.32097636785019" lon="4.9869884511205">
        <ele>358</ele>
      </trkpt>
      <trkpt lat="44.32086506855487" lon="4.9875463789276">
        <ele>350</ele>
      </trkpt>
      <trkpt lat="44.3206962002553" lon="4.9882437966028">
        <ele>365</ele>
      </trkpt>
      <trkpt lat="44.320554196990855" lon="4.989048492639">
        <ele>364</ele>
      </trkpt>
      <trkpt lat="44.32044673483253" lon="4.9896170476203">
        <ele>365</ele>
      </trkpt>
      <trkpt lat="44.32025483763167" lon="4.9899173717006">
        <ele>365</ele>
      </trkpt>
      <trkpt lat="44.32008596757572" lon="4.9901050913333">
        <ele>363</ele>
      </trkpt>
      <trkpt lat="44.31982498562419" lon="4.990255283372">
        <ele>361</ele>
      </trkpt>
      <trkpt lat="44.31956400251175" lon="4.9902498706229">
        <ele>361</ele>
      </trkpt>
      <trkpt lat="44.31931837028663" lon="4.9902498722895">
        <ele>361</ele>
      </trkpt>
      <trkpt lat="44.31903051871419" lon="4.9902337740357">
        <ele>356</ele>
      </trkpt>
      <trkpt lat="44.318708123276544" lon="4.9902498772893">
        <ele>356</ele>
      </trkpt>
      <trkpt lat="44.31840107835564" lon="4.9902284079511">
        <ele>356</ele>
      </trkpt>
      <trkpt lat="44.318094031827975" lon="4.9902284146174">
        <ele>351</ele>
      </trkpt>
      <trkpt lat="44.31785990777099" lon="4.990206950279">
        <ele>351</ele>
      </trkpt>
      <trkpt lat="44.317614268411894" lon="4.9901747604376">
        <ele>351</ele>
      </trkpt>
      <trkpt lat="44.3173532754661" lon="4.9900191539832">
        <ele>342</ele>
      </trkpt>
      <trkpt lat="44.3171153102979" lon="4.9898152910988">
        <ele>327</ele>
      </trkpt>
      <trkpt lat="44.316838962439874" lon="4.9896168092983">
        <ele>327</ele>
      </trkpt>
      <trkpt lat="44.31656261328037" lon="4.9894773527619">
        <ele>335</ele>
      </trkpt>
      <trkpt lat="44.31637070337612" lon="4.9894827621779">
        <ele>335</ele>
      </trkpt>
      <trkpt lat="44.316221013215085" lon="4.9895310552728">
        <ele>335</ele>
      </trkpt>
      <trkpt lat="44.31604445509844" lon="4.9894773794273">
        <ele>335</ele>
      </trkpt>
      <trkpt lat="44.31582567582563" lon="4.9893861726547">
        <ele>335</ele>
      </trkpt>
      <trkpt lat="44.31559538097305" lon="4.9893057097175">
        <ele>336</ele>
      </trkpt>
      <trkpt lat="44.31530367286231" lon="4.9891769486855">
        <ele>336</ele>
      </trkpt>
      <trkpt lat="44.31501963988747" lon="4.9890052739758">
        <ele>320</ele>
      </trkpt>
      <trkpt lat="44.31486994627996" lon="4.9888658091066">
        <ele>325</ele>
      </trkpt>
      <trkpt lat="44.31467803083995" lon="4.9887317003224">
        <ele>325</ele>
      </trkpt>
      <trkpt lat="44.31437096483042" lon="4.9886297863794">
        <ele>325</ele>
      </trkpt>
      <trkpt lat="44.31404470543477" lon="4.9885546928599">
        <ele>319</ele>
      </trkpt>
      <trkpt lat="44.31376066636633" lon="4.9884742249228">
        <ele>319</ele>
      </trkpt>
      <trkpt lat="44.31348814110296" lon="4.9884313212447">
        <ele>319</ele>
      </trkpt>
      <trkpt lat="44.31318490728015" lon="4.9883991380697">
        <ele>319</ele>
      </trkpt>
      <trkpt lat="44.312831772245865" lon="4.9883615854769">
        <ele>319</ele>
      </trkpt>
      <trkpt lat="44.312417219711655" lon="4.9882972041276">
        <ele>304</ele>
      </trkpt>
      <trkpt lat="44.311945086869976" lon="4.9882435632805">
        <ele>304</ele>
      </trkpt>
      <trkpt lat="44.31159962140874" lon="4.9881684547617">
        <ele>306</ele>
      </trkpt>
      <trkpt lat="44.31130789343559" lon="4.9880879868247">
        <ele>306</ele>
      </trkpt>
      <trkpt lat="44.30987911158958" lon="4.9876969966153">
        <ele>318</ele>
      </trkpt>
      <trkpt lat="44.30968910884284" lon="4.9876440000041">
        <ele>318</ele>
      </trkpt>
      <trkpt lat="44.309222242338336" lon="4.9872721634531">
        <ele>322</ele>
      </trkpt>
      <trkpt lat="44.30870108464463" lon="4.9868397179321">
        <ele>313</ele>
      </trkpt>
      <trkpt lat="44.308250496658694" lon="4.9865514782696">
        <ele>299</ele>
      </trkpt>
      <trkpt lat="44.30783247820527" lon="4.9863390817222">
        <ele>299</ele>
      </trkpt>
      <trkpt lat="44.30733845255858" lon="4.9861038952367">
        <ele>302</ele>
      </trkpt>
      <trkpt lat="44.306838993831896" lon="4.9858990709806">
        <ele>302</ele>
      </trkpt>
      <trkpt lat="44.3061658036065" lon="4.985565227873">
        <ele>289</ele>
      </trkpt>
      <trkpt lat="44.30612237171395" lon="4.9854514997324">
        <ele>289</ele>
      </trkpt>
      <trkpt lat="44.30610065575561" lon="4.9852314601864">
        <ele>289</ele>
      </trkpt>
      <trkpt lat="44.306062652809196" lon="4.9851101079026">
        <ele>289</ele>
      </trkpt>
      <trkpt lat="44.30599750484384" lon="4.9850949680338">
        <ele>289</ele>
      </trkpt>
      <trkpt lat="44.30568805102097" lon="4.9851253279062">
        <ele>273</ele>
      </trkpt>
      <trkpt lat="44.30505285122095" lon="4.9851784400061">
        <ele>273</ele>
      </trkpt>
      <trkpt lat="44.304976843946875" lon="4.9851784235077">
        <ele>264</ele>
      </trkpt>
      <trkpt lat="44.304938840272904" lon="4.9851328907698">
        <ele>264</ele>
      </trkpt>
      <trkpt lat="44.304906265675655" lon="4.985034250646">
        <ele>264</ele>
      </trkpt>
      <trkpt lat="44.304879120164124" lon="4.9846700193829">
        <ele>260</ele>
      </trkpt>
      <trkpt lat="44.30491712387675" lon="4.9843058706118">
        <ele>260</ele>
      </trkpt>
      <trkpt lat="44.30489540747255" lon="4.9839720769992">
        <ele>255</ele>
      </trkpt>
      <trkpt lat="44.30480854177543" lon="4.9836762179073">
        <ele>255</ele>
      </trkpt>
      <trkpt lat="44.30484654553372" lon="4.9834107021893">
        <ele>255</ele>
      </trkpt>
      <trkpt lat="44.30492255297654" lon="4.9832058873608">
        <ele>244</ele>
      </trkpt>
      <trkpt lat="44.30510714207078" lon="4.9829631097288">
        <ele>243</ele>
      </trkpt>
      <trkpt lat="44.305394882736586" lon="4.9827051663021">
        <ele>243</ele>
      </trkpt>
      <trkpt lat="44.30587806671954" lon="4.9824472275892">
        <ele>230</ele>
      </trkpt>
      <trkpt lat="44.306507828637415" lon="4.9821209897695">
        <ele>230</ele>
      </trkpt>
      <trkpt lat="44.30693128543842" lon="4.9821438574856">
        <ele>233</ele>
      </trkpt>
      <trkpt lat="44.307403599035695" lon="4.9821742055735">
        <ele>233</ele>
      </trkpt>
      <trkpt lat="44.30764246883321" lon="4.9821438409873">
        <ele>235</ele>
      </trkpt>
      <trkpt lat="44.30768589960103" lon="4.9820451961496">
        <ele>235</ele>
      </trkpt>
      <trkpt lat="44.30765875537491" lon="4.9819238061551">
        <ele>235</ele>
      </trkpt>
      <trkpt lat="44.30757189376694" lon="4.9810207778982">
        <ele>232</ele>
      </trkpt>
      <trkpt lat="44.30753932063081" lon="4.9807478619434">
        <ele>236</ele>
      </trkpt>
      <trkpt lat="44.30752846291476" lon="4.9804899279444">
        <ele>236</ele>
      </trkpt>
      <trkpt lat="44.30703986361328" lon="4.9801257461765">
        <ele>228</ele>
      </trkpt>
      <trkpt lat="44.306817278138666" lon="4.9798906068293">
        <ele>230</ele>
      </trkpt>
      <trkpt lat="44.306703270617476" lon="4.9796706049939">
        <ele>230</ele>
      </trkpt>
      <trkpt lat="44.30658383392922" lon="4.9792229347554">
        <ele>224</ele>
      </trkpt>
      <trkpt lat="44.30647525491082" lon="4.9787677464345">
        <ele>225</ele>
      </trkpt>
      <trkpt lat="44.30624723831844" lon="4.9783201492603">
        <ele>226</ele>
      </trkpt>
      <trkpt lat="44.30610065575561" lon="4.9779712039945">
        <ele>226</ele>
      </trkpt>
      <trkpt lat="44.305964930834044" lon="4.9775159850338">
        <ele>226</ele>
      </trkpt>
      <trkpt lat="44.305840063629034" lon="4.9769849111734">
        <ele>227</ele>
      </trkpt>
      <trkpt lat="44.30566633490198" lon="4.9764538608822">
        <ele>218</ele>
      </trkpt>
      <trkpt lat="44.30548717661364" lon="4.9758545114842">
        <ele>218</ele>
      </trkpt>
      <trkpt lat="44.30537316650913" lon="4.9753386599844">
        <ele>217</ele>
      </trkpt>
      <trkpt lat="44.30519943640026" lon="4.9742991560733">
        <ele>218</ele>
      </trkpt>
      <trkpt lat="44.305128858396664" lon="4.9733584690544">
        <ele>220</ele>
      </trkpt>
      <trkpt lat="44.30510714207078" lon="4.9727668357192">
        <ele>219</ele>
      </trkpt>
      <trkpt lat="44.30573148323486" lon="4.9727897859271">
        <ele>219</ele>
      </trkpt>
      <trkpt lat="44.306361246725324" lon="4.9727290685393">
        <ele>225</ele>
      </trkpt>
      <trkpt lat="44.30649697073056" lon="4.9727139098153">
        <ele>225</ele>
      </trkpt>
      <trkpt lat="44.306632694421964" lon="4.972842923953">
        <ele>225</ele>
      </trkpt>
      <trkpt lat="44.306838993831896" lon="4.9730174260473">
        <ele>231</ele>
      </trkpt>
      <trkpt lat="44.30699100345945" lon="4.9731084373141">
        <ele>231</ele>
      </trkpt>
      <trkpt lat="44.307300450413514" lon="4.973260184824">
        <ele>231</ele>
      </trkpt>
      <trkpt lat="44.307723901496566" lon="4.9735940444301">
        <ele>230</ele>
      </trkpt>
      <trkpt lat="44.30816363592639" lon="4.973700183781">
        <ele>230</ele>
      </trkpt>
      <trkpt lat="44.308397073853" lon="4.9738063938392">
        <ele>237</ele>
      </trkpt>
      <trkpt lat="44.3087770870965" lon="4.9737380617357">
        <ele>237</ele>
      </trkpt>
      <trkpt lat="44.309140811753736" lon="4.9736470174722">
        <ele>237</ele>
      </trkpt>
      <trkpt lat="44.30948281944995" lon="4.9735559802794">
        <ele>241</ele>
      </trkpt>
      <trkpt lat="44.30972710944139" lon="4.9736850179863">
        <ele>241</ele>
      </trkpt>
      <trkpt lat="44.309917112065136" lon="4.9738671088702">
        <ele>241</ele>
      </trkpt>
      <trkpt lat="44.310058256473155" lon="4.9737911644079">
        <ele>243</ele>
      </trkpt>
      <trkpt lat="44.310172257478" lon="4.9738518982942">
        <ele>243</ele>
      </trkpt>
      <trkpt lat="44.310210257763764" lon="4.9740264216006">
        <ele>243</ele>
      </trkpt>
      <trkpt lat="44.3102482580249" lon="4.9747017696699">
        <ele>241</ele>
      </trkpt>
      <trkpt lat="44.31026997244878" lon="4.9749444011734">
        <ele>241</ele>
      </trkpt>
      <trkpt lat="44.310617402138455" lon="4.9750429800176">
        <ele>248</ele>
      </trkpt>
      <trkpt lat="44.31098654393027" lon="4.9751188372742">
        <ele>251</ele>
      </trkpt>
      <trkpt lat="44.31130682683907" lon="4.9751947016015">
        <ele>251</ele>
      </trkpt>
      <trkpt lat="44.311627108000046" lon="4.9751567340842">
        <ele>251</ele>
      </trkpt>
      <trkpt lat="44.3119962434412" lon="4.9751188019206">
        <ele>253</ele>
      </trkpt>
      <trkpt lat="44.31232194925528" lon="4.9751491688637">
        <ele>253</ele>
      </trkpt>
      <trkpt lat="44.31258251260511" lon="4.975361645546">
        <ele>254</ele>
      </trkpt>
      <trkpt lat="44.31287021662663" lon="4.97562718719">
        <ele>254</ele>
      </trkpt>
      <trkpt lat="44.31316334757532" lon="4.975885123546">
        <ele>261</ele>
      </trkpt>
      <trkpt lat="44.31338048066743" lon="4.9761278846796">
        <ele>264</ele>
      </trkpt>
      <trkpt lat="44.31360304125311" lon="4.9764161832649">
        <ele>264</ele>
      </trkpt>
      <trkpt lat="44.31375503336316" lon="4.9766285798123">
        <ele>264</ele>
      </trkpt>
      <trkpt lat="44.313923309882924" lon="4.9767499344531">
        <ele>270</ele>
      </trkpt>
      <trkpt lat="44.314097014171466" lon="4.9768409622182">
        <ele>270</ele>
      </trkpt>
      <trkpt lat="44.31421100733136" lon="4.9768181675663">
        <ele>279</ele>
      </trkpt>
      <trkpt lat="44.314254433238816" lon="4.9766815764235">
        <ele>279</ele>
      </trkpt>
      <trkpt lat="44.3142707179458" lon="4.9764994878965">
        <ele>272</ele>
      </trkpt>
      <trkpt lat="44.31429243088144" lon="4.9761276937698">
        <ele>272</ele>
      </trkpt>
      <trkpt lat="44.31433585672862" lon="4.9755662388249">
        <ele>265</ele>
      </trkpt>
      <trkpt lat="44.31433585672862" lon="4.9751717961749">
        <ele>265</ele>
      </trkpt>
      <trkpt lat="44.31439556721604" lon="4.9748531895692">
        <ele>273</ele>
      </trkpt>
      <trkpt lat="44.31443899298689" lon="4.9747091015563">
        <ele>273</ele>
      </trkpt>
      <trkpt lat="44.314482418725625" lon="4.9746484360205">
        <ele>273</ele>
      </trkpt>
      <trkpt lat="44.31455298548253" lon="4.9746408660861">
        <ele>273</ele>
      </trkpt>
      <trkpt lat="44.31466697775672" lon="4.9746712236016">
        <ele>273</ele>
      </trkpt>
      <trkpt lat="44.31500895325071" lon="4.9748305787564">
        <ele>280</ele>
      </trkpt>
      <trkpt lat="44.31531292979456" lon="4.974921594737">
        <ele>280</ele>
      </trkpt>
      <trkpt lat="44.31560062043034" lon="4.9749822767713">
        <ele>280</ele>
      </trkpt>
      <trkpt lat="44.315817744504564" lon="4.9750202018642">
        <ele>272</ele>
      </trkpt>
      <trkpt lat="44.31577974784957" lon="4.9749594797625">
        <ele>280</ele>
      </trkpt>
      <trkpt lat="44.31575803546424" lon="4.9748760219317">
        <ele>280</ele>
      </trkpt>
      <trkpt lat="44.31571461066947" lon="4.9748077487509">
        <ele>280</ele>
      </trkpt>
      <trkpt lat="44.31561147665313" lon="4.9747318820667">
        <ele>280</ele>
      </trkpt>
      <trkpt lat="44.31552462681456" lon="4.9746332513704">
        <ele>280</ele>
      </trkpt>
      <trkpt lat="44.31545948935126" lon="4.9745270389553">
        <ele>280</ele>
      </trkpt>
      <trkpt lat="44.31541063620639" lon="4.9744284176867">
        <ele>280</ele>
      </trkpt>
      <trkpt lat="44.31532921420781" lon="4.9743449716404">
        <ele>280</ele>
      </trkpt>
      <trkpt lat="44.315166369871754" lon="4.974162866615">
        <ele>280</ele>
      </trkpt>
      <trkpt lat="44.31502523774831" lon="4.9739807922294">
        <ele>284</ele>
      </trkpt>
      <trkpt lat="44.31491667434547" lon="4.9737911290542">
        <ele>278</ele>
      </trkpt>
      <trkpt lat="44.31477554162151" lon="4.973578701867">
        <ele>278</ele>
      </trkpt>
      <trkpt lat="44.31458012652026" lon="4.9733814593298">
        <ele>278</ele>
      </trkpt>
      <trkpt lat="44.31444442120598" lon="4.9730248474963">
        <ele>280</ele>
      </trkpt>
      <trkpt lat="44.31429243088144" lon="4.9725999860511">
        <ele>280</ele>
      </trkpt>
      <trkpt lat="44.314200150849494" lon="4.9723648655592">
        <ele>280</ele>
      </trkpt>
      <trkpt lat="44.31390702507954" lon="4.9720006767206">
        <ele>273</ele>
      </trkpt>
      <trkpt lat="44.31373874851305" lon="4.9718186589009">
        <ele>273</ele>
      </trkpt>
      <trkpt lat="44.31371703537256" lon="4.9717352387807">
        <ele>273</ele>
      </trkpt>
      <trkpt lat="44.31367360906743" lon="4.9716593768102">
        <ele>273</ele>
      </trkpt>
      <trkpt lat="44.314097014171466" lon="4.9709460541529">
        <ele>257</ele>
      </trkpt>
      <trkpt lat="44.314303287346256" lon="4.970703434434">
        <ele>245</ele>
      </trkpt>
      <trkpt lat="44.31447699051005" lon="4.9706124443794">
        <ele>245</ele>
      </trkpt>
      <trkpt lat="44.31460183934143" lon="4.9704910520281">
        <ele>245</ele>
      </trkpt>
      <trkpt lat="44.31468869054573" lon="4.970271014839">
        <ele>245</ele>
      </trkpt>
      <trkpt lat="44.31505237856765" lon="4.9692541853772">
        <ele>240</ele>
      </trkpt>
      <trkpt lat="44.315074091214086" lon="4.9691027254105">
        <ele>234</ele>
      </trkpt>
      <trkpt lat="44.31507951937443" lon="4.9689054640179">
        <ele>234</ele>
      </trkpt>
      <trkpt lat="44.31519351062583" lon="4.9685564409741">
        <ele>234</ele>
      </trkpt>
      <trkpt lat="44.31554091116909" lon="4.9676762497934">
        <ele>229</ele>
      </trkpt>
      <trkpt lat="44.315774319753984" lon="4.9672819061336">
        <ele>225</ele>
      </trkpt>
      <trkpt lat="44.31607286426521" lon="4.9669253555798">
        <ele>230</ele>
      </trkpt>
      <trkpt lat="44.316409403529455" lon="4.9665763820311">
        <ele>226</ele>
      </trkpt>
      <trkpt lat="44.31661024055784" lon="4.966234994915">
        <ele>226</ele>
      </trkpt>
      <trkpt lat="44.31676765288336" lon="4.9657949511767">
        <ele>232</ele>
      </trkpt>
      <trkpt lat="44.31693592076436" lon="4.9652942277611">
        <ele>232</ele>
      </trkpt>
      <trkpt lat="44.316952204727244" lon="4.965172962683">
        <ele>232</ele>
      </trkpt>
      <trkpt lat="44.31684907288602" lon="4.9649225703353">
        <ele>239</ele>
      </trkpt>
      <trkpt lat="44.31672965684346" lon="4.9645735637898">
        <ele>239</ele>
      </trkpt>
      <trkpt lat="44.316604812539076" lon="4.9642094103048">
        <ele>232</ele>
      </trkpt>
      <trkpt lat="44.31647996796911" lon="4.9640122149058">
        <ele>234</ele>
      </trkpt>
      <trkpt lat="44.3163551231335" lon="4.9638301452341">
        <ele>234</ele>
      </trkpt>
      <trkpt lat="44.31634426704829" lon="4.9636480708485">
        <ele>234</ele>
      </trkpt>
      <trkpt lat="44.316365979216705" lon="4.9635342955698">
        <ele>234</ele>
      </trkpt>
      <trkpt lat="44.31645825584288" lon="4.9633977327099">
        <ele>234</ele>
      </trkpt>
      <trkpt lat="44.316865356873" lon="4.9627906719628">
        <ele>240</ele>
      </trkpt>
      <trkpt lat="44.31693592076436" lon="4.9626542623021">
        <ele>240</ele>
      </trkpt>
      <trkpt lat="44.316979344655344" lon="4.9625101177233">
        <ele>240</ele>
      </trkpt>
      <trkpt lat="44.31700105658875" lon="4.9623280315532">
        <ele>247</ele>
      </trkpt>
      <trkpt lat="44.31698477263945" lon="4.9620624804815">
        <ele>247</ele>
      </trkpt>
      <trkpt lat="44.31693592076436" lon="4.9617893665463">
        <ele>247</ele>
      </trkpt>
      <trkpt lat="44.316859928877854" lon="4.9615010773886">
        <ele>242</ele>
      </trkpt>
      <trkpt lat="44.3167947928968" lon="4.9612203817345">
        <ele>242</ele>
      </trkpt>
      <trkpt lat="44.31683821689221" lon="4.9610307491991">
        <ele>242</ele>
      </trkpt>
      <trkpt lat="44.316941348752486" lon="4.9608183220119">
        <ele>235</ele>
      </trkpt>
      <trkpt lat="44.31713132802065" lon="4.9606059018954">
        <ele>235</ele>
      </trkpt>
      <trkpt lat="44.31728331099228" lon="4.9603555378307">
        <ele>235</ele>
      </trkpt>
      <trkpt lat="44.31739187001674" lon="4.9599761761266">
        <ele>237</ele>
      </trkpt>
      <trkpt lat="44.317457005335" lon="4.9595816769107">
        <ele>237</ele>
      </trkpt>
      <trkpt lat="44.31751128471165" lon="4.9591871824086">
        <ele>244</ele>
      </trkpt>
      <trkpt lat="44.31748957296701" lon="4.9589672300683">
        <ele>242</ele>
      </trkpt>
      <trkpt lat="44.317402725908146" lon="4.958792756257">
        <ele>242</ele>
      </trkpt>
      <trkpt lat="44.31721817548121" lon="4.9582919503495">
        <ele>234</ele>
      </trkpt>
      <trkpt lat="44.31703362447384" lon="4.9577836569996">
        <ele>234</ele>
      </trkpt>
      <trkpt lat="44.31683821689221" lon="4.9573740202719">
        <ele>229</ele>
      </trkpt>
      <trkpt lat="44.31644739977673" lon="4.9567063340565">
        <ele>223</ele>
      </trkpt>
      <trkpt lat="44.316138001047634" lon="4.9562132701379">
        <ele>217</ele>
      </trkpt>
      <trkpt lat="44.315937162402946" lon="4.9558643390135">
        <ele>217</ele>
      </trkpt>
      <trkpt lat="44.315725466871186" lon="4.9555533070561">
        <ele>207</ele>
      </trkpt>
      <trkpt lat="44.315557195519084" lon="4.9553636839483">
        <ele>207</ele>
      </trkpt>
      <trkpt lat="44.31538892368447" lon="4.95517402313">
        <ele>207</ele>
      </trkpt>
      <trkpt lat="44.315291217236485" lon="4.9549919511013">
        <ele>201</ele>
      </trkpt>
      <trkpt lat="44.315198938775126" lon="4.9544911475508">
        <ele>201</ele>
      </trkpt>
      <trkpt lat="44.31501438141707" lon="4.9533681622398">
        <ele>197</ele>
      </trkpt>
      <trkpt lat="44.314976384241895" lon="4.9529814827908">
        <ele>196</ele>
      </trkpt>
      <trkpt lat="44.3150035250838" lon="4.9525262756147">
        <ele>199</ele>
      </trkpt>
      <trkpt lat="44.314960099730705" lon="4.9524884730811">
        <ele>208</ele>
      </trkpt>
      <trkpt lat="44.3149655279016" lon="4.9523898306003">
        <ele>208</ele>
      </trkpt>
      <trkpt lat="44.31499809691645" lon="4.9523367397127">
        <ele>205</ele>
      </trkpt>
      <trkpt lat="44.31523150766041" lon="4.9523671113696">
        <ele>205</ele>
      </trkpt>
      <trkpt lat="44.315269504670404" lon="4.952260858887">
        <ele>205</ele>
      </trkpt>
      <trkpt lat="44.31533952871344" lon="4.9519081786185">
        <ele>205</ele>
      </trkpt>
      <trkpt lat="44.315193674203414" lon="4.951843802058">
        <ele>205</ele>
      </trkpt>
      <trkpt lat="44.31496337687054" lon="4.9516989361896">
        <ele>208</ele>
      </trkpt>
      <trkpt lat="44.31472156369829" lon="4.9515272659521">
        <ele>208</ele>
      </trkpt>
      <trkpt lat="44.31474459356715" lon="4.9513770693357">
        <ele>208</ele>
      </trkpt>
      <trkpt lat="44.314782976661824" lon="4.9512161332506">
        <ele>208</ele>
      </trkpt>
      <trkpt lat="44.31484438956109" lon="4.9510552007097">
        <ele>208</ele>
      </trkpt>
      <trkpt lat="44.31492883219263" lon="4.9508889019787">
        <ele>208</ele>
      </trkpt>
      <trkpt lat="44.315009436409404" lon="4.9507977316816">
        <ele>195</ele>
      </trkpt>
      <trkpt lat="44.31512074681244" lon="4.9507440999061">
        <ele>195</ele>
      </trkpt>
      <trkpt lat="44.31523589528307" lon="4.9507441176271">
        <ele>195</ele>
      </trkpt>
    </trkseg>
  </trk>
</gpx>
