<?xml version="1.0" encoding="UTF-8" ?>
<gpx version="1.1" xmlns:xsi="http://www.w3.org/2001/XMLSchema-instance" 
    xmlns="http://www.topografix.com/GPX/1/1" 
    xsi:schemaLocation="http://www.topografix.com/GPX/1/1 http://www.topografix.com/GPX/1/1/gpx.xsd" 
    creator="Openrunner - https://www.openrunner.com" >	<trk>
						<name>12864725-Trail Méthamis</name>
						<trkseg>
					<trkpt lat="44.015520" lon="5.225380">
						<ele>322</ele>
						<time>2021-04-14T13:35:24Z</time>
					</trkpt>
					<trkpt lat="44.015610" lon="5.225510">
						<ele>322</ele>
						<time>2021-04-14T13:35:30Z</time>
					</trkpt>
					<trkpt lat="44.016240" lon="5.226010">
						<ele>329</ele>
						<time>2021-04-14T13:36:07Z</time>
					</trkpt>
					<trkpt lat="44.016330" lon="5.226180">
						<ele>332</ele>
						<time>2021-04-14T13:36:14Z</time>
					</trkpt>
					<trkpt lat="44.016260" lon="5.226250">
						<ele>331</ele>
						<time>2021-04-14T13:36:19Z</time>
					</trkpt>
					<trkpt lat="44.016180" lon="5.226260">
						<ele>330</ele>
						<time>2021-04-14T13:36:23Z</time>
					</trkpt>
					<trkpt lat="44.015950" lon="5.226370">
						<ele>326</ele>
						<time>2021-04-14T13:36:35Z</time>
					</trkpt>
					<trkpt lat="44.015850" lon="5.226700">
						<ele>324</ele>
						<time>2021-04-14T13:36:48Z</time>
					</trkpt>
					<trkpt lat="44.015820" lon="5.226660">
						<ele>324</ele>
						<time>2021-04-14T13:36:50Z</time>
					</trkpt>
					<trkpt lat="44.015760" lon="5.226410">
						<ele>323</ele>
						<time>2021-04-14T13:36:59Z</time>
					</trkpt>
					<trkpt lat="44.015720" lon="5.226330">
						<ele>322</ele>
						<time>2021-04-14T13:37:03Z</time>
					</trkpt>
					<trkpt lat="44.015670" lon="5.226350">
						<ele>321</ele>
						<time>2021-04-14T13:37:05Z</time>
					</trkpt>
					<trkpt lat="44.015610" lon="5.226420">
						<ele>320</ele>
						<time>2021-04-14T13:37:09Z</time>
					</trkpt>
					<trkpt lat="44.015560" lon="5.226390">
						<ele>319</ele>
						<time>2021-04-14T13:37:12Z</time>
					</trkpt>
					<trkpt lat="44.015520" lon="5.226000">
						<ele>319</ele>
						<time>2021-04-14T13:37:26Z</time>
					</trkpt>
					<trkpt lat="44.014850" lon="5.226410">
						<ele>306</ele>
						<time>2021-04-14T13:38:03Z</time>
					</trkpt>
					<trkpt lat="44.014520" lon="5.226770">
						<ele>303</ele>
						<time>2021-04-14T13:38:24Z</time>
					</trkpt>
					<trkpt lat="44.014480" lon="5.226900">
						<ele>302</ele>
						<time>2021-04-14T13:38:29Z</time>
					</trkpt>
					<trkpt lat="44.014440" lon="5.227250">
						<ele>300</ele>
						<time>2021-04-14T13:38:42Z</time>
					</trkpt>
					<trkpt lat="44.014130" lon="5.227790">
						<ele>298</ele>
						<time>2021-04-14T13:39:07Z</time>
					</trkpt>
					<trkpt lat="44.014110" lon="5.227870">
						<ele>297</ele>
						<time>2021-04-14T13:39:10Z</time>
					</trkpt>
					<trkpt lat="44.014100" lon="5.227950">
						<ele>297</ele>
						<time>2021-04-14T13:39:13Z</time>
					</trkpt>
					<trkpt lat="44.014160" lon="5.228610">
						<ele>295</ele>
						<time>2021-04-14T13:39:37Z</time>
					</trkpt>
					<trkpt lat="44.014150" lon="5.228770">
						<ele>295</ele>
						<time>2021-04-14T13:39:42Z</time>
					</trkpt>
					<trkpt lat="44.013990" lon="5.229150">
						<ele>295</ele>
						<time>2021-04-14T13:39:58Z</time>
					</trkpt>
					<trkpt lat="44.013790" lon="5.229520">
						<ele>297</ele>
						<time>2021-04-14T13:40:15Z</time>
					</trkpt>
					<trkpt lat="44.013610" lon="5.229700">
						<ele>298</ele>
						<time>2021-04-14T13:40:26Z</time>
					</trkpt>
					<trkpt lat="44.012660" lon="5.230190">
						<ele>302</ele>
						<time>2021-04-14T13:41:17Z</time>
					</trkpt>
					<trkpt lat="44.012560" lon="5.230280">
						<ele>302</ele>
						<time>2021-04-14T13:41:23Z</time>
					</trkpt>
					<trkpt lat="44.012090" lon="5.230840">
						<ele>309</ele>
						<time>2021-04-14T13:41:54Z</time>
					</trkpt>
					<trkpt lat="44.012010" lon="5.230970">
						<ele>310</ele>
						<time>2021-04-14T13:42:00Z</time>
					</trkpt>
					<trkpt lat="44.011760" lon="5.231810">
						<ele>316</ele>
						<time>2021-04-14T13:42:32Z</time>
					</trkpt>
					<trkpt lat="44.011300" lon="5.232930">
						<ele>322</ele>
						<time>2021-04-14T13:43:19Z</time>
					</trkpt>
					<trkpt lat="44.011020" lon="5.234340">
						<ele>328</ele>
						<time>2021-04-14T13:44:11Z</time>
					</trkpt>
					<trkpt lat="44.011000" lon="5.234600">
						<ele>331</ele>
						<time>2021-04-14T13:44:21Z</time>
					</trkpt>
					<trkpt lat="44.011070" lon="5.234880">
						<ele>334</ele>
						<time>2021-04-14T13:44:32Z</time>
					</trkpt>
					<trkpt lat="44.011150" lon="5.235040">
						<ele>337</ele>
						<time>2021-04-14T13:44:39Z</time>
					</trkpt>
					<trkpt lat="44.011160" lon="5.235200">
						<ele>340</ele>
						<time>2021-04-14T13:44:44Z</time>
					</trkpt>
					<trkpt lat="44.011100" lon="5.235410">
						<ele>344</ele>
						<time>2021-04-14T13:44:52Z</time>
					</trkpt>
					<trkpt lat="44.010990" lon="5.235640">
						<ele>346</ele>
						<time>2021-04-14T13:45:02Z</time>
					</trkpt>
					<trkpt lat="44.010720" lon="5.236580">
						<ele>356</ele>
						<time>2021-04-14T13:45:39Z</time>
					</trkpt>
					<trkpt lat="44.010310" lon="5.237350">
						<ele>362</ele>
						<time>2021-04-14T13:46:13Z</time>
					</trkpt>
					<trkpt lat="44.010070" lon="5.237650">
						<ele>363</ele>
						<time>2021-04-14T13:46:29Z</time>
					</trkpt>
					<trkpt lat="44.010020" lon="5.237980">
						<ele>364</ele>
						<time>2021-04-14T13:46:42Z</time>
					</trkpt>
					<trkpt lat="44.009920" lon="5.238150">
						<ele>365</ele>
						<time>2021-04-14T13:46:50Z</time>
					</trkpt>
					<trkpt lat="44.009830" lon="5.238240">
						<ele>365</ele>
						<time>2021-04-14T13:46:55Z</time>
					</trkpt>
					<trkpt lat="44.009380" lon="5.238530">
						<ele>365</ele>
						<time>2021-04-14T13:47:20Z</time>
					</trkpt>
					<trkpt lat="44.009350" lon="5.238570">
						<ele>365</ele>
						<time>2021-04-14T13:47:22Z</time>
					</trkpt>
					<trkpt lat="44.009460" lon="5.239010">
						<ele>365</ele>
						<time>2021-04-14T13:47:39Z</time>
					</trkpt>
					<trkpt lat="44.009500" lon="5.239540">
						<ele>366</ele>
						<time>2021-04-14T13:47:58Z</time>
					</trkpt>
					<trkpt lat="44.009530" lon="5.239620">
						<ele>367</ele>
						<time>2021-04-14T13:48:01Z</time>
					</trkpt>
					<trkpt lat="44.010400" lon="5.239560">
						<ele>365</ele>
						<time>2021-04-14T13:48:45Z</time>
					</trkpt>
					<trkpt lat="44.010500" lon="5.239610">
						<ele>366</ele>
						<time>2021-04-14T13:48:50Z</time>
					</trkpt>
					<trkpt lat="44.010850" lon="5.239950">
						<ele>367</ele>
						<time>2021-04-14T13:49:11Z</time>
					</trkpt>
					<trkpt lat="44.010990" lon="5.240140">
						<ele>368</ele>
						<time>2021-04-14T13:49:21Z</time>
					</trkpt>
					<trkpt lat="44.011030" lon="5.240340">
						<ele>368</ele>
						<time>2021-04-14T13:49:29Z</time>
					</trkpt>
					<trkpt lat="44.010900" lon="5.240660">
						<ele>371</ele>
						<time>2021-04-14T13:49:42Z</time>
					</trkpt>
					<trkpt lat="44.010820" lon="5.240770">
						<ele>373</ele>
						<time>2021-04-14T13:49:48Z</time>
					</trkpt>
					<trkpt lat="44.010490" lon="5.241030">
						<ele>379</ele>
						<time>2021-04-14T13:50:07Z</time>
					</trkpt>
					<trkpt lat="44.010210" lon="5.241340">
						<ele>385</ele>
						<time>2021-04-14T13:50:24Z</time>
					</trkpt>
					<trkpt lat="44.009800" lon="5.241640">
						<ele>392</ele>
						<time>2021-04-14T13:50:48Z</time>
					</trkpt>
					<trkpt lat="44.009410" lon="5.241810">
						<ele>398</ele>
						<time>2021-04-14T13:51:08Z</time>
					</trkpt>
					<trkpt lat="44.009270" lon="5.242160">
						<ele>402</ele>
						<time>2021-04-14T13:51:23Z</time>
					</trkpt>
					<trkpt lat="44.009150" lon="5.242290">
						<ele>405</ele>
						<time>2021-04-14T13:51:30Z</time>
					</trkpt>
					<trkpt lat="44.008750" lon="5.242450">
						<ele>409</ele>
						<time>2021-04-14T13:51:51Z</time>
					</trkpt>
					<trkpt lat="44.008470" lon="5.242720">
						<ele>415</ele>
						<time>2021-04-14T13:52:08Z</time>
					</trkpt>
					<trkpt lat="44.008380" lon="5.242900">
						<ele>418</ele>
						<time>2021-04-14T13:52:16Z</time>
					</trkpt>
					<trkpt lat="44.008190" lon="5.243090">
						<ele>420</ele>
						<time>2021-04-14T13:52:28Z</time>
					</trkpt>
					<trkpt lat="44.008060" lon="5.243270">
						<ele>423</ele>
						<time>2021-04-14T13:52:37Z</time>
					</trkpt>
					<trkpt lat="44.008040" lon="5.243340">
						<ele>424</ele>
						<time>2021-04-14T13:52:40Z</time>
					</trkpt>
					<trkpt lat="44.007910" lon="5.243500">
						<ele>427</ele>
						<time>2021-04-14T13:52:48Z</time>
					</trkpt>
					<trkpt lat="44.007860" lon="5.243620">
						<ele>430</ele>
						<time>2021-04-14T13:52:53Z</time>
					</trkpt>
					<trkpt lat="44.007590" lon="5.244000">
						<ele>441</ele>
						<time>2021-04-14T13:53:12Z</time>
					</trkpt>
					<trkpt lat="44.007560" lon="5.244200">
						<ele>447</ele>
						<time>2021-04-14T13:53:20Z</time>
					</trkpt>
					<trkpt lat="44.007490" lon="5.244380">
						<ele>450</ele>
						<time>2021-04-14T13:53:27Z</time>
					</trkpt>
					<trkpt lat="44.007190" lon="5.244950">
						<ele>458</ele>
						<time>2021-04-14T13:53:53Z</time>
					</trkpt>
					<trkpt lat="44.007140" lon="5.245110">
						<ele>460</ele>
						<time>2021-04-14T13:53:59Z</time>
					</trkpt>
					<trkpt lat="44.007030" lon="5.245250">
						<ele>463</ele>
						<time>2021-04-14T13:54:06Z</time>
					</trkpt>
					<trkpt lat="44.006930" lon="5.245530">
						<ele>468</ele>
						<time>2021-04-14T13:54:18Z</time>
					</trkpt>
					<trkpt lat="44.006810" lon="5.245680">
						<ele>473</ele>
						<time>2021-04-14T13:54:26Z</time>
					</trkpt>
					<trkpt lat="44.006500" lon="5.245900">
						<ele>478</ele>
						<time>2021-04-14T13:54:43Z</time>
					</trkpt>
					<trkpt lat="44.006420" lon="5.246160">
						<ele>480</ele>
						<time>2021-04-14T13:54:53Z</time>
					</trkpt>
					<trkpt lat="44.006340" lon="5.246280">
						<ele>481</ele>
						<time>2021-04-14T13:54:59Z</time>
					</trkpt>
					<trkpt lat="44.006130" lon="5.246470">
						<ele>485</ele>
						<time>2021-04-14T13:55:12Z</time>
					</trkpt>
					<trkpt lat="44.005980" lon="5.246680">
						<ele>491</ele>
						<time>2021-04-14T13:55:22Z</time>
					</trkpt>
					<trkpt lat="44.005670" lon="5.247010">
						<ele>497</ele>
						<time>2021-04-14T13:55:42Z</time>
					</trkpt>
					<trkpt lat="44.005270" lon="5.247650">
						<ele>507</ele>
						<time>2021-04-14T13:56:12Z</time>
					</trkpt>
					<trkpt lat="44.005180" lon="5.247730">
						<ele>508</ele>
						<time>2021-04-14T13:56:18Z</time>
					</trkpt>
					<trkpt lat="44.004920" lon="5.248060">
						<ele>512</ele>
						<time>2021-04-14T13:56:35Z</time>
					</trkpt>
					<trkpt lat="44.004700" lon="5.248240">
						<ele>513</ele>
						<time>2021-04-14T13:56:48Z</time>
					</trkpt>
					<trkpt lat="44.004640" lon="5.248320">
						<ele>514</ele>
						<time>2021-04-14T13:56:52Z</time>
					</trkpt>
					<trkpt lat="44.004360" lon="5.248750">
						<ele>519</ele>
						<time>2021-04-14T13:57:13Z</time>
					</trkpt>
					<trkpt lat="44.004230" lon="5.249130">
						<ele>527</ele>
						<time>2021-04-14T13:57:28Z</time>
					</trkpt>
					<trkpt lat="44.003940" lon="5.249670">
						<ele>531</ele>
						<time>2021-04-14T13:57:53Z</time>
					</trkpt>
					<trkpt lat="44.003100" lon="5.250840">
						<ele>554</ele>
						<time>2021-04-14T13:58:52Z</time>
					</trkpt>
					<trkpt lat="44.002780" lon="5.251120">
						<ele>558</ele>
						<time>2021-04-14T13:59:11Z</time>
					</trkpt>
					<trkpt lat="44.002460" lon="5.251620">
						<ele>569</ele>
						<time>2021-04-14T13:59:35Z</time>
					</trkpt>
					<trkpt lat="44.002350" lon="5.252120">
						<ele>576</ele>
						<time>2021-04-14T13:59:54Z</time>
					</trkpt>
					<trkpt lat="44.002300" lon="5.252470">
						<ele>582</ele>
						<time>2021-04-14T14:00:07Z</time>
					</trkpt>
					<trkpt lat="44.002300" lon="5.252670">
						<ele>585</ele>
						<time>2021-04-14T14:00:14Z</time>
					</trkpt>
					<trkpt lat="44.002240" lon="5.252820">
						<ele>588</ele>
						<time>2021-04-14T14:00:20Z</time>
					</trkpt>
					<trkpt lat="44.002220" lon="5.252950">
						<ele>590</ele>
						<time>2021-04-14T14:00:25Z</time>
					</trkpt>
					<trkpt lat="44.002170" lon="5.253040">
						<ele>592</ele>
						<time>2021-04-14T14:00:29Z</time>
					</trkpt>
					<trkpt lat="44.002030" lon="5.253650">
						<ele>604</ele>
						<time>2021-04-14T14:00:52Z</time>
					</trkpt>
					<trkpt lat="44.001880" lon="5.254060">
						<ele>614</ele>
						<time>2021-04-14T14:01:09Z</time>
					</trkpt>
					<trkpt lat="44.001770" lon="5.254470">
						<ele>621</ele>
						<time>2021-04-14T14:01:24Z</time>
					</trkpt>
					<trkpt lat="44.001670" lon="5.254700">
						<ele>625</ele>
						<time>2021-04-14T14:01:34Z</time>
					</trkpt>
					<trkpt lat="44.001120" lon="5.255620">
						<ele>637</ele>
						<time>2021-04-14T14:02:17Z</time>
					</trkpt>
					<trkpt lat="44.000790" lon="5.255830">
						<ele>645</ele>
						<time>2021-04-14T14:02:35Z</time>
					</trkpt>
					<trkpt lat="44.000400" lon="5.256360">
						<ele>648</ele>
						<time>2021-04-14T14:03:03Z</time>
					</trkpt>
					<trkpt lat="44.000260" lon="5.256650">
						<ele>653</ele>
						<time>2021-04-14T14:03:15Z</time>
					</trkpt>
					<trkpt lat="44.000180" lon="5.256690">
						<ele>655</ele>
						<time>2021-04-14T14:03:19Z</time>
					</trkpt>
					<trkpt lat="43.999950" lon="5.256890">
						<ele>659</ele>
						<time>2021-04-14T14:03:33Z</time>
					</trkpt>
					<trkpt lat="43.999880" lon="5.257110">
						<ele>661</ele>
						<time>2021-04-14T14:03:42Z</time>
					</trkpt>
					<trkpt lat="43.999760" lon="5.257270">
						<ele>663</ele>
						<time>2021-04-14T14:03:50Z</time>
					</trkpt>
					<trkpt lat="43.999510" lon="5.257720">
						<ele>672</ele>
						<time>2021-04-14T14:04:10Z</time>
					</trkpt>
					<trkpt lat="43.999500" lon="5.257810">
						<ele>674</ele>
						<time>2021-04-14T14:04:14Z</time>
					</trkpt>
					<trkpt lat="43.999590" lon="5.258130">
						<ele>678</ele>
						<time>2021-04-14T14:04:26Z</time>
					</trkpt>
					<trkpt lat="43.999540" lon="5.258840">
						<ele>693</ele>
						<time>2021-04-14T14:04:52Z</time>
					</trkpt>
					<trkpt lat="43.999620" lon="5.258990">
						<ele>693</ele>
						<time>2021-04-14T14:04:58Z</time>
					</trkpt>
					<trkpt lat="43.999610" lon="5.259470">
						<ele>697</ele>
						<time>2021-04-14T14:05:16Z</time>
					</trkpt>
					<trkpt lat="43.999380" lon="5.259870">
						<ele>706</ele>
						<time>2021-04-14T14:05:34Z</time>
					</trkpt>
					<trkpt lat="43.999200" lon="5.260250">
						<ele>711</ele>
						<time>2021-04-14T14:05:51Z</time>
					</trkpt>
					<trkpt lat="43.999040" lon="5.260510">
						<ele>713</ele>
						<time>2021-04-14T14:06:03Z</time>
					</trkpt>
					<trkpt lat="43.998780" lon="5.260520">
						<ele>720</ele>
						<time>2021-04-14T14:06:16Z</time>
					</trkpt>
					<trkpt lat="43.998750" lon="5.260040">
						<ele>726</ele>
						<time>2021-04-14T14:06:33Z</time>
					</trkpt>
					<trkpt lat="43.998690" lon="5.259880">
						<ele>727</ele>
						<time>2021-04-14T14:06:40Z</time>
					</trkpt>
					<trkpt lat="43.998400" lon="5.259520">
						<ele>732</ele>
						<time>2021-04-14T14:06:59Z</time>
					</trkpt>
					<trkpt lat="43.998260" lon="5.259630">
						<ele>736</ele>
						<time>2021-04-14T14:07:07Z</time>
					</trkpt>
					<trkpt lat="43.998210" lon="5.260050">
						<ele>739</ele>
						<time>2021-04-14T14:07:23Z</time>
					</trkpt>
					<trkpt lat="43.998130" lon="5.260210">
						<ele>739</ele>
						<time>2021-04-14T14:07:30Z</time>
					</trkpt>
					<trkpt lat="43.998010" lon="5.260310">
						<ele>740</ele>
						<time>2021-04-14T14:07:37Z</time>
					</trkpt>
					<trkpt lat="43.997750" lon="5.260460">
						<ele>742</ele>
						<time>2021-04-14T14:07:51Z</time>
					</trkpt>
					<trkpt lat="43.997330" lon="5.260650">
						<ele>746</ele>
						<time>2021-04-14T14:08:13Z</time>
					</trkpt>
					<trkpt lat="43.997060" lon="5.260810">
						<ele>747</ele>
						<time>2021-04-14T14:08:27Z</time>
					</trkpt>
					<trkpt lat="43.996850" lon="5.260980">
						<ele>749</ele>
						<time>2021-04-14T14:08:40Z</time>
					</trkpt>
					<trkpt lat="43.996780" lon="5.261090">
						<ele>749</ele>
						<time>2021-04-14T14:08:45Z</time>
					</trkpt>
					<trkpt lat="43.996710" lon="5.261110">
						<ele>750</ele>
						<time>2021-04-14T14:08:48Z</time>
					</trkpt>
					<trkpt lat="43.996680" lon="5.261000">
						<ele>751</ele>
						<time>2021-04-14T14:08:53Z</time>
					</trkpt>
					<trkpt lat="43.996680" lon="5.260740">
						<ele>751</ele>
						<time>2021-04-14T14:09:02Z</time>
					</trkpt>
					<trkpt lat="43.996620" lon="5.260100">
						<ele>752</ele>
						<time>2021-04-14T14:09:25Z</time>
					</trkpt>
					<trkpt lat="43.996410" lon="5.259270">
						<ele>752</ele>
						<time>2021-04-14T14:09:57Z</time>
					</trkpt>
					<trkpt lat="43.996310" lon="5.259060">
						<ele>751</ele>
						<time>2021-04-14T14:10:06Z</time>
					</trkpt>
					<trkpt lat="43.995530" lon="5.257770">
						<ele>748</ele>
						<time>2021-04-14T14:11:07Z</time>
					</trkpt>
					<trkpt lat="43.995270" lon="5.257220">
						<ele>748</ele>
						<time>2021-04-14T14:11:30Z</time>
					</trkpt>
					<trkpt lat="43.995080" lon="5.256910">
						<ele>750</ele>
						<time>2021-04-14T14:11:45Z</time>
					</trkpt>
					<trkpt lat="43.994810" lon="5.256640">
						<ele>752</ele>
						<time>2021-04-14T14:12:02Z</time>
					</trkpt>
					<trkpt lat="43.994480" lon="5.256420">
						<ele>754</ele>
						<time>2021-04-14T14:12:20Z</time>
					</trkpt>
					<trkpt lat="43.994440" lon="5.256360">
						<ele>754</ele>
						<time>2021-04-14T14:12:23Z</time>
					</trkpt>
					<trkpt lat="43.993830" lon="5.255220">
						<ele>762</ele>
						<time>2021-04-14T14:13:14Z</time>
					</trkpt>
					<trkpt lat="43.993690" lon="5.254710">
						<ele>762</ele>
						<time>2021-04-14T14:13:34Z</time>
					</trkpt>
					<trkpt lat="43.993610" lon="5.254510">
						<ele>762</ele>
						<time>2021-04-14T14:13:42Z</time>
					</trkpt>
					<trkpt lat="43.993210" lon="5.253920">
						<ele>764</ele>
						<time>2021-04-14T14:14:11Z</time>
					</trkpt>
					<trkpt lat="43.992950" lon="5.253610">
						<ele>765</ele>
						<time>2021-04-14T14:14:28Z</time>
					</trkpt>
					<trkpt lat="43.992780" lon="5.253310">
						<ele>766</ele>
						<time>2021-04-14T14:14:42Z</time>
					</trkpt>
					<trkpt lat="43.992450" lon="5.252340">
						<ele>762</ele>
						<time>2021-04-14T14:15:21Z</time>
					</trkpt>
					<trkpt lat="43.992220" lon="5.250960">
						<ele>752</ele>
						<time>2021-04-14T14:16:12Z</time>
					</trkpt>
					<trkpt lat="43.991540" lon="5.248660">
						<ele>756</ele>
						<time>2021-04-14T14:17:41Z</time>
					</trkpt>
					<trkpt lat="43.991280" lon="5.248120">
						<ele>756</ele>
						<time>2021-04-14T14:18:05Z</time>
					</trkpt>
					<trkpt lat="43.991060" lon="5.247970">
						<ele>756</ele>
						<time>2021-04-14T14:18:17Z</time>
					</trkpt>
					<trkpt lat="43.990660" lon="5.247760">
						<ele>755</ele>
						<time>2021-04-14T14:18:38Z</time>
					</trkpt>
					<trkpt lat="43.990540" lon="5.247640">
						<ele>755</ele>
						<time>2021-04-14T14:18:46Z</time>
					</trkpt>
					<trkpt lat="43.990480" lon="5.247510">
						<ele>755</ele>
						<time>2021-04-14T14:18:51Z</time>
					</trkpt>
					<trkpt lat="43.990420" lon="5.247230">
						<ele>753</ele>
						<time>2021-04-14T14:19:02Z</time>
					</trkpt>
					<trkpt lat="43.990420" lon="5.246630">
						<ele>750</ele>
						<time>2021-04-14T14:19:23Z</time>
					</trkpt>
					<trkpt lat="43.990330" lon="5.246000">
						<ele>744</ele>
						<time>2021-04-14T14:19:46Z</time>
					</trkpt>
					<trkpt lat="43.990140" lon="5.245470">
						<ele>740</ele>
						<time>2021-04-14T14:20:08Z</time>
					</trkpt>
					<trkpt lat="43.990120" lon="5.245320">
						<ele>739</ele>
						<time>2021-04-14T14:20:13Z</time>
					</trkpt>
					<trkpt lat="43.990160" lon="5.244930">
						<ele>737</ele>
						<time>2021-04-14T14:20:27Z</time>
					</trkpt>
					<trkpt lat="43.990100" lon="5.244430">
						<ele>737</ele>
						<time>2021-04-14T14:20:46Z</time>
					</trkpt>
					<trkpt lat="43.990140" lon="5.244250">
						<ele>736</ele>
						<time>2021-04-14T14:20:52Z</time>
					</trkpt>
					<trkpt lat="43.990180" lon="5.244180">
						<ele>736</ele>
						<time>2021-04-14T14:20:56Z</time>
					</trkpt>
					<trkpt lat="43.990300" lon="5.244070">
						<ele>736</ele>
						<time>2021-04-14T14:21:03Z</time>
					</trkpt>
					<trkpt lat="43.990370" lon="5.243960">
						<ele>736</ele>
						<time>2021-04-14T14:21:08Z</time>
					</trkpt>
					<trkpt lat="43.990490" lon="5.243310">
						<ele>737</ele>
						<time>2021-04-14T14:21:32Z</time>
					</trkpt>
					<trkpt lat="43.990500" lon="5.242980">
						<ele>735</ele>
						<time>2021-04-14T14:21:44Z</time>
					</trkpt>
					<trkpt lat="43.990400" lon="5.242410">
						<ele>734</ele>
						<time>2021-04-14T14:22:05Z</time>
					</trkpt>
					<trkpt lat="43.990450" lon="5.242210">
						<ele>731</ele>
						<time>2021-04-14T14:22:13Z</time>
					</trkpt>
					<trkpt lat="43.990540" lon="5.242100">
						<ele>729</ele>
						<time>2021-04-14T14:22:19Z</time>
					</trkpt>
					<trkpt lat="43.990830" lon="5.241980">
						<ele>725</ele>
						<time>2021-04-14T14:22:34Z</time>
					</trkpt>
					<trkpt lat="43.991080" lon="5.241760">
						<ele>720</ele>
						<time>2021-04-14T14:22:49Z</time>
					</trkpt>
					<trkpt lat="43.991220" lon="5.241150">
						<ele>712</ele>
						<time>2021-04-14T14:23:12Z</time>
					</trkpt>
					<trkpt lat="43.991160" lon="5.240680">
						<ele>707</ele>
						<time>2021-04-14T14:23:29Z</time>
					</trkpt>
					<trkpt lat="43.990690" lon="5.239050">
						<ele>694</ele>
						<time>2021-04-14T14:24:32Z</time>
					</trkpt>
					<trkpt lat="43.990780" lon="5.238800">
						<ele>693</ele>
						<time>2021-04-14T14:24:42Z</time>
					</trkpt>
					<trkpt lat="43.990790" lon="5.238710">
						<ele>692</ele>
						<time>2021-04-14T14:24:46Z</time>
					</trkpt>
					<trkpt lat="43.990740" lon="5.238180">
						<ele>690</ele>
						<time>2021-04-14T14:25:05Z</time>
					</trkpt>
					<trkpt lat="43.990770" lon="5.237790">
						<ele>689</ele>
						<time>2021-04-14T14:25:19Z</time>
					</trkpt>
					<trkpt lat="43.990740" lon="5.237600">
						<ele>688</ele>
						<time>2021-04-14T14:25:26Z</time>
					</trkpt>
					<trkpt lat="43.990760" lon="5.237310">
						<ele>688</ele>
						<time>2021-04-14T14:25:37Z</time>
					</trkpt>
					<trkpt lat="43.990750" lon="5.236670">
						<ele>687</ele>
						<time>2021-04-14T14:26:00Z</time>
					</trkpt>
					<trkpt lat="43.990680" lon="5.236220">
						<ele>684</ele>
						<time>2021-04-14T14:26:16Z</time>
					</trkpt>
					<trkpt lat="43.990390" lon="5.235210">
						<ele>676</ele>
						<time>2021-04-14T14:26:55Z</time>
					</trkpt>
					<trkpt lat="43.989990" lon="5.233590">
						<ele>671</ele>
						<time>2021-04-14T14:27:57Z</time>
					</trkpt>
					<trkpt lat="43.989990" lon="5.233430">
						<ele>670</ele>
						<time>2021-04-14T14:28:03Z</time>
					</trkpt>
					<trkpt lat="43.989900" lon="5.233230">
						<ele>670</ele>
						<time>2021-04-14T14:28:11Z</time>
					</trkpt>
					<trkpt lat="43.989860" lon="5.233060">
						<ele>670</ele>
						<time>2021-04-14T14:28:18Z</time>
					</trkpt>
					<trkpt lat="43.989620" lon="5.232500">
						<ele>671</ele>
						<time>2021-04-14T14:28:41Z</time>
					</trkpt>
					<trkpt lat="43.989210" lon="5.231810">
						<ele>673</ele>
						<time>2021-04-14T14:29:13Z</time>
					</trkpt>
					<trkpt lat="43.989050" lon="5.231450">
						<ele>671</ele>
						<time>2021-04-14T14:29:29Z</time>
					</trkpt>
					<trkpt lat="43.988810" lon="5.230580">
						<ele>667</ele>
						<time>2021-04-14T14:30:02Z</time>
					</trkpt>
					<trkpt lat="43.988480" lon="5.229620">
						<ele>670</ele>
						<time>2021-04-14T14:30:40Z</time>
					</trkpt>
					<trkpt lat="43.988320" lon="5.228970">
						<ele>672</ele>
						<time>2021-04-14T14:31:05Z</time>
					</trkpt>
					<trkpt lat="43.988070" lon="5.228260">
						<ele>663</ele>
						<time>2021-04-14T14:31:34Z</time>
					</trkpt>
					<trkpt lat="43.987980" lon="5.227910">
						<ele>661</ele>
						<time>2021-04-14T14:31:47Z</time>
					</trkpt>
					<trkpt lat="43.987730" lon="5.227530">
						<ele>658</ele>
						<time>2021-04-14T14:32:06Z</time>
					</trkpt>
					<trkpt lat="43.987510" lon="5.227140">
						<ele>654</ele>
						<time>2021-04-14T14:32:23Z</time>
					</trkpt>
					<trkpt lat="43.986820" lon="5.226100">
						<ele>640</ele>
						<time>2021-04-14T14:33:14Z</time>
					</trkpt>
					<trkpt lat="43.986360" lon="5.225320">
						<ele>630</ele>
						<time>2021-04-14T14:33:51Z</time>
					</trkpt>
					<trkpt lat="43.986230" lon="5.225150">
						<ele>628</ele>
						<time>2021-04-14T14:34:00Z</time>
					</trkpt>
					<trkpt lat="43.986050" lon="5.224800">
						<ele>625</ele>
						<time>2021-04-14T14:34:15Z</time>
					</trkpt>
					<trkpt lat="43.985870" lon="5.224560">
						<ele>623</ele>
						<time>2021-04-14T14:34:28Z</time>
					</trkpt>
					<trkpt lat="43.985750" lon="5.224330">
						<ele>622</ele>
						<time>2021-04-14T14:34:38Z</time>
					</trkpt>
					<trkpt lat="43.985770" lon="5.224290">
						<ele>622</ele>
						<time>2021-04-14T14:34:40Z</time>
					</trkpt>
					<trkpt lat="43.985930" lon="5.224200">
						<ele>622</ele>
						<time>2021-04-14T14:34:48Z</time>
					</trkpt>
					<trkpt lat="43.986270" lon="5.224370">
						<ele>624</ele>
						<time>2021-04-14T14:35:06Z</time>
					</trkpt>
					<trkpt lat="43.986760" lon="5.224400">
						<ele>625</ele>
						<time>2021-04-14T14:35:31Z</time>
					</trkpt>
					<trkpt lat="43.987070" lon="5.224350">
						<ele>626</ele>
						<time>2021-04-14T14:35:46Z</time>
					</trkpt>
					<trkpt lat="43.987150" lon="5.224360">
						<ele>626</ele>
						<time>2021-04-14T14:35:50Z</time>
					</trkpt>
					<trkpt lat="43.987440" lon="5.224280">
						<ele>626</ele>
						<time>2021-04-14T14:36:05Z</time>
					</trkpt>
					<trkpt lat="43.987660" lon="5.224310">
						<ele>628</ele>
						<time>2021-04-14T14:36:16Z</time>
					</trkpt>
					<trkpt lat="43.987930" lon="5.224300">
						<ele>628</ele>
						<time>2021-04-14T14:36:30Z</time>
					</trkpt>
					<trkpt lat="43.988100" lon="5.224330">
						<ele>629</ele>
						<time>2021-04-14T14:36:38Z</time>
					</trkpt>
					<trkpt lat="43.988290" lon="5.224250">
						<ele>629</ele>
						<time>2021-04-14T14:36:48Z</time>
					</trkpt>
					<trkpt lat="43.988570" lon="5.224060">
						<ele>626</ele>
						<time>2021-04-14T14:37:04Z</time>
					</trkpt>
					<trkpt lat="43.988790" lon="5.224080">
						<ele>626</ele>
						<time>2021-04-14T14:37:15Z</time>
					</trkpt>
					<trkpt lat="43.988880" lon="5.224050">
						<ele>626</ele>
						<time>2021-04-14T14:37:20Z</time>
					</trkpt>
					<trkpt lat="43.989120" lon="5.223820">
						<ele>622</ele>
						<time>2021-04-14T14:37:34Z</time>
					</trkpt>
					<trkpt lat="43.989250" lon="5.223730">
						<ele>621</ele>
						<time>2021-04-14T14:37:41Z</time>
					</trkpt>
					<trkpt lat="43.989520" lon="5.223710">
						<ele>619</ele>
						<time>2021-04-14T14:37:55Z</time>
					</trkpt>
					<trkpt lat="43.989610" lon="5.223660">
						<ele>618</ele>
						<time>2021-04-14T14:38:00Z</time>
					</trkpt>
					<trkpt lat="43.989860" lon="5.223610">
						<ele>616</ele>
						<time>2021-04-14T14:38:13Z</time>
					</trkpt>
					<trkpt lat="43.990150" lon="5.223440">
						<ele>612</ele>
						<time>2021-04-14T14:38:28Z</time>
					</trkpt>
					<trkpt lat="43.990280" lon="5.223430">
						<ele>610</ele>
						<time>2021-04-14T14:38:35Z</time>
					</trkpt>
					<trkpt lat="43.990600" lon="5.223320">
						<ele>606</ele>
						<time>2021-04-14T14:38:51Z</time>
					</trkpt>
					<trkpt lat="43.990790" lon="5.223340">
						<ele>604</ele>
						<time>2021-04-14T14:39:01Z</time>
					</trkpt>
					<trkpt lat="43.991270" lon="5.223200">
						<ele>597</ele>
						<time>2021-04-14T14:39:25Z</time>
					</trkpt>
					<trkpt lat="43.991700" lon="5.223120">
						<ele>592</ele>
						<time>2021-04-14T14:39:47Z</time>
					</trkpt>
					<trkpt lat="43.991870" lon="5.223050">
						<ele>591</ele>
						<time>2021-04-14T14:39:56Z</time>
					</trkpt>
					<trkpt lat="43.991960" lon="5.222980">
						<ele>590</ele>
						<time>2021-04-14T14:40:01Z</time>
					</trkpt>
					<trkpt lat="43.992260" lon="5.222850">
						<ele>587</ele>
						<time>2021-04-14T14:40:17Z</time>
					</trkpt>
					<trkpt lat="43.992910" lon="5.222460">
						<ele>577</ele>
						<time>2021-04-14T14:40:52Z</time>
					</trkpt>
					<trkpt lat="43.993050" lon="5.222260">
						<ele>575</ele>
						<time>2021-04-14T14:41:02Z</time>
					</trkpt>
					<trkpt lat="43.993160" lon="5.222030">
						<ele>573</ele>
						<time>2021-04-14T14:41:12Z</time>
					</trkpt>
					<trkpt lat="43.993480" lon="5.221620">
						<ele>570</ele>
						<time>2021-04-14T14:41:34Z</time>
					</trkpt>
					<trkpt lat="43.993740" lon="5.221430">
						<ele>568</ele>
						<time>2021-04-14T14:41:49Z</time>
					</trkpt>
					<trkpt lat="43.993970" lon="5.221300">
						<ele>566</ele>
						<time>2021-04-14T14:42:01Z</time>
					</trkpt>
					<trkpt lat="43.994110" lon="5.221260">
						<ele>565</ele>
						<time>2021-04-14T14:42:08Z</time>
					</trkpt>
					<trkpt lat="43.994540" lon="5.221000">
						<ele>560</ele>
						<time>2021-04-14T14:42:32Z</time>
					</trkpt>
					<trkpt lat="43.995140" lon="5.220490">
						<ele>552</ele>
						<time>2021-04-14T14:43:07Z</time>
					</trkpt>
					<trkpt lat="43.995240" lon="5.220340">
						<ele>550</ele>
						<time>2021-04-14T14:43:14Z</time>
					</trkpt>
					<trkpt lat="43.995460" lon="5.220250">
						<ele>546</ele>
						<time>2021-04-14T14:43:26Z</time>
					</trkpt>
					<trkpt lat="43.995670" lon="5.220210">
						<ele>543</ele>
						<time>2021-04-14T14:43:36Z</time>
					</trkpt>
					<trkpt lat="43.995800" lon="5.220220">
						<ele>541</ele>
						<time>2021-04-14T14:43:43Z</time>
					</trkpt>
					<trkpt lat="43.996000" lon="5.220490">
						<ele>545</ele>
						<time>2021-04-14T14:43:57Z</time>
					</trkpt>
					<trkpt lat="43.996120" lon="5.220610">
						<ele>547</ele>
						<time>2021-04-14T14:44:04Z</time>
					</trkpt>
					<trkpt lat="43.996310" lon="5.220740">
						<ele>548</ele>
						<time>2021-04-14T14:44:15Z</time>
					</trkpt>
					<trkpt lat="43.996360" lon="5.220820">
						<ele>548</ele>
						<time>2021-04-14T14:44:19Z</time>
					</trkpt>
					<trkpt lat="43.996450" lon="5.221090">
						<ele>551</ele>
						<time>2021-04-14T14:44:29Z</time>
					</trkpt>
					<trkpt lat="43.996430" lon="5.221260">
						<ele>552</ele>
						<time>2021-04-14T14:44:36Z</time>
					</trkpt>
					<trkpt lat="43.996330" lon="5.221370">
						<ele>553</ele>
						<time>2021-04-14T14:44:42Z</time>
					</trkpt>
					<trkpt lat="43.996340" lon="5.221430">
						<ele>554</ele>
						<time>2021-04-14T14:44:44Z</time>
					</trkpt>
					<trkpt lat="43.996410" lon="5.221420">
						<ele>554</ele>
						<time>2021-04-14T14:44:48Z</time>
					</trkpt>
					<trkpt lat="43.996640" lon="5.221190">
						<ele>552</ele>
						<time>2021-04-14T14:45:02Z</time>
					</trkpt>
					<trkpt lat="43.996740" lon="5.220940">
						<ele>551</ele>
						<time>2021-04-14T14:45:12Z</time>
					</trkpt>
					<trkpt lat="43.996780" lon="5.220710">
						<ele>551</ele>
						<time>2021-04-14T14:45:21Z</time>
					</trkpt>
					<trkpt lat="43.996750" lon="5.220220">
						<ele>549</ele>
						<time>2021-04-14T14:45:38Z</time>
					</trkpt>
					<trkpt lat="43.996900" lon="5.219320">
						<ele>552</ele>
						<time>2021-04-14T14:46:12Z</time>
					</trkpt>
					<trkpt lat="43.997060" lon="5.218790">
						<ele>558</ele>
						<time>2021-04-14T14:46:32Z</time>
					</trkpt>
					<trkpt lat="43.997120" lon="5.218760">
						<ele>559</ele>
						<time>2021-04-14T14:46:36Z</time>
					</trkpt>
					<trkpt lat="43.997190" lon="5.218770">
						<ele>560</ele>
						<time>2021-04-14T14:46:39Z</time>
					</trkpt>
					<trkpt lat="43.997430" lon="5.218880">
						<ele>564</ele>
						<time>2021-04-14T14:46:52Z</time>
					</trkpt>
					<trkpt lat="43.998100" lon="5.218480">
						<ele>561</ele>
						<time>2021-04-14T14:47:28Z</time>
					</trkpt>
					<trkpt lat="43.998440" lon="5.218470">
						<ele>557</ele>
						<time>2021-04-14T14:47:45Z</time>
					</trkpt>
					<trkpt lat="43.998580" lon="5.218300">
						<ele>553</ele>
						<time>2021-04-14T14:47:55Z</time>
					</trkpt>
					<trkpt lat="43.999010" lon="5.218260">
						<ele>543</ele>
						<time>2021-04-14T14:48:16Z</time>
					</trkpt>
					<trkpt lat="43.999620" lon="5.218040">
						<ele>525</ele>
						<time>2021-04-14T14:48:48Z</time>
					</trkpt>
					<trkpt lat="43.999710" lon="5.217940">
						<ele>522</ele>
						<time>2021-04-14T14:48:53Z</time>
					</trkpt>
					<trkpt lat="43.999810" lon="5.217730">
						<ele>518</ele>
						<time>2021-04-14T14:49:02Z</time>
					</trkpt>
					<trkpt lat="43.999950" lon="5.217540">
						<ele>514</ele>
						<time>2021-04-14T14:49:12Z</time>
					</trkpt>
					<trkpt lat="43.999990" lon="5.217520">
						<ele>513</ele>
						<time>2021-04-14T14:49:14Z</time>
					</trkpt>
					<trkpt lat="44.000230" lon="5.217510">
						<ele>507</ele>
						<time>2021-04-14T14:49:26Z</time>
					</trkpt>
					<trkpt lat="44.000330" lon="5.217320">
						<ele>502</ele>
						<time>2021-04-14T14:49:35Z</time>
					</trkpt>
					<trkpt lat="44.000380" lon="5.217270">
						<ele>500</ele>
						<time>2021-04-14T14:49:38Z</time>
					</trkpt>
					<trkpt lat="44.000410" lon="5.217280">
						<ele>499</ele>
						<time>2021-04-14T14:49:39Z</time>
					</trkpt>
					<trkpt lat="44.000490" lon="5.217400">
						<ele>500</ele>
						<time>2021-04-14T14:49:45Z</time>
					</trkpt>
					<trkpt lat="44.000580" lon="5.217400">
						<ele>497</ele>
						<time>2021-04-14T14:49:50Z</time>
					</trkpt>
					<trkpt lat="44.000750" lon="5.217190">
						<ele>490</ele>
						<time>2021-04-14T14:50:01Z</time>
					</trkpt>
					<trkpt lat="44.000780" lon="5.217180">
						<ele>490</ele>
						<time>2021-04-14T14:50:03Z</time>
					</trkpt>
					<trkpt lat="44.000830" lon="5.217470">
						<ele>493</ele>
						<time>2021-04-14T14:50:14Z</time>
					</trkpt>
					<trkpt lat="44.000940" lon="5.217840">
						<ele>487</ele>
						<time>2021-04-14T14:50:28Z</time>
					</trkpt>
					<trkpt lat="44.000990" lon="5.217870">
						<ele>486</ele>
						<time>2021-04-14T14:50:31Z</time>
					</trkpt>
					<trkpt lat="44.001170" lon="5.217810">
						<ele>480</ele>
						<time>2021-04-14T14:50:40Z</time>
					</trkpt>
					<trkpt lat="44.001320" lon="5.217790">
						<ele>476</ele>
						<time>2021-04-14T14:50:47Z</time>
					</trkpt>
					<trkpt lat="44.001370" lon="5.217820">
						<ele>474</ele>
						<time>2021-04-14T14:50:50Z</time>
					</trkpt>
					<trkpt lat="44.001470" lon="5.218150">
						<ele>470</ele>
						<time>2021-04-14T14:51:03Z</time>
					</trkpt>
					<trkpt lat="44.001460" lon="5.218310">
						<ele>470</ele>
						<time>2021-04-14T14:51:09Z</time>
					</trkpt>
					<trkpt lat="44.001400" lon="5.218560">
						<ele>469</ele>
						<time>2021-04-14T14:51:18Z</time>
					</trkpt>
					<trkpt lat="44.001430" lon="5.218600">
						<ele>468</ele>
						<time>2021-04-14T14:51:20Z</time>
					</trkpt>
					<trkpt lat="44.001880" lon="5.218650">
						<ele>454</ele>
						<time>2021-04-14T14:51:43Z</time>
					</trkpt>
					<trkpt lat="44.002010" lon="5.218600">
						<ele>450</ele>
						<time>2021-04-14T14:51:50Z</time>
					</trkpt>
					<trkpt lat="44.002090" lon="5.218490">
						<ele>449</ele>
						<time>2021-04-14T14:51:55Z</time>
					</trkpt>
					<trkpt lat="44.002150" lon="5.218490">
						<ele>447</ele>
						<time>2021-04-14T14:51:58Z</time>
					</trkpt>
					<trkpt lat="44.002340" lon="5.219030">
						<ele>437</ele>
						<time>2021-04-14T14:52:20Z</time>
					</trkpt>
					<trkpt lat="44.002520" lon="5.219090">
						<ele>432</ele>
						<time>2021-04-14T14:52:29Z</time>
					</trkpt>
					<trkpt lat="44.002610" lon="5.219060">
						<ele>431</ele>
						<time>2021-04-14T14:52:34Z</time>
					</trkpt>
					<trkpt lat="44.002710" lon="5.218890">
						<ele>429</ele>
						<time>2021-04-14T14:52:42Z</time>
					</trkpt>
					<trkpt lat="44.002760" lon="5.218850">
						<ele>428</ele>
						<time>2021-04-14T14:52:45Z</time>
					</trkpt>
					<trkpt lat="44.002840" lon="5.218860">
						<ele>427</ele>
						<time>2021-04-14T14:52:49Z</time>
					</trkpt>
					<trkpt lat="44.002900" lon="5.218900">
						<ele>425</ele>
						<time>2021-04-14T14:52:52Z</time>
					</trkpt>
					<trkpt lat="44.003000" lon="5.219050">
						<ele>423</ele>
						<time>2021-04-14T14:52:59Z</time>
					</trkpt>
					<trkpt lat="44.003170" lon="5.219130">
						<ele>421</ele>
						<time>2021-04-14T14:53:08Z</time>
					</trkpt>
					<trkpt lat="44.003270" lon="5.219300">
						<ele>418</ele>
						<time>2021-04-14T14:53:16Z</time>
					</trkpt>
					<trkpt lat="44.003350" lon="5.219360">
						<ele>416</ele>
						<time>2021-04-14T14:53:21Z</time>
					</trkpt>
					<trkpt lat="44.003410" lon="5.219330">
						<ele>415</ele>
						<time>2021-04-14T14:53:24Z</time>
					</trkpt>
					<trkpt lat="44.003530" lon="5.219130">
						<ele>413</ele>
						<time>2021-04-14T14:53:33Z</time>
					</trkpt>
					<trkpt lat="44.003600" lon="5.219090">
						<ele>411</ele>
						<time>2021-04-14T14:53:37Z</time>
					</trkpt>
					<trkpt lat="44.003970" lon="5.219650">
						<ele>400</ele>
						<time>2021-04-14T14:54:05Z</time>
					</trkpt>
					<trkpt lat="44.004310" lon="5.219800">
						<ele>394</ele>
						<time>2021-04-14T14:54:22Z</time>
					</trkpt>
					<trkpt lat="44.004540" lon="5.220050">
						<ele>391</ele>
						<time>2021-04-14T14:54:37Z</time>
					</trkpt>
					<trkpt lat="44.004790" lon="5.220170">
						<ele>387</ele>
						<time>2021-04-14T14:54:50Z</time>
					</trkpt>
					<trkpt lat="44.004950" lon="5.220320">
						<ele>384</ele>
						<time>2021-04-14T14:55:00Z</time>
					</trkpt>
					<trkpt lat="44.005030" lon="5.220440">
						<ele>381</ele>
						<time>2021-04-14T14:55:06Z</time>
					</trkpt>
					<trkpt lat="44.005060" lon="5.220600">
						<ele>379</ele>
						<time>2021-04-14T14:55:12Z</time>
					</trkpt>
					<trkpt lat="44.005440" lon="5.220890">
						<ele>371</ele>
						<time>2021-04-14T14:55:34Z</time>
					</trkpt>
					<trkpt lat="44.005530" lon="5.221030">
						<ele>368</ele>
						<time>2021-04-14T14:55:40Z</time>
					</trkpt>
					<trkpt lat="44.006090" lon="5.221610">
						<ele>357</ele>
						<time>2021-04-14T14:56:15Z</time>
					</trkpt>
					<trkpt lat="44.006400" lon="5.221810">
						<ele>354</ele>
						<time>2021-04-14T14:56:32Z</time>
					</trkpt>
					<trkpt lat="44.006720" lon="5.221980">
						<ele>352</ele>
						<time>2021-04-14T14:56:49Z</time>
					</trkpt>
					<trkpt lat="44.007100" lon="5.222140">
						<ele>350</ele>
						<time>2021-04-14T14:57:09Z</time>
					</trkpt>
					<trkpt lat="44.007290" lon="5.222150">
						<ele>350</ele>
						<time>2021-04-14T14:57:19Z</time>
					</trkpt>
					<trkpt lat="44.007420" lon="5.222130">
						<ele>349</ele>
						<time>2021-04-14T14:57:25Z</time>
					</trkpt>
					<trkpt lat="44.007600" lon="5.222040">
						<ele>348</ele>
						<time>2021-04-14T14:57:35Z</time>
					</trkpt>
					<trkpt lat="44.007690" lon="5.222080">
						<ele>348</ele>
						<time>2021-04-14T14:57:40Z</time>
					</trkpt>
					<trkpt lat="44.007790" lon="5.222190">
						<ele>347</ele>
						<time>2021-04-14T14:57:46Z</time>
					</trkpt>
					<trkpt lat="44.007860" lon="5.222220">
						<ele>347</ele>
						<time>2021-04-14T14:57:50Z</time>
					</trkpt>
					<trkpt lat="44.008380" lon="5.221960">
						<ele>343</ele>
						<time>2021-04-14T14:58:17Z</time>
					</trkpt>
					<trkpt lat="44.008480" lon="5.221930">
						<ele>343</ele>
						<time>2021-04-14T14:58:23Z</time>
					</trkpt>
					<trkpt lat="44.008690" lon="5.221970">
						<ele>342</ele>
						<time>2021-04-14T14:58:33Z</time>
					</trkpt>
					<trkpt lat="44.009210" lon="5.222000">
						<ele>339</ele>
						<time>2021-04-14T14:58:59Z</time>
					</trkpt>
					<trkpt lat="44.009330" lon="5.222080">
						<ele>339</ele>
						<time>2021-04-14T14:59:06Z</time>
					</trkpt>
					<trkpt lat="44.009410" lon="5.222210">
						<ele>339</ele>
						<time>2021-04-14T14:59:12Z</time>
					</trkpt>
					<trkpt lat="44.009620" lon="5.222790">
						<ele>340</ele>
						<time>2021-04-14T14:59:35Z</time>
					</trkpt>
					<trkpt lat="44.009680" lon="5.222890">
						<ele>340</ele>
						<time>2021-04-14T14:59:40Z</time>
					</trkpt>
					<trkpt lat="44.009760" lon="5.222990">
						<ele>340</ele>
						<time>2021-04-14T14:59:45Z</time>
					</trkpt>
					<trkpt lat="44.009920" lon="5.223080">
						<ele>339</ele>
						<time>2021-04-14T14:59:54Z</time>
					</trkpt>
					<trkpt lat="44.010280" lon="5.223420">
						<ele>337</ele>
						<time>2021-04-14T15:00:16Z</time>
					</trkpt>
					<trkpt lat="44.010410" lon="5.223430">
						<ele>336</ele>
						<time>2021-04-14T15:00:22Z</time>
					</trkpt>
					<trkpt lat="44.011350" lon="5.223370">
						<ele>327</ele>
						<time>2021-04-14T15:01:09Z</time>
					</trkpt>
					<trkpt lat="44.011590" lon="5.223400">
						<ele>324</ele>
						<time>2021-04-14T15:01:21Z</time>
					</trkpt>
					<trkpt lat="44.011650" lon="5.223490">
						<ele>324</ele>
						<time>2021-04-14T15:01:26Z</time>
					</trkpt>
					<trkpt lat="44.011720" lon="5.224270">
						<ele>326</ele>
						<time>2021-04-14T15:01:54Z</time>
					</trkpt>
					<trkpt lat="44.011750" lon="5.224420">
						<ele>326</ele>
						<time>2021-04-14T15:02:00Z</time>
					</trkpt>
					<trkpt lat="44.011790" lon="5.224470">
						<ele>325</ele>
						<time>2021-04-14T15:02:02Z</time>
					</trkpt>
					<trkpt lat="44.011890" lon="5.224490">
						<ele>325</ele>
						<time>2021-04-14T15:02:08Z</time>
					</trkpt>
					<trkpt lat="44.012390" lon="5.224330">
						<ele>321</ele>
						<time>2021-04-14T15:02:33Z</time>
					</trkpt>
					<trkpt lat="44.013000" lon="5.224290">
						<ele>318</ele>
						<time>2021-04-14T15:03:04Z</time>
					</trkpt>
					<trkpt lat="44.013640" lon="5.224150">
						<ele>317</ele>
						<time>2021-04-14T15:03:36Z</time>
					</trkpt>
					<trkpt lat="44.013670" lon="5.224160">
						<ele>317</ele>
						<time>2021-04-14T15:03:38Z</time>
					</trkpt>
					<trkpt lat="44.013840" lon="5.224400">
						<ele>317</ele>
						<time>2021-04-14T15:03:50Z</time>
					</trkpt>
					<trkpt lat="44.013980" lon="5.224460">
						<ele>317</ele>
						<time>2021-04-14T15:03:57Z</time>
					</trkpt>
					<trkpt lat="44.014050" lon="5.224430">
						<ele>318</ele>
						<time>2021-04-14T15:04:01Z</time>
					</trkpt>
					<trkpt lat="44.014050" lon="5.224130">
						<ele>318</ele>
						<time>2021-04-14T15:04:12Z</time>
					</trkpt>
					<trkpt lat="44.014070" lon="5.224100">
						<ele>318</ele>
						<time>2021-04-14T15:04:13Z</time>
					</trkpt>
					<trkpt lat="44.014100" lon="5.224110">
						<ele>319</ele>
						<time>2021-04-14T15:04:15Z</time>
					</trkpt>
					<trkpt lat="44.014280" lon="5.224400">
						<ele>319</ele>
						<time>2021-04-14T15:04:28Z</time>
					</trkpt>
					<trkpt lat="44.014670" lon="5.224770">
						<ele>320</ele>
						<time>2021-04-14T15:04:52Z</time>
					</trkpt>
					<trkpt lat="44.015500" lon="5.225380">
						<ele>322</ele>
						<time>2021-04-14T15:05:39Z</time>
					</trkpt>
					</trkseg>
				</trk>
			</gpx>