<?xml version="1.0"?>
<gpx version="1.1" creator="GDAL 2.2.1" xmlns:xsi="http://www.w3.org/2001/XMLSchema-instance" xmlns:ogr="http://osgeo.org/gdal" xmlns="http://www.topografix.com/GPX/1/1" xsi:schemaLocation="http://www.topografix.com/GPX/1/1 http://www.topografix.com/GPX/1/1/gpx.xsd">
<metadata><bounds minlat="44.062869999999890" minlon="5.160130000000000" maxlat="44.085209999999904" maxlon="5.185600000000001"/></metadata>                    
<rte>
  <name>14891605-Destination Trail Mormoiron/ Mazan</name>
  <rtept lat="44.065809999999892" lon="5.17894">
    <ele>243.0</ele>
  </rtept>
  <rtept lat="44.06584" lon="5.17903">
    <ele>243.0</ele>
  </rtept>
  <rtept lat="44.065899999999893" lon="5.17899">
    <ele>244.0</ele>
  </rtept>
  <rtept lat="44.065939999999891" lon="5.17905">
    <ele>244.0</ele>
  </rtept>
  <rtept lat="44.065839999999888" lon="5.17912">
    <ele>243.0</ele>
  </rtept>
  <rtept lat="44.06583" lon="5.17916">
    <ele>243.0</ele>
  </rtept>
  <rtept lat="44.06584" lon="5.17945">
    <ele>242.0</ele>
  </rtept>
  <rtept lat="44.065809999999892" lon="5.17948">
    <ele>242.0</ele>
  </rtept>
  <rtept lat="44.06586" lon="5.17964">
    <ele>242.0</ele>
  </rtept>
  <rtept lat="44.06588" lon="5.17982">
    <ele>241.0</ele>
  </rtept>
  <rtept lat="44.06629" lon="5.18073">
    <ele>241.0</ele>
  </rtept>
  <rtept lat="44.06647" lon="5.18105">
    <ele>242.0</ele>
  </rtept>
  <rtept lat="44.06708" lon="5.18189">
    <ele>242.0</ele>
  </rtept>
  <rtept lat="44.067109999999893" lon="5.18189">
    <ele>242.0</ele>
  </rtept>
  <rtept lat="44.06715" lon="5.18182">
    <ele>242.0</ele>
  </rtept>
  <rtept lat="44.06722" lon="5.18148">
    <ele>243.0</ele>
  </rtept>
  <rtept lat="44.06729" lon="5.18139">
    <ele>244.0</ele>
  </rtept>
  <rtept lat="44.06732" lon="5.18098">
    <ele>247.0</ele>
  </rtept>
  <rtept lat="44.0674" lon="5.18063">
    <ele>250.0</ele>
  </rtept>
  <rtept lat="44.06746" lon="5.17993">
    <ele>255.0</ele>
  </rtept>
  <rtept lat="44.06758" lon="5.17951">
    <ele>259.0</ele>
  </rtept>
  <rtept lat="44.06762" lon="5.17945">
    <ele>260.0</ele>
  </rtept>
  <rtept lat="44.067819999999884" lon="5.17922">
    <ele>263.0</ele>
  </rtept>
  <rtept lat="44.0681" lon="5.17908">
    <ele>266.0</ele>
  </rtept>
  <rtept lat="44.06821" lon="5.17894">
    <ele>267.0</ele>
  </rtept>
  <rtept lat="44.06825" lon="5.17895">
    <ele>267.0</ele>
  </rtept>
  <rtept lat="44.0686" lon="5.17866">
    <ele>270.0</ele>
  </rtept>
  <rtept lat="44.0687" lon="5.17854">
    <ele>270.0</ele>
  </rtept>
  <rtept lat="44.06873" lon="5.17854">
    <ele>270.0</ele>
  </rtept>
  <rtept lat="44.06915" lon="5.17799">
    <ele>273.0</ele>
  </rtept>
  <rtept lat="44.069499999999898" lon="5.17746">
    <ele>273.0</ele>
  </rtept>
  <rtept lat="44.069729999999886" lon="5.17694">
    <ele>277.0</ele>
  </rtept>
  <rtept lat="44.070169999999891" lon="5.17665">
    <ele>283.0</ele>
  </rtept>
  <rtept lat="44.07021" lon="5.1766">
    <ele>284.0</ele>
  </rtept>
  <rtept lat="44.070399999999893" lon="5.17648">
    <ele>287.0</ele>
  </rtept>
  <rtept lat="44.070569999999897" lon="5.17632">
    <ele>290.0</ele>
  </rtept>
  <rtept lat="44.07086" lon="5.17639">
    <ele>293.0</ele>
  </rtept>
  <rtept lat="44.071" lon="5.17633">
    <ele>295.0</ele>
  </rtept>
  <rtept lat="44.071079999999895" lon="5.17638">
    <ele>295.0</ele>
  </rtept>
  <rtept lat="44.07116" lon="5.17638">
    <ele>296.0</ele>
  </rtept>
  <rtept lat="44.071269999999892" lon="5.17642">
    <ele>297.0</ele>
  </rtept>
  <rtept lat="44.07137" lon="5.17655">
    <ele>296.0</ele>
  </rtept>
  <rtept lat="44.071489999999898" lon="5.17653">
    <ele>297.0</ele>
  </rtept>
  <rtept lat="44.07162" lon="5.17644">
    <ele>300.0</ele>
  </rtept>
  <rtept lat="44.0717" lon="5.17642">
    <ele>301.0</ele>
  </rtept>
  <rtept lat="44.071829999999899" lon="5.17632">
    <ele>302.0</ele>
  </rtept>
  <rtept lat="44.0719" lon="5.17619">
    <ele>304.0</ele>
  </rtept>
  <rtept lat="44.07202" lon="5.17579">
    <ele>311.0</ele>
  </rtept>
  <rtept lat="44.07203" lon="5.17536">
    <ele>319.0</ele>
  </rtept>
  <rtept lat="44.07207" lon="5.17531">
    <ele>320.0</ele>
  </rtept>
  <rtept lat="44.0722" lon="5.17526">
    <ele>321.0</ele>
  </rtept>
  <rtept lat="44.07222" lon="5.17532">
    <ele>320.0</ele>
  </rtept>
  <rtept lat="44.07234" lon="5.17529">
    <ele>321.0</ele>
  </rtept>
  <rtept lat="44.0724" lon="5.17531">
    <ele>321.0</ele>
  </rtept>
  <rtept lat="44.07243" lon="5.17524">
    <ele>322.0</ele>
  </rtept>
  <rtept lat="44.07263" lon="5.17514">
    <ele>324.0</ele>
  </rtept>
  <rtept lat="44.07272" lon="5.17504">
    <ele>325.0</ele>
  </rtept>
  <rtept lat="44.07265" lon="5.17482">
    <ele>329.0</ele>
  </rtept>
  <rtept lat="44.0724" lon="5.17457">
    <ele>333.0</ele>
  </rtept>
  <rtept lat="44.072379999999889" lon="5.17448">
    <ele>334.0</ele>
  </rtept>
  <rtept lat="44.07243" lon="5.17433">
    <ele>336.0</ele>
  </rtept>
  <rtept lat="44.07246" lon="5.17433">
    <ele>336.0</ele>
  </rtept>
  <rtept lat="44.072539999999897" lon="5.17417">
    <ele>338.0</ele>
  </rtept>
  <rtept lat="44.07255" lon="5.17401">
    <ele>338.0</ele>
  </rtept>
  <rtept lat="44.072609999999884" lon="5.17376">
    <ele>337.0</ele>
  </rtept>
  <rtept lat="44.072789999999884" lon="5.17318">
    <ele>336.0</ele>
  </rtept>
  <rtept lat="44.0731" lon="5.17248">
    <ele>335.0</ele>
  </rtept>
  <rtept lat="44.07323" lon="5.17234">
    <ele>335.0</ele>
  </rtept>
  <rtept lat="44.07356" lon="5.17075">
    <ele>329.0</ele>
  </rtept>
  <rtept lat="44.07368" lon="5.17054">
    <ele>330.0</ele>
  </rtept>
  <rtept lat="44.07368" lon="5.17044">
    <ele>330.0</ele>
  </rtept>
  <rtept lat="44.07358" lon="5.17017">
    <ele>327.0</ele>
  </rtept>
  <rtept lat="44.073479999999897" lon="5.16962">
    <ele>328.0</ele>
  </rtept>
  <rtept lat="44.073269999999887" lon="5.16952">
    <ele>326.0</ele>
  </rtept>
  <rtept lat="44.0731" lon="5.1692">
    <ele>325.0</ele>
  </rtept>
  <rtept lat="44.072879999999898" lon="5.16892">
    <ele>323.0</ele>
  </rtept>
  <rtept lat="44.07245" lon="5.16867">
    <ele>319.0</ele>
  </rtept>
  <rtept lat="44.072229999999884" lon="5.16862">
    <ele>315.0</ele>
  </rtept>
  <rtept lat="44.072" lon="5.16843">
    <ele>313.0</ele>
  </rtept>
  <rtept lat="44.07193" lon="5.1685">
    <ele>311.0</ele>
  </rtept>
  <rtept lat="44.071919999999892" lon="5.16858">
    <ele>310.0</ele>
  </rtept>
  <rtept lat="44.07186" lon="5.16866">
    <ele>309.0</ele>
  </rtept>
  <rtept lat="44.071739999999899" lon="5.16892">
    <ele>305.0</ele>
  </rtept>
  <rtept lat="44.07168" lon="5.16896">
    <ele>304.0</ele>
  </rtept>
  <rtept lat="44.07155" lon="5.16899">
    <ele>303.0</ele>
  </rtept>
  <rtept lat="44.071429999999893" lon="5.16894">
    <ele>303.0</ele>
  </rtept>
  <rtept lat="44.07135" lon="5.16886">
    <ele>303.0</ele>
  </rtept>
  <rtept lat="44.071" lon="5.16875">
    <ele>300.0</ele>
  </rtept>
  <rtept lat="44.070439999999898" lon="5.16834">
    <ele>297.0</ele>
  </rtept>
  <rtept lat="44.07019" lon="5.1679">
    <ele>296.0</ele>
  </rtept>
  <rtept lat="44.06992" lon="5.16733">
    <ele>290.0</ele>
  </rtept>
  <rtept lat="44.06968" lon="5.16698">
    <ele>288.0</ele>
  </rtept>
  <rtept lat="44.06946" lon="5.1665">
    <ele>283.0</ele>
  </rtept>
  <rtept lat="44.06868" lon="5.16623">
    <ele>278.0</ele>
  </rtept>
  <rtept lat="44.068259999999881" lon="5.16605">
    <ele>274.0</ele>
  </rtept>
  <rtept lat="44.068109999999891" lon="5.16611">
    <ele>274.0</ele>
  </rtept>
  <rtept lat="44.067729999999898" lon="5.16617">
    <ele>275.0</ele>
  </rtept>
  <rtept lat="44.06769" lon="5.16625">
    <ele>276.0</ele>
  </rtept>
  <rtept lat="44.06767" lon="5.16636">
    <ele>277.0</ele>
  </rtept>
  <rtept lat="44.0677" lon="5.16648">
    <ele>278.0</ele>
  </rtept>
  <rtept lat="44.06757" lon="5.16694">
    <ele>282.0</ele>
  </rtept>
  <rtept lat="44.06747" lon="5.16711">
    <ele>283.0</ele>
  </rtept>
  <rtept lat="44.06743" lon="5.16774">
    <ele>287.0</ele>
  </rtept>
  <rtept lat="44.06732" lon="5.16793">
    <ele>287.0</ele>
  </rtept>
  <rtept lat="44.06723" lon="5.16819">
    <ele>288.0</ele>
  </rtept>
  <rtept lat="44.06719" lon="5.16848">
    <ele>290.0</ele>
  </rtept>
  <rtept lat="44.0672" lon="5.16857">
    <ele>291.0</ele>
  </rtept>
  <rtept lat="44.067129999999885" lon="5.16894">
    <ele>294.0</ele>
  </rtept>
  <rtept lat="44.067049999999895" lon="5.16918">
    <ele>295.0</ele>
  </rtept>
  <rtept lat="44.066979999999894" lon="5.16925">
    <ele>295.0</ele>
  </rtept>
  <rtept lat="44.06688" lon="5.16953">
    <ele>298.0</ele>
  </rtept>
  <rtept lat="44.06678" lon="5.17012">
    <ele>304.0</ele>
  </rtept>
  <rtept lat="44.06666" lon="5.17025">
    <ele>304.0</ele>
  </rtept>
  <rtept lat="44.066689999999895" lon="5.17045">
    <ele>307.0</ele>
  </rtept>
  <rtept lat="44.06671" lon="5.17032">
    <ele>305.0</ele>
  </rtept>
  <rtept lat="44.066589999999898" lon="5.1707">
    <ele>309.0</ele>
  </rtept>
  <rtept lat="44.06653" lon="5.17098">
    <ele>311.0</ele>
  </rtept>
  <rtept lat="44.06639" lon="5.17138">
    <ele>311.0</ele>
  </rtept>
  <rtept lat="44.066249999999897" lon="5.17147">
    <ele>310.0</ele>
  </rtept>
  <rtept lat="44.06621" lon="5.17144">
    <ele>310.0</ele>
  </rtept>
  <rtept lat="44.06613" lon="5.17145">
    <ele>309.0</ele>
  </rtept>
  <rtept lat="44.066049999999898" lon="5.17149">
    <ele>309.0</ele>
  </rtept>
  <rtept lat="44.06571" lon="5.17156">
    <ele>308.0</ele>
  </rtept>
  <rtept lat="44.06552" lon="5.17164">
    <ele>309.0</ele>
  </rtept>
  <rtept lat="44.065199999999898" lon="5.1716">
    <ele>309.0</ele>
  </rtept>
  <rtept lat="44.06499" lon="5.17173">
    <ele>308.0</ele>
  </rtept>
  <rtept lat="44.064619999999898" lon="5.17174">
    <ele>302.0</ele>
  </rtept>
  <rtept lat="44.06458" lon="5.17172">
    <ele>302.0</ele>
  </rtept>
  <rtept lat="44.064529999999898" lon="5.17164">
    <ele>302.0</ele>
  </rtept>
  <rtept lat="44.06444" lon="5.17142">
    <ele>302.0</ele>
  </rtept>
  <rtept lat="44.06434" lon="5.17125">
    <ele>303.0</ele>
  </rtept>
  <rtept lat="44.06423" lon="5.17113">
    <ele>303.0</ele>
  </rtept>
  <rtept lat="44.064159999999895" lon="5.17095">
    <ele>304.0</ele>
  </rtept>
  <rtept lat="44.06408" lon="5.17084">
    <ele>304.0</ele>
  </rtept>
  <rtept lat="44.06375" lon="5.17053">
    <ele>296.0</ele>
  </rtept>
  <rtept lat="44.06364" lon="5.17033">
    <ele>295.0</ele>
  </rtept>
  <rtept lat="44.063539999999897" lon="5.17022">
    <ele>295.0</ele>
  </rtept>
  <rtept lat="44.06317" lon="5.16993">
    <ele>290.0</ele>
  </rtept>
  <rtept lat="44.06307" lon="5.16989">
    <ele>287.0</ele>
  </rtept>
  <rtept lat="44.063029999999898" lon="5.16985">
    <ele>286.0</ele>
  </rtept>
  <rtept lat="44.06299" lon="5.16974">
    <ele>284.0</ele>
  </rtept>
  <rtept lat="44.06298" lon="5.16947">
    <ele>284.0</ele>
  </rtept>
  <rtept lat="44.06315" lon="5.16855">
    <ele>283.0</ele>
  </rtept>
  <rtept lat="44.06313" lon="5.16846">
    <ele>282.0</ele>
  </rtept>
  <rtept lat="44.06298" lon="5.16836">
    <ele>280.0</ele>
  </rtept>
  <rtept lat="44.06296" lon="5.16831">
    <ele>280.0</ele>
  </rtept>
  <rtept lat="44.06287" lon="5.16734">
    <ele>279.0</ele>
  </rtept>
  <rtept lat="44.062909999999896" lon="5.1671">
    <ele>279.0</ele>
  </rtept>
  <rtept lat="44.06296" lon="5.167">
    <ele>278.0</ele>
  </rtept>
  <rtept lat="44.063519999999897" lon="5.16618">
    <ele>271.0</ele>
  </rtept>
  <rtept lat="44.06353" lon="5.1661">
    <ele>270.0</ele>
  </rtept>
  <rtept lat="44.06332" lon="5.1658">
    <ele>268.0</ele>
  </rtept>
  <rtept lat="44.06329" lon="5.16572">
    <ele>267.0</ele>
  </rtept>
  <rtept lat="44.063249999999897" lon="5.16526">
    <ele>261.0</ele>
  </rtept>
  <rtept lat="44.063389999999899" lon="5.16523">
    <ele>261.0</ele>
  </rtept>
  <rtept lat="44.063969999999898" lon="5.16499">
    <ele>257.0</ele>
  </rtept>
  <rtept lat="44.06435" lon="5.16493">
    <ele>255.0</ele>
  </rtept>
  <rtept lat="44.06477" lon="5.16482">
    <ele>253.0</ele>
  </rtept>
  <rtept lat="44.065219999999883" lon="5.16496">
    <ele>255.0</ele>
  </rtept>
  <rtept lat="44.06533" lon="5.16496">
    <ele>255.0</ele>
  </rtept>
  <rtept lat="44.06547" lon="5.16486">
    <ele>255.0</ele>
  </rtept>
  <rtept lat="44.06566" lon="5.16463">
    <ele>255.0</ele>
  </rtept>
  <rtept lat="44.06588" lon="5.1646">
    <ele>255.0</ele>
  </rtept>
  <rtept lat="44.06637" lon="5.1646">
    <ele>257.0</ele>
  </rtept>
  <rtept lat="44.06662" lon="5.16455">
    <ele>257.0</ele>
  </rtept>
  <rtept lat="44.06669" lon="5.16451">
    <ele>257.0</ele>
  </rtept>
  <rtept lat="44.066801800469399" lon="5.164675959902808">
    <ele>0.0</ele>
  </rtept>
  <rtept lat="44.066836230229427" lon="5.164833171161682">
    <ele>0.0</ele>
  </rtept>
  <rtept lat="44.066983238700743" lon="5.165180758741731">
    <ele>0.0</ele>
  </rtept>
  <rtept lat="44.067150776077817" lon="5.165422140420443">
    <ele>263.0</ele>
  </rtept>
  <rtept lat="44.067385188711874" lon="5.165712266164894">
    <ele>264.0</ele>
  </rtept>
  <rtept lat="44.067640302076732" lon="5.166077624677508">
    <ele>0.0</ele>
  </rtept>
  <rtept lat="44.067694816351043" lon="5.16587949485023">
    <ele>0.0</ele>
  </rtept>
  <rtept lat="44.067761842825043" lon="5.165741436991993">
    <ele>0.0</ele>
  </rtept>
  <rtept lat="44.067848541714184" lon="5.165599792371367">
    <ele>0.0</ele>
  </rtept>
  <rtept lat="44.06795293939647" lon="5.16543062737234">
    <ele>0.0</ele>
  </rtept>
  <rtept lat="44.06809464187323" lon="5.165315506913465">
    <ele>265.0</ele>
  </rtept>
  <rtept lat="44.068193875633263" lon="5.165272667967571">
    <ele>266.0</ele>
  </rtept>
  <rtept lat="44.068271621883923" lon="5.165192400213112">
    <ele>265.0</ele>
  </rtept>
  <rtept lat="44.068308643544597" lon="5.165127887267916">
    <ele>266.0</ele>
  </rtept>
  <rtept lat="44.06829" lon="5.16503">
    <ele>266.0</ele>
  </rtept>
  <rtept lat="44.0681" lon="5.16459">
    <ele>265.0</ele>
  </rtept>
  <rtept lat="44.068119999999887" lon="5.1645">
    <ele>265.0</ele>
  </rtept>
  <rtept lat="44.06814" lon="5.16451">
    <ele>265.0</ele>
  </rtept>
  <rtept lat="44.068109999999891" lon="5.16438">
    <ele>265.0</ele>
  </rtept>
  <rtept lat="44.06812" lon="5.16432">
    <ele>265.0</ele>
  </rtept>
  <rtept lat="44.068409999999894" lon="5.1638">
    <ele>266.0</ele>
  </rtept>
  <rtept lat="44.06852" lon="5.16327">
    <ele>263.0</ele>
  </rtept>
  <rtept lat="44.06861" lon="5.1631">
    <ele>262.0</ele>
  </rtept>
  <rtept lat="44.06924" lon="5.1623">
    <ele>258.0</ele>
  </rtept>
  <rtept lat="44.069519999999891" lon="5.16225">
    <ele>259.0</ele>
  </rtept>
  <rtept lat="44.07004" lon="5.16202">
    <ele>257.0</ele>
  </rtept>
  <rtept lat="44.07058" lon="5.16162">
    <ele>257.0</ele>
  </rtept>
  <rtept lat="44.07077" lon="5.16152">
    <ele>258.0</ele>
  </rtept>
  <rtept lat="44.07082" lon="5.16154">
    <ele>258.0</ele>
  </rtept>
  <rtept lat="44.070949999999897" lon="5.16152">
    <ele>258.0</ele>
  </rtept>
  <rtept lat="44.07116" lon="5.16138">
    <ele>258.0</ele>
  </rtept>
  <rtept lat="44.07155" lon="5.16105">
    <ele>256.0</ele>
  </rtept>
  <rtept lat="44.07162" lon="5.16086">
    <ele>254.0</ele>
  </rtept>
  <rtept lat="44.071629999999878" lon="5.16064">
    <ele>253.0</ele>
  </rtept>
  <rtept lat="44.07169" lon="5.16046">
    <ele>252.0</ele>
  </rtept>
  <rtept lat="44.07218" lon="5.16013">
    <ele>252.0</ele>
  </rtept>
  <rtept lat="44.07251" lon="5.16061">
    <ele>256.0</ele>
  </rtept>
  <rtept lat="44.07256" lon="5.16077">
    <ele>258.0</ele>
  </rtept>
  <rtept lat="44.07274" lon="5.16112">
    <ele>261.0</ele>
  </rtept>
  <rtept lat="44.07277" lon="5.16131">
    <ele>263.0</ele>
  </rtept>
  <rtept lat="44.07287" lon="5.16161">
    <ele>266.0</ele>
  </rtept>
  <rtept lat="44.07285" lon="5.1617">
    <ele>267.0</ele>
  </rtept>
  <rtept lat="44.07292" lon="5.16186">
    <ele>269.0</ele>
  </rtept>
  <rtept lat="44.073059999999899" lon="5.16199">
    <ele>271.0</ele>
  </rtept>
  <rtept lat="44.07327" lon="5.16197">
    <ele>272.0</ele>
  </rtept>
  <rtept lat="44.073349999999898" lon="5.16206">
    <ele>273.0</ele>
  </rtept>
  <rtept lat="44.07362" lon="5.16214">
    <ele>274.0</ele>
  </rtept>
  <rtept lat="44.07367" lon="5.16218">
    <ele>274.0</ele>
  </rtept>
  <rtept lat="44.074039999999897" lon="5.16282">
    <ele>280.0</ele>
  </rtept>
  <rtept lat="44.074179999999899" lon="5.16321">
    <ele>283.0</ele>
  </rtept>
  <rtept lat="44.07432" lon="5.16347">
    <ele>285.0</ele>
  </rtept>
  <rtept lat="44.07439" lon="5.16383">
    <ele>288.0</ele>
  </rtept>
  <rtept lat="44.07449" lon="5.16417">
    <ele>290.0</ele>
  </rtept>
  <rtept lat="44.07449" lon="5.16441">
    <ele>291.0</ele>
  </rtept>
  <rtept lat="44.07452" lon="5.16454">
    <ele>292.0</ele>
  </rtept>
  <rtept lat="44.07475" lon="5.16514">
    <ele>293.0</ele>
  </rtept>
  <rtept lat="44.0749" lon="5.16538">
    <ele>293.0</ele>
  </rtept>
  <rtept lat="44.07492" lon="5.16545">
    <ele>294.0</ele>
  </rtept>
  <rtept lat="44.074909999999889" lon="5.16565">
    <ele>294.0</ele>
  </rtept>
  <rtept lat="44.07501" lon="5.16625">
    <ele>297.0</ele>
  </rtept>
  <rtept lat="44.07515" lon="5.16654">
    <ele>300.0</ele>
  </rtept>
  <rtept lat="44.07509" lon="5.16676">
    <ele>301.0</ele>
  </rtept>
  <rtept lat="44.07509" lon="5.16687">
    <ele>302.0</ele>
  </rtept>
  <rtept lat="44.07506" lon="5.16689">
    <ele>302.0</ele>
  </rtept>
  <rtept lat="44.075" lon="5.16687">
    <ele>302.0</ele>
  </rtept>
  <rtept lat="44.07464" lon="5.16733">
    <ele>312.0</ele>
  </rtept>
  <rtept lat="44.074399999999898" lon="5.16749">
    <ele>316.0</ele>
  </rtept>
  <rtept lat="44.07444" lon="5.16757">
    <ele>317.0</ele>
  </rtept>
  <rtept lat="44.07455" lon="5.16764">
    <ele>317.0</ele>
  </rtept>
  <rtept lat="44.07467" lon="5.16788">
    <ele>319.0</ele>
  </rtept>
  <rtept lat="44.07466" lon="5.16796">
    <ele>320.0</ele>
  </rtept>
  <rtept lat="44.074819999999896" lon="5.16829">
    <ele>323.0</ele>
  </rtept>
  <rtept lat="44.074819999999896" lon="5.16838">
    <ele>325.0</ele>
  </rtept>
  <rtept lat="44.07489" lon="5.16856">
    <ele>326.0</ele>
  </rtept>
  <rtept lat="44.074929999999895" lon="5.16884">
    <ele>329.0</ele>
  </rtept>
  <rtept lat="44.07518" lon="5.16908">
    <ele>331.0</ele>
  </rtept>
  <rtept lat="44.07558" lon="5.16929">
    <ele>330.0</ele>
  </rtept>
  <rtept lat="44.07559" lon="5.16939">
    <ele>331.0</ele>
  </rtept>
  <rtept lat="44.075529999999894" lon="5.16964">
    <ele>334.0</ele>
  </rtept>
  <rtept lat="44.07557" lon="5.16976">
    <ele>335.0</ele>
  </rtept>
  <rtept lat="44.075959999999895" lon="5.16985">
    <ele>334.0</ele>
  </rtept>
  <rtept lat="44.07609" lon="5.16992">
    <ele>334.0</ele>
  </rtept>
  <rtept lat="44.07617" lon="5.17">
    <ele>334.0</ele>
  </rtept>
  <rtept lat="44.07618" lon="5.17014">
    <ele>335.0</ele>
  </rtept>
  <rtept lat="44.07616" lon="5.17015">
    <ele>336.0</ele>
  </rtept>
  <rtept lat="44.07622" lon="5.17029">
    <ele>336.0</ele>
  </rtept>
  <rtept lat="44.07622" lon="5.17039">
    <ele>337.0</ele>
  </rtept>
  <rtept lat="44.0765" lon="5.1708">
    <ele>337.0</ele>
  </rtept>
  <rtept lat="44.076549999999898" lon="5.17094">
    <ele>338.0</ele>
  </rtept>
  <rtept lat="44.07688" lon="5.17128">
    <ele>338.0</ele>
  </rtept>
  <rtept lat="44.07709" lon="5.17174">
    <ele>338.0</ele>
  </rtept>
  <rtept lat="44.07713" lon="5.17223">
    <ele>341.0</ele>
  </rtept>
  <rtept lat="44.07709" lon="5.1723">
    <ele>342.0</ele>
  </rtept>
  <rtept lat="44.07711" lon="5.17276">
    <ele>342.0</ele>
  </rtept>
  <rtept lat="44.07718" lon="5.17299">
    <ele>340.0</ele>
  </rtept>
  <rtept lat="44.0773" lon="5.1731">
    <ele>337.0</ele>
  </rtept>
  <rtept lat="44.07743" lon="5.17317">
    <ele>335.0</ele>
  </rtept>
  <rtept lat="44.077469999999892" lon="5.17317">
    <ele>334.0</ele>
  </rtept>
  <rtept lat="44.07761" lon="5.17307">
    <ele>335.0</ele>
  </rtept>
  <rtept lat="44.07795" lon="5.17195">
    <ele>336.0</ele>
  </rtept>
  <rtept lat="44.07799" lon="5.17192">
    <ele>337.0</ele>
  </rtept>
  <rtept lat="44.0782" lon="5.1713">
    <ele>338.0</ele>
  </rtept>
  <rtept lat="44.07834" lon="5.17074">
    <ele>340.0</ele>
  </rtept>
  <rtept lat="44.0784" lon="5.1704">
    <ele>340.0</ele>
  </rtept>
  <rtept lat="44.078519999999884" lon="5.17004">
    <ele>340.0</ele>
  </rtept>
  <rtept lat="44.07882" lon="5.16951">
    <ele>341.0</ele>
  </rtept>
  <rtept lat="44.078969999999899" lon="5.16933">
    <ele>341.0</ele>
  </rtept>
  <rtept lat="44.07929" lon="5.16934">
    <ele>343.0</ele>
  </rtept>
  <rtept lat="44.080629999999893" lon="5.16964">
    <ele>339.0</ele>
  </rtept>
  <rtept lat="44.080889999999897" lon="5.16981">
    <ele>339.0</ele>
  </rtept>
  <rtept lat="44.081429999999898" lon="5.17039">
    <ele>340.0</ele>
  </rtept>
  <rtept lat="44.0819" lon="5.17053">
    <ele>342.0</ele>
  </rtept>
  <rtept lat="44.08218" lon="5.17048">
    <ele>343.0</ele>
  </rtept>
  <rtept lat="44.08303" lon="5.16964">
    <ele>344.0</ele>
  </rtept>
  <rtept lat="44.083469999999899" lon="5.16943">
    <ele>343.0</ele>
  </rtept>
  <rtept lat="44.08395" lon="5.16944">
    <ele>342.0</ele>
  </rtept>
  <rtept lat="44.084589999999899" lon="5.16954">
    <ele>340.0</ele>
  </rtept>
  <rtept lat="44.08511" lon="5.16954">
    <ele>337.0</ele>
  </rtept>
  <rtept lat="44.08512" lon="5.16984">
    <ele>338.0</ele>
  </rtept>
  <rtept lat="44.08516" lon="5.16969">
    <ele>337.0</ele>
  </rtept>
  <rtept lat="44.08519" lon="5.16972">
    <ele>337.0</ele>
  </rtept>
  <rtept lat="44.08521" lon="5.16981">
    <ele>337.0</ele>
  </rtept>
  <rtept lat="44.085149999999892" lon="5.17037">
    <ele>335.0</ele>
  </rtept>
  <rtept lat="44.08484" lon="5.17115">
    <ele>331.0</ele>
  </rtept>
  <rtept lat="44.08449" lon="5.17136">
    <ele>336.0</ele>
  </rtept>
  <rtept lat="44.084299999999899" lon="5.17182">
    <ele>333.0</ele>
  </rtept>
  <rtept lat="44.08395" lon="5.17242">
    <ele>331.0</ele>
  </rtept>
  <rtept lat="44.08351" lon="5.17267">
    <ele>334.0</ele>
  </rtept>
  <rtept lat="44.083419999999897" lon="5.17277">
    <ele>334.0</ele>
  </rtept>
  <rtept lat="44.08339" lon="5.17286">
    <ele>333.0</ele>
  </rtept>
  <rtept lat="44.08337" lon="5.17318">
    <ele>329.0</ele>
  </rtept>
  <rtept lat="44.08334" lon="5.17327">
    <ele>328.0</ele>
  </rtept>
  <rtept lat="44.08267" lon="5.17347">
    <ele>330.0</ele>
  </rtept>
  <rtept lat="44.082279999999891" lon="5.17345">
    <ele>333.0</ele>
  </rtept>
  <rtept lat="44.081789999999891" lon="5.17361">
    <ele>331.0</ele>
  </rtept>
  <rtept lat="44.0812" lon="5.17363">
    <ele>335.0</ele>
  </rtept>
  <rtept lat="44.08112" lon="5.17367">
    <ele>334.0</ele>
  </rtept>
  <rtept lat="44.08085" lon="5.17392">
    <ele>329.0</ele>
  </rtept>
  <rtept lat="44.08077" lon="5.17394">
    <ele>329.0</ele>
  </rtept>
  <rtept lat="44.080599999999897" lon="5.17392">
    <ele>331.0</ele>
  </rtept>
  <rtept lat="44.08046" lon="5.17397">
    <ele>330.0</ele>
  </rtept>
  <rtept lat="44.08039" lon="5.1742">
    <ele>323.0</ele>
  </rtept>
  <rtept lat="44.08021" lon="5.17432">
    <ele>321.0</ele>
  </rtept>
  <rtept lat="44.0797" lon="5.17426">
    <ele>323.0</ele>
  </rtept>
  <rtept lat="44.07951" lon="5.17429">
    <ele>322.0</ele>
  </rtept>
  <rtept lat="44.07938" lon="5.17415">
    <ele>325.0</ele>
  </rtept>
  <rtept lat="44.07927" lon="5.17407">
    <ele>327.0</ele>
  </rtept>
  <rtept lat="44.07914" lon="5.17411">
    <ele>326.0</ele>
  </rtept>
  <rtept lat="44.07885" lon="5.17405">
    <ele>327.0</ele>
  </rtept>
  <rtept lat="44.0786" lon="5.17409">
    <ele>325.0</ele>
  </rtept>
  <rtept lat="44.0784" lon="5.17403">
    <ele>326.0</ele>
  </rtept>
  <rtept lat="44.07834" lon="5.17396">
    <ele>327.0</ele>
  </rtept>
  <rtept lat="44.07808" lon="5.17407">
    <ele>323.0</ele>
  </rtept>
  <rtept lat="44.07764" lon="5.17401">
    <ele>322.0</ele>
  </rtept>
  <rtept lat="44.07753" lon="5.17393">
    <ele>322.0</ele>
  </rtept>
  <rtept lat="44.07741" lon="5.17392">
    <ele>323.0</ele>
  </rtept>
  <rtept lat="44.07737" lon="5.17398">
    <ele>323.0</ele>
  </rtept>
  <rtept lat="44.07742" lon="5.17416">
    <ele>319.0</ele>
  </rtept>
  <rtept lat="44.07731" lon="5.17437">
    <ele>315.0</ele>
  </rtept>
  <rtept lat="44.077159999999893" lon="5.17441">
    <ele>316.0</ele>
  </rtept>
  <rtept lat="44.076899999999895" lon="5.17468">
    <ele>312.0</ele>
  </rtept>
  <rtept lat="44.07681" lon="5.17484">
    <ele>309.0</ele>
  </rtept>
  <rtept lat="44.07641" lon="5.17512">
    <ele>304.0</ele>
  </rtept>
  <rtept lat="44.0761" lon="5.17528">
    <ele>301.0</ele>
  </rtept>
  <rtept lat="44.07598" lon="5.17528">
    <ele>301.0</ele>
  </rtept>
  <rtept lat="44.075899999999891" lon="5.17532">
    <ele>301.0</ele>
  </rtept>
  <rtept lat="44.0758" lon="5.17557">
    <ele>296.0</ele>
  </rtept>
  <rtept lat="44.07569" lon="5.17599">
    <ele>287.0</ele>
  </rtept>
  <rtept lat="44.07536" lon="5.17667">
    <ele>277.0</ele>
  </rtept>
  <rtept lat="44.075229999999898" lon="5.1768">
    <ele>276.0</ele>
  </rtept>
  <rtept lat="44.07408" lon="5.17769">
    <ele>267.0</ele>
  </rtept>
  <rtept lat="44.07386" lon="5.178">
    <ele>266.0</ele>
  </rtept>
  <rtept lat="44.07225" lon="5.18088">
    <ele>254.0</ele>
  </rtept>
  <rtept lat="44.07208" lon="5.18125">
    <ele>252.0</ele>
  </rtept>
  <rtept lat="44.07203" lon="5.18131">
    <ele>251.0</ele>
  </rtept>
  <rtept lat="44.072" lon="5.1815">
    <ele>250.0</ele>
  </rtept>
  <rtept lat="44.07205" lon="5.18147">
    <ele>250.0</ele>
  </rtept>
  <rtept lat="44.07206" lon="5.18143">
    <ele>250.0</ele>
  </rtept>
  <rtept lat="44.07202" lon="5.18138">
    <ele>251.0</ele>
  </rtept>
  <rtept lat="44.072009999999892" lon="5.18149">
    <ele>250.0</ele>
  </rtept>
  <rtept lat="44.07189" lon="5.18152">
    <ele>250.0</ele>
  </rtept>
  <rtept lat="44.071399999999898" lon="5.18194">
    <ele>249.0</ele>
  </rtept>
  <rtept lat="44.071319999999886" lon="5.18221">
    <ele>248.0</ele>
  </rtept>
  <rtept lat="44.071279999999888" lon="5.18291">
    <ele>244.0</ele>
  </rtept>
  <rtept lat="44.07124" lon="5.18301">
    <ele>243.0</ele>
  </rtept>
  <rtept lat="44.07113" lon="5.18304">
    <ele>242.0</ele>
  </rtept>
  <rtept lat="44.06974" lon="5.1828">
    <ele>241.0</ele>
  </rtept>
  <rtept lat="44.06877" lon="5.183">
    <ele>241.0</ele>
  </rtept>
  <rtept lat="44.068759999999898" lon="5.18306">
    <ele>241.0</ele>
  </rtept>
  <rtept lat="44.068799999999896" lon="5.18316">
    <ele>240.0</ele>
  </rtept>
  <rtept lat="44.069359999999897" lon="5.18428">
    <ele>233.0</ele>
  </rtept>
  <rtept lat="44.069389999999892" lon="5.18464">
    <ele>230.0</ele>
  </rtept>
  <rtept lat="44.06935" lon="5.18525">
    <ele>226.0</ele>
  </rtept>
  <rtept lat="44.06937" lon="5.18553">
    <ele>224.0</ele>
  </rtept>
  <rtept lat="44.06931" lon="5.1856">
    <ele>224.0</ele>
  </rtept>
  <rtept lat="44.069059999999894" lon="5.18555">
    <ele>225.0</ele>
  </rtept>
  <rtept lat="44.06884" lon="5.18534">
    <ele>229.0</ele>
  </rtept>
  <rtept lat="44.068799999999896" lon="5.18533">
    <ele>229.0</ele>
  </rtept>
  <rtept lat="44.06869" lon="5.18511">
    <ele>234.0</ele>
  </rtept>
  <rtept lat="44.068499999999894" lon="5.18509">
    <ele>236.0</ele>
  </rtept>
  <rtept lat="44.06842" lon="5.185">
    <ele>239.0</ele>
  </rtept>
  <rtept lat="44.06833" lon="5.18477">
    <ele>242.0</ele>
  </rtept>
  <rtept lat="44.06813" lon="5.18445">
    <ele>245.0</ele>
  </rtept>
  <rtept lat="44.06799" lon="5.18436">
    <ele>245.0</ele>
  </rtept>
  <rtept lat="44.06776" lon="5.18428">
    <ele>245.0</ele>
  </rtept>
  <rtept lat="44.06745" lon="5.18401">
    <ele>245.0</ele>
  </rtept>
  <rtept lat="44.06747" lon="5.18386">
    <ele>245.0</ele>
  </rtept>
  <rtept lat="44.067499999999896" lon="5.18386">
    <ele>245.0</ele>
  </rtept>
  <rtept lat="44.06752" lon="5.18383">
    <ele>245.0</ele>
  </rtept>
  <rtept lat="44.06752" lon="5.18368">
    <ele>246.0</ele>
  </rtept>
  <rtept lat="44.06741" lon="5.18348">
    <ele>245.0</ele>
  </rtept>
  <rtept lat="44.067299999999896" lon="5.18335">
    <ele>245.0</ele>
  </rtept>
  <rtept lat="44.06708" lon="5.18243">
    <ele>241.0</ele>
  </rtept>
  <rtept lat="44.06715" lon="5.18221">
    <ele>242.0</ele>
  </rtept>
  <rtept lat="44.06714" lon="5.18203">
    <ele>242.0</ele>
  </rtept>
  <rtept lat="44.067009999999897" lon="5.18177">
    <ele>242.0</ele>
  </rtept>
  <rtept lat="44.06692" lon="5.1817">
    <ele>242.0</ele>
  </rtept>
  <rtept lat="44.06675" lon="5.1815">
    <ele>242.0</ele>
  </rtept>
  <rtept lat="44.06667" lon="5.18128">
    <ele>242.0</ele>
  </rtept>
  <rtept lat="44.066569999999899" lon="5.18117">
    <ele>242.0</ele>
  </rtept>
  <rtept lat="44.06589" lon="5.17967">
    <ele>242.0</ele>
  </rtept>
  <rtept lat="44.06588" lon="5.1795">
    <ele>242.0</ele>
  </rtept>
  <rtept lat="44.06591" lon="5.17922">
    <ele>243.0</ele>
  </rtept>
  <rtept lat="44.06596" lon="5.17915">
    <ele>244.0</ele>
  </rtept>
  <rtept lat="44.06609" lon="5.17905">
    <ele>245.0</ele>
  </rtept>
  <rtept lat="44.06608" lon="5.17901">
    <ele>245.0</ele>
  </rtept>
  <rtept lat="44.06602" lon="5.17896">
    <ele>245.0</ele>
  </rtept>
  <rtept lat="44.06587" lon="5.17896">
    <ele>243.0</ele>
  </rtept>
</rte>
</gpx>
