<?xml version="1.0" encoding="UTF-8" standalone="no" ?>
<gpx creator="CompeGPS" version="1.1" xsi:schemaLocation="http://www.topografix.com/GPX/1/1 http://www.topografix.com/GPX/1/1/gpx.xsd http://www.garmin.com/xmlschemas/WaypointExtension/v1 http://www8.garmin.com/xmlschemas/WaypointExtensionv1.xsd http://www.garmin.com/xmlschemas/TrackPointExtension/v1 http://www.garmin.com/xmlschemas/TrackPointExtensionv1.xsd http://www.garmin.com/xmlschemas/GpxExtensions/v3 http://www8.garmin.com/xmlschemas/GpxExtensionsv3.xsd http://www.garmin.com/xmlschemas/ActivityExtension/v1 http://www8.garmin.com/xmlschemas/ActivityExtensionv1.xsd http://www.garmin.com/xmlschemas/AdventuresExtensions/v1 http://www8.garmin.com/xmlschemas/AdventuresExtensionv1.xsd http://www.garmin.com/xmlschemas/PressureExtension/v1 http://www.garmin.com/xmlschemas/PressureExtensionv1.xsd http://www.garmin.com/xmlschemas/TripExtensions/v1 http://www.garmin.com/xmlschemas/TripExtensionsv1.xsd http://www.garmin.com/xmlschemas/TripMetaDataExtensions/v1 http://www.garmin.com/xmlschemas/TripMetaDataExtensionsv1.xsd http://www.garmin.com/xmlschemas/ViaPointTransportationModeExtensions/v1 http://www.garmin.com/xmlschemas/ViaPointTransportationModeExtensionsv1.xsd http://www.garmin.com/xmlschemas/CreationTimeExtension/v1 http://www.garmin.com/xmlschemas/CreationTimeExtensionsv1.xsd http://www.garmin.com/xmlschemas/AccelerationExtension/v1 http://www.garmin.com/xmlschemas/AccelerationExtensionv1.xsd http://www.garmin.com/xmlschemas/PowerExtension/v1 http://www.garmin.com/xmlschemas/PowerExtensionv1.xsd http://www.garmin.com/xmlschemas/VideoExtension/v1 http://www.garmin.com/xmlschemas/VideoExtensionv1.xsd" xmlns="http://www.topografix.com/GPX/1/1" xmlns:xsi="http://www.w3.org/2001/XMLSchema-instance" xmlns:wptx1="http://www.garmin.com/xmlschemas/WaypointExtension/v1" xmlns:gpxtrx="http://www.garmin.com/xmlschemas/GpxExtensions/v3" xmlns:gpxtpx="http://www.garmin.com/xmlschemas/TrackPointExtension/v1" xmlns:gpxx="http://www.garmin.com/xmlschemas/GpxExtensions/v3" xmlns:trp="http://www.garmin.com/xmlschemas/TripExtensions/v1" xmlns:adv="http://www.garmin.com/xmlschemas/AdventuresExtensions/v1" xmlns:prs="http://www.garmin.com/xmlschemas/PressureExtension/v1" xmlns:tmd="http://www.garmin.com/xmlschemas/TripMetaDataExtensions/v1" xmlns:vptm="http://www.garmin.com/xmlschemas/ViaPointTransportationModeExtensions/v1" xmlns:ctx="http://www.garmin.com/xmlschemas/CreationTimeExtension/v1" xmlns:gpxacc="http://www.garmin.com/xmlschemas/AccelerationExtension/v1" xmlns:gpxpx="http://www.garmin.com/xmlschemas/PowerExtension/v1" xmlns:vidx1="http://www.garmin.com/xmlschemas/VideoExtension/v1" xmlns:twonav="http://twonav.com/twonav">
  <metadata>
    <author>
      <email id="" domain=""/>
    </author>
    <copyright author="">
      <license></license>
    </copyright>
    <link href="http://www.compegps.com">
      <text>CompeGPS TEAM, SL</text>
    </link>
    <time>2020-06-01T15:36:05.000Z</time>
    <bounds maxlat="44.011320" maxlon="5.188580" minlat="43.986010" minlon="5.136365"/>
  </metadata>
  <trk>
    <name>T8 bleuv1</name>
    <extensions>
      <line xmlns="http://www.topografix.com/GPX/gpx_style/0/2">
        <width>4</width>
      </line>
      <gpxx:TrackExtension>
        <gpxx:DisplayColor>Blue</gpxx:DisplayColor>
      </gpxx:TrackExtension>
      <twonav:TwoNavExtension>
        <twonav:activity>4</twonav:activity>
        <twonav:terrain>0</twonav:terrain>
      </twonav:TwoNavExtension>
    </extensions>
    <trkseg>
      <trkpt lat="43.988662" lon="5.149355">
        <ele>315.2</ele>
        <time>2020-06-01T13:45:05.000Z</time>
      </trkpt>
      <trkpt lat="43.988664" lon="5.149043">
        <ele>314.2</ele>
        <time>2020-06-01T13:45:05.000Z</time>
      </trkpt>
      <trkpt lat="43.989351" lon="5.149289">
        <ele>307.4</ele>
        <time>2020-06-01T13:45:05.000Z</time>
      </trkpt>
      <trkpt lat="43.989957" lon="5.149113">
        <ele>300.5</ele>
        <time>2020-06-01T13:45:05.000Z</time>
      </trkpt>
      <trkpt lat="43.990502" lon="5.148872">
        <ele>298.5</ele>
        <time>2020-06-01T13:45:05.000Z</time>
      </trkpt>
      <trkpt lat="43.990077" lon="5.147871">
        <ele>299.9</ele>
        <time>2020-06-01T13:45:05.000Z</time>
      </trkpt>
      <trkpt lat="43.989734" lon="5.147261">
        <ele>303.2</ele>
        <time>2020-06-01T13:45:05.000Z</time>
      </trkpt>
      <trkpt lat="43.989181" lon="5.146272">
        <ele>303.0</ele>
        <time>2020-06-01T13:45:05.000Z</time>
      </trkpt>
      <trkpt lat="43.988379" lon="5.144977">
        <ele>291.5</ele>
        <time>2020-06-01T13:45:05.000Z</time>
      </trkpt>
      <trkpt lat="43.988176" lon="5.144993">
        <ele>290.0</ele>
        <time>2020-06-01T13:45:05.000Z</time>
      </trkpt>
      <trkpt lat="43.988124" lon="5.144911">
        <ele>287.6</ele>
        <time>2020-06-01T13:45:05.000Z</time>
      </trkpt>
      <trkpt lat="43.988492" lon="5.144399">
        <ele>279.5</ele>
        <time>2020-06-01T13:45:05.000Z</time>
      </trkpt>
      <trkpt lat="43.988461" lon="5.144328">
        <ele>277.9</ele>
        <time>2020-06-01T13:45:05.000Z</time>
      </trkpt>
      <trkpt lat="43.988351" lon="5.144431">
        <ele>279.1</ele>
        <time>2020-06-01T13:45:05.000Z</time>
      </trkpt>
      <trkpt lat="43.988323" lon="5.144366">
        <ele>277.3</ele>
        <time>2020-06-01T13:45:05.000Z</time>
      </trkpt>
      <trkpt lat="43.988390" lon="5.144268">
        <ele>275.7</ele>
        <time>2020-06-01T13:45:05.000Z</time>
      </trkpt>
      <trkpt lat="43.988538" lon="5.144240">
        <ele>276.8</ele>
        <time>2020-06-01T13:45:05.000Z</time>
      </trkpt>
      <trkpt lat="43.988554" lon="5.144131">
        <ele>274.6</ele>
        <time>2020-06-01T13:45:05.000Z</time>
      </trkpt>
      <trkpt lat="43.988342" lon="5.144174">
        <ele>273.1</ele>
        <time>2020-06-01T13:45:05.000Z</time>
      </trkpt>
      <trkpt lat="43.988142" lon="5.144109">
        <ele>268.2</ele>
        <time>2020-06-01T13:45:05.000Z</time>
      </trkpt>
      <trkpt lat="43.987894" lon="5.143496">
        <ele>248.8</ele>
        <time>2020-06-01T13:45:05.000Z</time>
      </trkpt>
      <trkpt lat="43.987580" lon="5.143227">
        <ele>240.4</ele>
        <time>2020-06-01T13:45:05.000Z</time>
      </trkpt>
      <trkpt lat="43.986567" lon="5.143227">
        <ele>234.4</ele>
        <time>2020-06-01T13:45:05.000Z</time>
      </trkpt>
      <trkpt lat="43.986567" lon="5.143227">
        <ele>234.4</ele>
        <time>2020-06-01T13:45:05.000Z</time>
      </trkpt>
      <trkpt lat="43.986453" lon="5.142776">
        <ele>228.2</ele>
        <time>2020-06-01T13:45:05.000Z</time>
      </trkpt>
      <trkpt lat="43.986405" lon="5.142065">
        <ele>237.2</ele>
        <time>2020-06-01T13:45:05.000Z</time>
      </trkpt>
      <trkpt lat="43.986398" lon="5.141915">
        <ele>241.1</ele>
        <time>2020-06-01T13:45:05.000Z</time>
      </trkpt>
      <trkpt lat="43.986350" lon="5.141770">
        <ele>245.7</ele>
        <time>2020-06-01T13:45:05.000Z</time>
      </trkpt>
      <trkpt lat="43.986420" lon="5.141430">
        <ele>256.5</ele>
        <time>2020-06-01T13:45:05.000Z</time>
      </trkpt>
      <trkpt lat="43.986340" lon="5.141290">
        <ele>262.4</ele>
        <time>2020-06-01T13:45:05.000Z</time>
      </trkpt>
      <trkpt lat="43.986010" lon="5.141162">
        <ele>271.4</ele>
        <time>2020-06-01T13:45:05.000Z</time>
      </trkpt>
      <trkpt lat="43.986215" lon="5.139234">
        <ele>302.5</ele>
        <time>2020-06-01T13:45:05.000Z</time>
      </trkpt>
      <trkpt lat="43.986927" lon="5.139083">
        <ele>299.1</ele>
        <time>2020-06-01T13:45:05.000Z</time>
      </trkpt>
      <trkpt lat="43.987723" lon="5.138546">
        <ele>296.3</ele>
        <time>2020-06-01T13:45:05.000Z</time>
      </trkpt>
      <trkpt lat="43.987723" lon="5.138546">
        <ele>296.3</ele>
        <time>2020-06-01T13:45:05.000Z</time>
      </trkpt>
      <trkpt lat="43.988808" lon="5.137925">
        <ele>294.5</ele>
        <time>2020-06-01T13:45:05.000Z</time>
      </trkpt>
      <trkpt lat="43.989761" lon="5.137925">
        <ele>286.9</ele>
        <time>2020-06-01T13:45:05.000Z</time>
      </trkpt>
      <trkpt lat="43.990533" lon="5.136969">
        <ele>284.7</ele>
        <time>2020-06-01T13:45:05.000Z</time>
      </trkpt>
      <trkpt lat="43.990533" lon="5.136969">
        <ele>284.7</ele>
        <time>2020-06-01T13:45:05.000Z</time>
      </trkpt>
      <trkpt lat="43.991245" lon="5.136415">
        <ele>283.2</ele>
        <time>2020-06-01T13:45:05.000Z</time>
      </trkpt>
      <trkpt lat="43.992390" lon="5.136365">
        <ele>278.3</ele>
        <time>2020-06-01T13:45:05.000Z</time>
      </trkpt>
      <trkpt lat="43.994019" lon="5.136801">
        <ele>275.0</ele>
        <time>2020-06-01T13:45:05.000Z</time>
      </trkpt>
      <trkpt lat="43.995141" lon="5.137186">
        <ele>270.3</ele>
        <time>2020-06-01T13:45:05.000Z</time>
      </trkpt>
      <trkpt lat="43.996065" lon="5.137724">
        <ele>264.8</ele>
        <time>2020-06-01T13:45:05.000Z</time>
      </trkpt>
      <trkpt lat="43.996611" lon="5.138537">
        <ele>256.9</ele>
        <time>2020-06-01T13:45:05.000Z</time>
      </trkpt>
      <trkpt lat="43.996611" lon="5.138537">
        <ele>256.9</ele>
        <time>2020-06-01T13:45:05.000Z</time>
      </trkpt>
      <trkpt lat="43.997206" lon="5.139052">
        <ele>245.3</ele>
        <time>2020-06-01T13:45:05.000Z</time>
      </trkpt>
      <trkpt lat="43.998447" lon="5.139302">
        <ele>234.7</ele>
        <time>2020-06-01T13:45:05.000Z</time>
      </trkpt>
      <trkpt lat="43.998646" lon="5.139493">
        <ele>234.3</ele>
        <time>2020-06-01T13:45:05.000Z</time>
      </trkpt>
      <trkpt lat="43.998827" lon="5.139518">
        <ele>237.8</ele>
        <time>2020-06-01T13:45:05.000Z</time>
      </trkpt>
      <trkpt lat="43.999121" lon="5.139066">
        <ele>247.7</ele>
        <time>2020-06-01T13:45:05.000Z</time>
      </trkpt>
      <trkpt lat="43.999121" lon="5.139066">
        <ele>247.7</ele>
        <time>2020-06-01T13:45:05.000Z</time>
      </trkpt>
      <trkpt lat="43.999202" lon="5.139118">
        <ele>248.2</ele>
        <time>2020-06-01T13:45:05.000Z</time>
      </trkpt>
      <trkpt lat="43.999284" lon="5.139468">
        <ele>246.1</ele>
        <time>2020-06-01T13:45:05.000Z</time>
      </trkpt>
      <trkpt lat="43.999289" lon="5.140047">
        <ele>241.3</ele>
        <time>2020-06-01T13:45:05.000Z</time>
      </trkpt>
      <trkpt lat="43.999620" lon="5.140282">
        <ele>240.6</ele>
        <time>2020-06-01T13:45:05.000Z</time>
      </trkpt>
      <trkpt lat="43.999614" lon="5.140403">
        <ele>237.9</ele>
        <time>2020-06-01T13:45:05.000Z</time>
      </trkpt>
      <trkpt lat="43.999189" lon="5.140368">
        <ele>230.9</ele>
        <time>2020-06-01T13:45:05.000Z</time>
      </trkpt>
      <trkpt lat="43.998757" lon="5.140585">
        <ele>212.7</ele>
        <time>2020-06-01T13:45:05.000Z</time>
      </trkpt>
      <trkpt lat="43.998457" lon="5.140811">
        <ele>198.9</ele>
        <time>2020-06-01T13:45:05.000Z</time>
      </trkpt>
      <trkpt lat="43.997969" lon="5.140533">
        <ele>200.2</ele>
        <time>2020-06-01T13:45:05.000Z</time>
      </trkpt>
      <trkpt lat="43.997625" lon="5.140741">
        <ele>193.0</ele>
        <time>2020-06-01T13:45:05.000Z</time>
      </trkpt>
      <trkpt lat="43.997413" lon="5.141522">
        <ele>190.2</ele>
        <time>2020-06-01T13:45:05.000Z</time>
      </trkpt>
      <trkpt lat="43.997762" lon="5.141791">
        <ele>189.9</ele>
        <time>2020-06-01T13:45:05.000Z</time>
      </trkpt>
      <trkpt lat="43.997856" lon="5.142121">
        <ele>191.5</ele>
        <time>2020-06-01T13:45:05.000Z</time>
      </trkpt>
      <trkpt lat="43.998118" lon="5.142373">
        <ele>189.7</ele>
        <time>2020-06-01T13:45:05.000Z</time>
      </trkpt>
      <trkpt lat="43.998162" lon="5.142686">
        <ele>192.5</ele>
        <time>2020-06-01T13:45:05.000Z</time>
      </trkpt>
      <trkpt lat="43.998393" lon="5.142894">
        <ele>192.3</ele>
        <time>2020-06-01T13:45:05.000Z</time>
      </trkpt>
      <trkpt lat="43.998855" lon="5.143728">
        <ele>192.8</ele>
        <time>2020-06-01T13:45:05.000Z</time>
      </trkpt>
      <trkpt lat="43.998855" lon="5.143728">
        <ele>192.8</ele>
        <time>2020-06-01T13:45:05.000Z</time>
      </trkpt>
      <trkpt lat="43.998874" lon="5.144171">
        <ele>195.5</ele>
        <time>2020-06-01T13:45:05.000Z</time>
      </trkpt>
      <trkpt lat="43.998773" lon="5.144492">
        <ele>197.8</ele>
        <time>2020-06-01T13:45:05.000Z</time>
      </trkpt>
      <trkpt lat="43.998223" lon="5.144926">
        <ele>212.4</ele>
        <time>2020-06-01T13:45:05.000Z</time>
      </trkpt>
      <trkpt lat="43.997617" lon="5.145343">
        <ele>227.7</ele>
        <time>2020-06-01T13:45:05.000Z</time>
      </trkpt>
      <trkpt lat="43.997285" lon="5.145604">
        <ele>235.3</ele>
        <time>2020-06-01T13:45:05.000Z</time>
      </trkpt>
      <trkpt lat="43.997180" lon="5.145810">
        <ele>235.7</ele>
        <time>2020-06-01T13:48:46.000Z</time>
      </trkpt>
      <trkpt lat="43.997140" lon="5.145900">
        <ele>235.4</ele>
        <time>2020-06-01T13:48:50.000Z</time>
      </trkpt>
      <trkpt lat="43.997130" lon="5.145970">
        <ele>234.5</ele>
        <time>2020-06-01T13:48:52.000Z</time>
      </trkpt>
      <trkpt lat="43.997150" lon="5.146020">
        <ele>232.7</ele>
        <time>2020-06-01T13:48:54.000Z</time>
      </trkpt>
      <trkpt lat="43.997230" lon="5.145980">
        <ele>230.5</ele>
        <time>2020-06-01T13:48:59.000Z</time>
      </trkpt>
      <trkpt lat="43.997510" lon="5.145970">
        <ele>220.2</ele>
        <time>2020-06-01T13:49:13.000Z</time>
      </trkpt>
      <trkpt lat="43.997740" lon="5.145780">
        <ele>215.3</ele>
        <time>2020-06-01T13:49:26.000Z</time>
      </trkpt>
      <trkpt lat="43.997740" lon="5.145780">
        <ele>215.3</ele>
        <time>2020-06-01T13:49:26.000Z</time>
      </trkpt>
      <trkpt lat="43.997900" lon="5.145710">
        <ele>210.9</ele>
        <time>2020-06-01T13:49:34.000Z</time>
      </trkpt>
      <trkpt lat="43.998300" lon="5.145590">
        <ele>198.6</ele>
        <time>2020-06-01T13:49:55.000Z</time>
      </trkpt>
      <trkpt lat="43.998500" lon="5.145480">
        <ele>195.9</ele>
        <time>2020-06-01T13:50:06.000Z</time>
      </trkpt>
      <trkpt lat="43.998920" lon="5.145380">
        <ele>188.5</ele>
        <time>2020-06-01T13:50:27.000Z</time>
      </trkpt>
      <trkpt lat="43.999060" lon="5.145310">
        <ele>186.2</ele>
        <time>2020-06-01T13:50:34.000Z</time>
      </trkpt>
      <trkpt lat="43.999180" lon="5.145180">
        <ele>184.7</ele>
        <time>2020-06-01T13:50:42.000Z</time>
      </trkpt>
      <trkpt lat="43.999350" lon="5.144930">
        <ele>184.9</ele>
        <time>2020-06-01T13:50:54.000Z</time>
      </trkpt>
      <trkpt lat="43.999620" lon="5.144630">
        <ele>183.0</ele>
        <time>2020-06-01T13:51:12.000Z</time>
      </trkpt>
      <trkpt lat="43.999800" lon="5.144480">
        <ele>181.7</ele>
        <time>2020-06-01T13:51:22.000Z</time>
      </trkpt>
      <trkpt lat="44.000140" lon="5.144300">
        <ele>180.1</ele>
        <time>2020-06-01T13:51:40.000Z</time>
      </trkpt>
      <trkpt lat="44.000170" lon="5.144340">
        <ele>180.1</ele>
        <time>2020-06-01T13:51:43.000Z</time>
      </trkpt>
      <trkpt lat="44.000390" lon="5.144210">
        <ele>180.4</ele>
        <time>2020-06-01T13:51:55.000Z</time>
      </trkpt>
      <trkpt lat="44.000430" lon="5.144430">
        <ele>179.7</ele>
        <time>2020-06-01T13:52:03.000Z</time>
      </trkpt>
      <trkpt lat="44.000450" lon="5.144480">
        <ele>179.5</ele>
        <time>2020-06-01T13:52:05.000Z</time>
      </trkpt>
      <trkpt lat="44.000490" lon="5.144570">
        <ele>179.1</ele>
        <time>2020-06-01T13:52:09.000Z</time>
      </trkpt>
      <trkpt lat="44.000510" lon="5.144630">
        <ele>178.8</ele>
        <time>2020-06-01T13:52:11.000Z</time>
      </trkpt>
      <trkpt lat="44.000600" lon="5.144720">
        <ele>178.1</ele>
        <time>2020-06-01T13:52:16.000Z</time>
      </trkpt>
      <trkpt lat="44.000770" lon="5.144890">
        <ele>176.2</ele>
        <time>2020-06-01T13:52:27.000Z</time>
      </trkpt>
      <trkpt lat="44.000840" lon="5.145010">
        <ele>175.0</ele>
        <time>2020-06-01T13:52:33.000Z</time>
      </trkpt>
      <trkpt lat="44.000880" lon="5.145140">
        <ele>175.4</ele>
        <time>2020-06-01T13:52:38.000Z</time>
      </trkpt>
      <trkpt lat="44.000900" lon="5.145350">
        <ele>176.3</ele>
        <time>2020-06-01T13:52:45.000Z</time>
      </trkpt>
      <trkpt lat="44.000910" lon="5.145420">
        <ele>176.5</ele>
        <time>2020-06-01T13:52:48.000Z</time>
      </trkpt>
      <trkpt lat="44.000880" lon="5.145480">
        <ele>176.8</ele>
        <time>2020-06-01T13:52:50.000Z</time>
      </trkpt>
      <trkpt lat="44.000850" lon="5.145520">
        <ele>176.9</ele>
        <time>2020-06-01T13:52:53.000Z</time>
      </trkpt>
      <trkpt lat="44.000850" lon="5.145600">
        <ele>177.2</ele>
        <time>2020-06-01T13:52:55.000Z</time>
      </trkpt>
      <trkpt lat="44.000930" lon="5.146030">
        <ele>180.5</ele>
        <time>2020-06-01T13:53:11.000Z</time>
      </trkpt>
      <trkpt lat="44.001110" lon="5.146600">
        <ele>189.1</ele>
        <time>2020-06-01T13:53:34.000Z</time>
      </trkpt>
      <trkpt lat="44.001310" lon="5.146900">
        <ele>196.1</ele>
        <time>2020-06-01T13:53:49.000Z</time>
      </trkpt>
      <trkpt lat="44.001410" lon="5.147070">
        <ele>200.4</ele>
        <time>2020-06-01T13:53:56.000Z</time>
      </trkpt>
      <trkpt lat="44.001500" lon="5.147220">
        <ele>204.4</ele>
        <time>2020-06-01T13:54:03.000Z</time>
      </trkpt>
      <trkpt lat="44.001660" lon="5.147400">
        <ele>210.8</ele>
        <time>2020-06-01T13:54:14.000Z</time>
      </trkpt>
      <trkpt lat="44.001800" lon="5.147600">
        <ele>213.8</ele>
        <time>2020-06-01T13:54:24.000Z</time>
      </trkpt>
      <trkpt lat="44.001800" lon="5.147600">
        <ele>213.8</ele>
        <time>2020-06-01T13:54:24.000Z</time>
      </trkpt>
      <trkpt lat="44.002024" lon="5.148093">
        <ele>215.4</ele>
        <time>2020-06-01T13:54:46.340Z</time>
      </trkpt>
      <trkpt lat="44.002335" lon="5.148883">
        <ele>224.1</ele>
        <time>2020-06-01T13:55:21.061Z</time>
      </trkpt>
      <trkpt lat="44.002612" lon="5.148969">
        <ele>226.7</ele>
        <time>2020-06-01T13:55:36.237Z</time>
      </trkpt>
      <trkpt lat="44.003100" lon="5.149018">
        <ele>229.1</ele>
        <time>2020-06-01T13:56:02.286Z</time>
      </trkpt>
      <trkpt lat="44.003581" lon="5.148969">
        <ele>231.5</ele>
        <time>2020-06-01T13:56:28.006Z</time>
      </trkpt>
      <trkpt lat="44.004171" lon="5.148780">
        <ele>233.0</ele>
        <time>2020-06-01T13:57:00.224Z</time>
      </trkpt>
      <trkpt lat="44.004976" lon="5.148711">
        <ele>231.3</ele>
        <time>2020-06-01T13:57:43.170Z</time>
      </trkpt>
      <trkpt lat="44.005615" lon="5.148658">
        <ele>232.3</ele>
        <time>2020-06-01T13:58:17.231Z</time>
      </trkpt>
      <trkpt lat="44.005794" lon="5.148836">
        <ele>235.6</ele>
        <time>2020-06-01T13:58:29.041Z</time>
      </trkpt>
      <trkpt lat="44.005977" lon="5.149172">
        <ele>240.7</ele>
        <time>2020-06-01T13:58:45.362Z</time>
      </trkpt>
      <trkpt lat="44.006189" lon="5.149425">
        <ele>242.7</ele>
        <time>2020-06-01T13:59:00.241Z</time>
      </trkpt>
      <trkpt lat="44.006238" lon="5.149887">
        <ele>247.7</ele>
        <time>2020-06-01T13:59:18.282Z</time>
      </trkpt>
      <trkpt lat="44.006190" lon="5.150393">
        <ele>251.0</ele>
        <time>2020-06-01T13:59:37.878Z</time>
      </trkpt>
      <trkpt lat="44.006252" lon="5.150710">
        <ele>253.2</ele>
        <time>2020-06-01T13:59:50.515Z</time>
      </trkpt>
      <trkpt lat="44.006460" lon="5.151083">
        <ele>257.3</ele>
        <time>2020-06-01T14:00:08.711Z</time>
      </trkpt>
      <trkpt lat="44.006532" lon="5.151692">
        <ele>262.2</ele>
        <time>2020-06-01T14:00:32.435Z</time>
      </trkpt>
      <trkpt lat="44.006713" lon="5.152439">
        <ele>268.3</ele>
        <time>2020-06-01T14:01:02.756Z</time>
      </trkpt>
      <trkpt lat="44.006813" lon="5.152976">
        <ele>268.9</ele>
        <time>2020-06-01T14:01:23.999Z</time>
      </trkpt>
      <trkpt lat="44.007051" lon="5.153580">
        <ele>268.1</ele>
        <time>2020-06-01T14:01:50.373Z</time>
      </trkpt>
      <trkpt lat="44.007250" lon="5.153980">
        <ele>267.5</ele>
        <time>2020-06-01T14:02:09.000Z</time>
      </trkpt>
      <trkpt lat="44.007430" lon="5.154040">
        <ele>267.0</ele>
        <time>2020-06-01T14:02:18.000Z</time>
      </trkpt>
      <trkpt lat="44.007850" lon="5.154310">
        <ele>267.8</ele>
        <time>2020-06-01T14:02:41.000Z</time>
      </trkpt>
      <trkpt lat="44.007850" lon="5.154310">
        <ele>267.8</ele>
        <time>2020-06-01T14:02:41.000Z</time>
      </trkpt>
      <trkpt lat="44.007980" lon="5.154420">
        <ele>268.0</ele>
        <time>2020-06-01T14:02:49.000Z</time>
      </trkpt>
      <trkpt lat="44.008050" lon="5.154510">
        <ele>268.0</ele>
        <time>2020-06-01T14:02:54.000Z</time>
      </trkpt>
      <trkpt lat="44.008110" lon="5.154620">
        <ele>268.0</ele>
        <time>2020-06-01T14:02:59.000Z</time>
      </trkpt>
      <trkpt lat="44.008040" lon="5.154730">
        <ele>267.4</ele>
        <time>2020-06-01T14:03:04.000Z</time>
      </trkpt>
      <trkpt lat="44.007960" lon="5.154920">
        <ele>266.4</ele>
        <time>2020-06-01T14:03:12.000Z</time>
      </trkpt>
      <trkpt lat="44.007930" lon="5.155120">
        <ele>265.2</ele>
        <time>2020-06-01T14:03:19.000Z</time>
      </trkpt>
      <trkpt lat="44.007940" lon="5.155250">
        <ele>264.2</ele>
        <time>2020-06-01T14:03:24.000Z</time>
      </trkpt>
      <trkpt lat="44.007980" lon="5.155390">
        <ele>263.3</ele>
        <time>2020-06-01T14:03:29.000Z</time>
      </trkpt>
      <trkpt lat="44.008510" lon="5.156040">
        <ele>263.8</ele>
        <time>2020-06-01T14:04:05.000Z</time>
      </trkpt>
      <trkpt lat="44.008740" lon="5.156510">
        <ele>265.0</ele>
        <time>2020-06-01T14:04:25.000Z</time>
      </trkpt>
      <trkpt lat="44.009060" lon="5.157370">
        <ele>262.1</ele>
        <time>2020-06-01T14:05:00.000Z</time>
      </trkpt>
      <trkpt lat="44.009220" lon="5.157810">
        <ele>257.7</ele>
        <time>2020-06-01T14:05:18.000Z</time>
      </trkpt>
      <trkpt lat="44.009310" lon="5.158160">
        <ele>252.9</ele>
        <time>2020-06-01T14:05:31.000Z</time>
      </trkpt>
      <trkpt lat="44.009680" lon="5.158910">
        <ele>246.2</ele>
        <time>2020-06-01T14:06:04.000Z</time>
      </trkpt>
      <trkpt lat="44.009910" lon="5.159430">
        <ele>244.1</ele>
        <time>2020-06-01T14:06:26.000Z</time>
      </trkpt>
      <trkpt lat="44.010480" lon="5.160480">
        <ele>243.1</ele>
        <time>2020-06-01T14:07:13.000Z</time>
      </trkpt>
      <trkpt lat="44.010480" lon="5.160480">
        <ele>243.1</ele>
        <time>2020-06-01T14:07:13.000Z</time>
      </trkpt>
      <trkpt lat="44.010520" lon="5.160560">
        <ele>242.9</ele>
        <time>2020-06-01T14:07:17.000Z</time>
      </trkpt>
      <trkpt lat="44.010670" lon="5.160830">
        <ele>241.5</ele>
        <time>2020-06-01T14:07:29.000Z</time>
      </trkpt>
      <trkpt lat="44.010940" lon="5.161300">
        <ele>240.6</ele>
        <time>2020-06-01T14:07:51.000Z</time>
      </trkpt>
      <trkpt lat="44.011240" lon="5.161850">
        <ele>238.1</ele>
        <time>2020-06-01T14:08:15.000Z</time>
      </trkpt>
      <trkpt lat="44.011280" lon="5.161890">
        <ele>237.8</ele>
        <time>2020-06-01T14:08:18.000Z</time>
      </trkpt>
      <trkpt lat="44.011280" lon="5.161890">
        <ele>237.8</ele>
        <time>2020-06-01T14:08:18.000Z</time>
      </trkpt>
      <trkpt lat="44.011320" lon="5.161910">
        <ele>237.5</ele>
        <time>2020-06-01T14:08:20.000Z</time>
      </trkpt>
      <trkpt lat="44.011240" lon="5.162000">
        <ele>238.1</ele>
        <time>2020-06-01T14:08:25.000Z</time>
      </trkpt>
      <trkpt lat="44.009440" lon="5.162730">
        <ele>250.4</ele>
        <time>2020-06-01T14:09:59.000Z</time>
      </trkpt>
      <trkpt lat="44.009180" lon="5.162760">
        <ele>252.4</ele>
        <time>2020-06-01T14:10:12.000Z</time>
      </trkpt>
      <trkpt lat="44.009180" lon="5.162760">
        <ele>252.4</ele>
        <time>2020-06-01T14:10:12.000Z</time>
      </trkpt>
      <trkpt lat="44.008910" lon="5.162610">
        <ele>253.5</ele>
        <time>2020-06-01T14:10:27.000Z</time>
      </trkpt>
      <trkpt lat="44.008770" lon="5.162590">
        <ele>254.7</ele>
        <time>2020-06-01T14:10:34.000Z</time>
      </trkpt>
      <trkpt lat="44.008650" lon="5.162630">
        <ele>256.2</ele>
        <time>2020-06-01T14:10:40.000Z</time>
      </trkpt>
      <trkpt lat="44.008060" lon="5.163120">
        <ele>265.6</ele>
        <time>2020-06-01T14:11:14.000Z</time>
      </trkpt>
      <trkpt lat="44.007710" lon="5.163280">
        <ele>269.3</ele>
        <time>2020-06-01T14:11:33.000Z</time>
      </trkpt>
      <trkpt lat="44.007450" lon="5.163500">
        <ele>271.7</ele>
        <time>2020-06-01T14:11:48.000Z</time>
      </trkpt>
      <trkpt lat="44.007370" lon="5.163550">
        <ele>271.8</ele>
        <time>2020-06-01T14:11:52.000Z</time>
      </trkpt>
      <trkpt lat="44.007200" lon="5.163580">
        <ele>271.9</ele>
        <time>2020-06-01T14:12:01.000Z</time>
      </trkpt>
      <trkpt lat="44.006940" lon="5.163600">
        <ele>271.7</ele>
        <time>2020-06-01T14:12:14.000Z</time>
      </trkpt>
      <trkpt lat="44.006640" lon="5.163590">
        <ele>271.4</ele>
        <time>2020-06-01T14:12:29.000Z</time>
      </trkpt>
      <trkpt lat="44.006560" lon="5.163570">
        <ele>271.5</ele>
        <time>2020-06-01T14:12:33.000Z</time>
      </trkpt>
      <trkpt lat="44.006480" lon="5.163490">
        <ele>270.9</ele>
        <time>2020-06-01T14:12:38.000Z</time>
      </trkpt>
      <trkpt lat="44.006320" lon="5.163250">
        <ele>269.3</ele>
        <time>2020-06-01T14:12:50.000Z</time>
      </trkpt>
      <trkpt lat="44.006250" lon="5.163210">
        <ele>269.3</ele>
        <time>2020-06-01T14:12:53.000Z</time>
      </trkpt>
      <trkpt lat="44.006190" lon="5.163220">
        <ele>269.5</ele>
        <time>2020-06-01T14:12:56.000Z</time>
      </trkpt>
      <trkpt lat="44.005830" lon="5.163490">
        <ele>272.3</ele>
        <time>2020-06-01T14:13:17.000Z</time>
      </trkpt>
      <trkpt lat="44.005640" lon="5.163600">
        <ele>274.0</ele>
        <time>2020-06-01T14:13:27.000Z</time>
      </trkpt>
      <trkpt lat="44.005360" lon="5.163690">
        <ele>276.0</ele>
        <time>2020-06-01T14:13:42.000Z</time>
      </trkpt>
      <trkpt lat="44.005180" lon="5.163800">
        <ele>277.5</ele>
        <time>2020-06-01T14:13:51.000Z</time>
      </trkpt>
      <trkpt lat="44.004900" lon="5.164020">
        <ele>280.6</ele>
        <time>2020-06-01T14:14:08.000Z</time>
      </trkpt>
      <trkpt lat="44.004580" lon="5.164200">
        <ele>284.3</ele>
        <time>2020-06-01T14:14:25.000Z</time>
      </trkpt>
      <trkpt lat="44.004420" lon="5.164320">
        <ele>286.5</ele>
        <time>2020-06-01T14:14:34.000Z</time>
      </trkpt>
      <trkpt lat="44.004200" lon="5.164760">
        <ele>292.4</ele>
        <time>2020-06-01T14:14:53.000Z</time>
      </trkpt>
      <trkpt lat="44.004200" lon="5.164760">
        <ele>292.4</ele>
        <time>2020-06-01T14:14:53.000Z</time>
      </trkpt>
      <trkpt lat="44.004160" lon="5.164800">
        <ele>293.0</ele>
        <time>2020-06-01T14:14:56.000Z</time>
      </trkpt>
      <trkpt lat="44.004160" lon="5.164860">
        <ele>293.6</ele>
        <time>2020-06-01T14:14:58.000Z</time>
      </trkpt>
      <trkpt lat="44.003990" lon="5.165260">
        <ele>296.5</ele>
        <time>2020-06-01T14:15:15.000Z</time>
      </trkpt>
      <trkpt lat="44.003940" lon="5.165530">
        <ele>298.6</ele>
        <time>2020-06-01T14:15:25.000Z</time>
      </trkpt>
      <trkpt lat="44.004190" lon="5.165910">
        <ele>301.7</ele>
        <time>2020-06-01T14:15:43.000Z</time>
      </trkpt>
      <trkpt lat="44.004320" lon="5.166070">
        <ele>302.7</ele>
        <time>2020-06-01T14:15:52.000Z</time>
      </trkpt>
      <trkpt lat="44.004400" lon="5.166210">
        <ele>303.7</ele>
        <time>2020-06-01T14:15:58.000Z</time>
      </trkpt>
      <trkpt lat="44.004410" lon="5.166320">
        <ele>304.7</ele>
        <time>2020-06-01T14:16:02.000Z</time>
      </trkpt>
      <trkpt lat="44.004360" lon="5.166420">
        <ele>306.1</ele>
        <time>2020-06-01T14:16:07.000Z</time>
      </trkpt>
      <trkpt lat="44.004310" lon="5.166590">
        <ele>308.2</ele>
        <time>2020-06-01T14:16:13.000Z</time>
      </trkpt>
      <trkpt lat="44.004280" lon="5.166730">
        <ele>309.8</ele>
        <time>2020-06-01T14:16:19.000Z</time>
      </trkpt>
      <trkpt lat="44.004210" lon="5.166760">
        <ele>310.5</ele>
        <time>2020-06-01T14:16:22.000Z</time>
      </trkpt>
      <trkpt lat="44.003950" lon="5.166720">
        <ele>310.8</ele>
        <time>2020-06-01T14:16:35.000Z</time>
      </trkpt>
      <trkpt lat="44.003630" lon="5.166610">
        <ele>309.9</ele>
        <time>2020-06-01T14:16:52.000Z</time>
      </trkpt>
      <trkpt lat="44.003570" lon="5.166630">
        <ele>310.3</ele>
        <time>2020-06-01T14:16:55.000Z</time>
      </trkpt>
      <trkpt lat="44.003540" lon="5.166720">
        <ele>311.4</ele>
        <time>2020-06-01T14:16:58.000Z</time>
      </trkpt>
      <trkpt lat="44.003520" lon="5.166940">
        <ele>314.2</ele>
        <time>2020-06-01T14:17:06.000Z</time>
      </trkpt>
      <trkpt lat="44.003490" lon="5.167450">
        <ele>320.6</ele>
        <time>2020-06-01T14:17:25.000Z</time>
      </trkpt>
      <trkpt lat="44.003400" lon="5.167700">
        <ele>323.9</ele>
        <time>2020-06-01T14:17:35.000Z</time>
      </trkpt>
      <trkpt lat="44.003400" lon="5.167700">
        <ele>323.9</ele>
        <time>2020-06-01T14:17:35.000Z</time>
      </trkpt>
      <trkpt lat="44.003270" lon="5.167950">
        <ele>326.7</ele>
        <time>2020-06-01T14:17:46.000Z</time>
      </trkpt>
      <trkpt lat="44.003240" lon="5.167980">
        <ele>326.9</ele>
        <time>2020-06-01T14:17:48.000Z</time>
      </trkpt>
      <trkpt lat="44.003170" lon="5.168010">
        <ele>326.6</ele>
        <time>2020-06-01T14:17:52.000Z</time>
      </trkpt>
      <trkpt lat="44.003120" lon="5.168070">
        <ele>326.9</ele>
        <time>2020-06-01T14:17:55.000Z</time>
      </trkpt>
      <trkpt lat="44.003030" lon="5.168260">
        <ele>328.7</ele>
        <time>2020-06-01T14:18:03.000Z</time>
      </trkpt>
      <trkpt lat="44.002960" lon="5.168350">
        <ele>329.5</ele>
        <time>2020-06-01T14:18:08.000Z</time>
      </trkpt>
      <trkpt lat="44.002920" lon="5.168360">
        <ele>329.3</ele>
        <time>2020-06-01T14:18:10.000Z</time>
      </trkpt>
      <trkpt lat="44.002910" lon="5.168310">
        <ele>328.6</ele>
        <time>2020-06-01T14:18:12.000Z</time>
      </trkpt>
      <trkpt lat="44.002950" lon="5.168030">
        <ele>324.8</ele>
        <time>2020-06-01T14:18:22.000Z</time>
      </trkpt>
      <trkpt lat="44.002910" lon="5.167990">
        <ele>323.9</ele>
        <time>2020-06-01T14:18:24.000Z</time>
      </trkpt>
      <trkpt lat="44.002850" lon="5.167990">
        <ele>323.3</ele>
        <time>2020-06-01T14:18:27.000Z</time>
      </trkpt>
      <trkpt lat="44.002610" lon="5.168280">
        <ele>326.0</ele>
        <time>2020-06-01T14:18:43.000Z</time>
      </trkpt>
      <trkpt lat="44.002560" lon="5.168370">
        <ele>326.8</ele>
        <time>2020-06-01T14:18:47.000Z</time>
      </trkpt>
      <trkpt lat="44.002500" lon="5.168400">
        <ele>326.9</ele>
        <time>2020-06-01T14:18:51.000Z</time>
      </trkpt>
      <trkpt lat="44.002420" lon="5.168400">
        <ele>324.4</ele>
        <time>2020-06-01T14:18:55.000Z</time>
      </trkpt>
      <trkpt lat="44.002260" lon="5.168660">
        <ele>322.7</ele>
        <time>2020-06-01T14:19:07.000Z</time>
      </trkpt>
      <trkpt lat="44.002050" lon="5.168900">
        <ele>318.7</ele>
        <time>2020-06-01T14:19:21.000Z</time>
      </trkpt>
      <trkpt lat="44.001960" lon="5.168910">
        <ele>315.8</ele>
        <time>2020-06-01T14:19:25.000Z</time>
      </trkpt>
      <trkpt lat="44.001870" lon="5.168890">
        <ele>312.6</ele>
        <time>2020-06-01T14:19:30.000Z</time>
      </trkpt>
      <trkpt lat="44.001790" lon="5.168940">
        <ele>310.5</ele>
        <time>2020-06-01T14:19:34.000Z</time>
      </trkpt>
      <trkpt lat="44.001720" lon="5.168920">
        <ele>308.1</ele>
        <time>2020-06-01T14:19:38.000Z</time>
      </trkpt>
      <trkpt lat="44.001690" lon="5.168860">
        <ele>306.4</ele>
        <time>2020-06-01T14:19:40.000Z</time>
      </trkpt>
      <trkpt lat="44.001690" lon="5.168770">
        <ele>305.4</ele>
        <time>2020-06-01T14:19:43.000Z</time>
      </trkpt>
      <trkpt lat="44.001710" lon="5.168700">
        <ele>305.4</ele>
        <time>2020-06-01T14:19:46.000Z</time>
      </trkpt>
      <trkpt lat="44.001710" lon="5.168650">
        <ele>304.8</ele>
        <time>2020-06-01T14:19:48.000Z</time>
      </trkpt>
      <trkpt lat="44.001680" lon="5.168640">
        <ele>303.7</ele>
        <time>2020-06-01T14:19:50.000Z</time>
      </trkpt>
      <trkpt lat="44.001630" lon="5.168660">
        <ele>302.8</ele>
        <time>2020-06-01T14:19:52.000Z</time>
      </trkpt>
      <trkpt lat="44.001360" lon="5.168870">
        <ele>299.3</ele>
        <time>2020-06-01T14:20:08.000Z</time>
      </trkpt>
      <trkpt lat="44.001300" lon="5.168860">
        <ele>298.0</ele>
        <time>2020-06-01T14:20:11.000Z</time>
      </trkpt>
      <trkpt lat="44.001250" lon="5.168910">
        <ele>297.3</ele>
        <time>2020-06-01T14:20:14.000Z</time>
      </trkpt>
      <trkpt lat="44.001160" lon="5.169130">
        <ele>297.2</ele>
        <time>2020-06-01T14:20:23.000Z</time>
      </trkpt>
      <trkpt lat="44.001020" lon="5.169300">
        <ele>293.2</ele>
        <time>2020-06-01T14:20:32.000Z</time>
      </trkpt>
      <trkpt lat="44.000840" lon="5.169350">
        <ele>288.4</ele>
        <time>2020-06-01T14:20:41.000Z</time>
      </trkpt>
      <trkpt lat="44.000760" lon="5.169430">
        <ele>286.8</ele>
        <time>2020-06-01T14:20:46.000Z</time>
      </trkpt>
      <trkpt lat="44.000760" lon="5.169520">
        <ele>285.9</ele>
        <time>2020-06-01T14:20:49.000Z</time>
      </trkpt>
      <trkpt lat="44.000760" lon="5.169520">
        <ele>285.9</ele>
        <time>2020-06-01T14:21:37.000Z</time>
      </trkpt>
      <trkpt lat="44.000710" lon="5.169530">
        <ele>285.2</ele>
        <time>2020-06-01T14:21:39.000Z</time>
      </trkpt>
      <trkpt lat="44.000580" lon="5.169420">
        <ele>285.3</ele>
        <time>2020-06-01T14:21:47.000Z</time>
      </trkpt>
      <trkpt lat="44.000370" lon="5.169350">
        <ele>284.4</ele>
        <time>2020-06-01T14:21:58.000Z</time>
      </trkpt>
      <trkpt lat="44.000290" lon="5.169280">
        <ele>285.0</ele>
        <time>2020-06-01T14:22:02.000Z</time>
      </trkpt>
      <trkpt lat="44.000090" lon="5.169170">
        <ele>285.5</ele>
        <time>2020-06-01T14:22:13.000Z</time>
      </trkpt>
      <trkpt lat="43.999860" lon="5.168950">
        <ele>283.8</ele>
        <time>2020-06-01T14:22:27.000Z</time>
      </trkpt>
      <trkpt lat="43.999790" lon="5.168840">
        <ele>283.4</ele>
        <time>2020-06-01T14:22:32.000Z</time>
      </trkpt>
      <trkpt lat="43.999610" lon="5.168080">
        <ele>280.7</ele>
        <time>2020-06-01T14:23:01.000Z</time>
      </trkpt>
      <trkpt lat="43.999610" lon="5.168080">
        <ele>280.7</ele>
        <time>2020-06-01T14:23:01.000Z</time>
      </trkpt>
      <trkpt lat="43.999560" lon="5.167910">
        <ele>278.5</ele>
        <time>2020-06-01T14:23:08.000Z</time>
      </trkpt>
      <trkpt lat="43.999410" lon="5.167690">
        <ele>275.5</ele>
        <time>2020-06-01T14:23:19.000Z</time>
      </trkpt>
      <trkpt lat="43.999330" lon="5.167510">
        <ele>273.4</ele>
        <time>2020-06-01T14:23:26.000Z</time>
      </trkpt>
      <trkpt lat="43.999320" lon="5.167250">
        <ele>267.7</ele>
        <time>2020-06-01T14:23:36.000Z</time>
      </trkpt>
      <trkpt lat="43.998820" lon="5.167100">
        <ele>258.6</ele>
        <time>2020-06-01T14:24:01.000Z</time>
      </trkpt>
      <trkpt lat="43.998750" lon="5.167060">
        <ele>256.7</ele>
        <time>2020-06-01T14:24:05.000Z</time>
      </trkpt>
      <trkpt lat="43.998730" lon="5.167020">
        <ele>255.7</ele>
        <time>2020-06-01T14:24:07.000Z</time>
      </trkpt>
      <trkpt lat="43.998720" lon="5.166960">
        <ele>254.3</ele>
        <time>2020-06-01T14:24:09.000Z</time>
      </trkpt>
      <trkpt lat="43.998740" lon="5.166670">
        <ele>248.9</ele>
        <time>2020-06-01T14:24:19.000Z</time>
      </trkpt>
      <trkpt lat="43.998760" lon="5.166620">
        <ele>247.6</ele>
        <time>2020-06-01T14:24:21.000Z</time>
      </trkpt>
      <trkpt lat="43.998830" lon="5.166610">
        <ele>248.1</ele>
        <time>2020-06-01T14:24:25.000Z</time>
      </trkpt>
      <trkpt lat="43.998950" lon="5.166730">
        <ele>252.8</ele>
        <time>2020-06-01T14:24:32.000Z</time>
      </trkpt>
      <trkpt lat="43.999040" lon="5.166760">
        <ele>254.5</ele>
        <time>2020-06-01T14:24:37.000Z</time>
      </trkpt>
      <trkpt lat="43.999170" lon="5.166760">
        <ele>256.1</ele>
        <time>2020-06-01T14:24:44.000Z</time>
      </trkpt>
      <trkpt lat="43.999340" lon="5.166640">
        <ele>254.5</ele>
        <time>2020-06-01T14:24:53.000Z</time>
      </trkpt>
      <trkpt lat="43.999530" lon="5.166590">
        <ele>254.5</ele>
        <time>2020-06-01T14:25:03.000Z</time>
      </trkpt>
      <trkpt lat="43.999590" lon="5.166530">
        <ele>253.3</ele>
        <time>2020-06-01T14:25:06.000Z</time>
      </trkpt>
      <trkpt lat="43.999590" lon="5.166530">
        <ele>253.3</ele>
        <time>2020-06-01T14:25:06.000Z</time>
      </trkpt>
      <trkpt lat="43.999660" lon="5.166430">
        <ele>251.2</ele>
        <time>2020-06-01T14:25:11.000Z</time>
      </trkpt>
      <trkpt lat="43.999660" lon="5.166430">
        <ele>251.2</ele>
        <time>2020-06-01T14:25:11.000Z</time>
      </trkpt>
      <trkpt lat="44.000070" lon="5.165440">
        <ele>234.3</ele>
        <time>2020-06-01T14:25:53.000Z</time>
      </trkpt>
      <trkpt lat="44.000200" lon="5.165230">
        <ele>231.9</ele>
        <time>2020-06-01T14:26:03.000Z</time>
      </trkpt>
      <trkpt lat="44.000230" lon="5.165150">
        <ele>230.9</ele>
        <time>2020-06-01T14:26:06.000Z</time>
      </trkpt>
      <trkpt lat="44.000350" lon="5.164160">
        <ele>219.1</ele>
        <time>2020-06-01T14:26:42.000Z</time>
      </trkpt>
      <trkpt lat="44.000320" lon="5.163840">
        <ele>217.9</ele>
        <time>2020-06-01T14:26:54.000Z</time>
      </trkpt>
      <trkpt lat="44.000220" lon="5.163460">
        <ele>214.4</ele>
        <time>2020-06-01T14:27:08.000Z</time>
      </trkpt>
      <trkpt lat="44.000140" lon="5.163000">
        <ele>211.3</ele>
        <time>2020-06-01T14:27:25.000Z</time>
      </trkpt>
      <trkpt lat="43.999970" lon="5.162530">
        <ele>205.6</ele>
        <time>2020-06-01T14:27:44.000Z</time>
      </trkpt>
      <trkpt lat="43.999960" lon="5.162370">
        <ele>205.8</ele>
        <time>2020-06-01T14:27:50.000Z</time>
      </trkpt>
      <trkpt lat="43.999810" lon="5.162070">
        <ele>203.9</ele>
        <time>2020-06-01T14:28:03.000Z</time>
      </trkpt>
      <trkpt lat="43.999640" lon="5.162000">
        <ele>200.7</ele>
        <time>2020-06-01T14:28:12.000Z</time>
      </trkpt>
      <trkpt lat="43.999610" lon="5.162410">
        <ele>199.9</ele>
        <time>2020-06-01T14:28:27.000Z</time>
      </trkpt>
      <trkpt lat="43.999480" lon="5.163180">
        <ele>200.1</ele>
        <time>2020-06-01T14:28:55.000Z</time>
      </trkpt>
      <trkpt lat="43.999390" lon="5.163590">
        <ele>200.6</ele>
        <time>2020-06-01T14:29:11.000Z</time>
      </trkpt>
      <trkpt lat="43.999060" lon="5.164740">
        <ele>208.4</ele>
        <time>2020-06-01T14:29:55.000Z</time>
      </trkpt>
      <trkpt lat="43.998910" lon="5.165000">
        <ele>210.2</ele>
        <time>2020-06-01T14:30:07.000Z</time>
      </trkpt>
      <trkpt lat="43.998760" lon="5.165200">
        <ele>212.5</ele>
        <time>2020-06-01T14:30:18.000Z</time>
      </trkpt>
      <trkpt lat="43.998250" lon="5.165630">
        <ele>216.9</ele>
        <time>2020-06-01T14:30:47.000Z</time>
      </trkpt>
      <trkpt lat="43.998250" lon="5.165630">
        <ele>216.9</ele>
        <time>2020-06-01T14:30:47.000Z</time>
      </trkpt>
      <trkpt lat="43.998050" lon="5.165820">
        <ele>219.8</ele>
        <time>2020-06-01T14:31:00.000Z</time>
      </trkpt>
      <trkpt lat="43.998000" lon="5.166030">
        <ele>223.9</ele>
        <time>2020-06-01T14:31:08.000Z</time>
      </trkpt>
      <trkpt lat="43.998020" lon="5.166310">
        <ele>229.9</ele>
        <time>2020-06-01T14:31:18.000Z</time>
      </trkpt>
      <trkpt lat="43.997980" lon="5.166620">
        <ele>235.8</ele>
        <time>2020-06-01T14:31:29.000Z</time>
      </trkpt>
      <trkpt lat="43.997860" lon="5.167280">
        <ele>241.7</ele>
        <time>2020-06-01T14:31:54.000Z</time>
      </trkpt>
      <trkpt lat="43.997840" lon="5.167540">
        <ele>243.5</ele>
        <time>2020-06-01T14:32:03.000Z</time>
      </trkpt>
      <trkpt lat="43.997870" lon="5.167730">
        <ele>243.0</ele>
        <time>2020-06-01T14:32:10.000Z</time>
      </trkpt>
      <trkpt lat="43.997950" lon="5.167900">
        <ele>244.4</ele>
        <time>2020-06-01T14:32:17.000Z</time>
      </trkpt>
      <trkpt lat="43.998100" lon="5.168320">
        <ele>247.2</ele>
        <time>2020-06-01T14:32:34.000Z</time>
      </trkpt>
      <trkpt lat="43.998100" lon="5.168320">
        <ele>247.2</ele>
        <time>2020-06-01T14:32:34.000Z</time>
      </trkpt>
      <trkpt lat="43.998290" lon="5.168990">
        <ele>250.5</ele>
        <time>2020-06-01T14:33:00.000Z</time>
      </trkpt>
      <trkpt lat="43.998270" lon="5.169660">
        <ele>240.4</ele>
        <time>2020-06-01T14:33:24.000Z</time>
      </trkpt>
      <trkpt lat="43.998350" lon="5.170050">
        <ele>235.4</ele>
        <time>2020-06-01T14:33:39.000Z</time>
      </trkpt>
      <trkpt lat="43.998410" lon="5.170180">
        <ele>234.6</ele>
        <time>2020-06-01T14:33:44.000Z</time>
      </trkpt>
      <trkpt lat="43.998490" lon="5.170280">
        <ele>234.4</ele>
        <time>2020-06-01T14:33:50.000Z</time>
      </trkpt>
      <trkpt lat="43.998640" lon="5.170420">
        <ele>235.4</ele>
        <time>2020-06-01T14:33:59.000Z</time>
      </trkpt>
      <trkpt lat="43.998650" lon="5.170540">
        <ele>233.5</ele>
        <time>2020-06-01T14:34:03.000Z</time>
      </trkpt>
      <trkpt lat="43.998640" lon="5.170730">
        <ele>229.7</ele>
        <time>2020-06-01T14:34:10.000Z</time>
      </trkpt>
      <trkpt lat="43.998670" lon="5.170920">
        <ele>228.1</ele>
        <time>2020-06-01T14:34:17.000Z</time>
      </trkpt>
      <trkpt lat="43.998750" lon="5.171100">
        <ele>229.3</ele>
        <time>2020-06-01T14:34:25.000Z</time>
      </trkpt>
      <trkpt lat="43.998990" lon="5.171350">
        <ele>234.8</ele>
        <time>2020-06-01T14:34:40.000Z</time>
      </trkpt>
      <trkpt lat="43.999060" lon="5.171480">
        <ele>236.5</ele>
        <time>2020-06-01T14:34:45.000Z</time>
      </trkpt>
      <trkpt lat="43.999110" lon="5.171680">
        <ele>237.5</ele>
        <time>2020-06-01T14:34:53.000Z</time>
      </trkpt>
      <trkpt lat="43.999090" lon="5.172080">
        <ele>241.0</ele>
        <time>2020-06-01T14:35:08.000Z</time>
      </trkpt>
      <trkpt lat="43.998950" lon="5.172880">
        <ele>246.5</ele>
        <time>2020-06-01T14:35:37.000Z</time>
      </trkpt>
      <trkpt lat="43.998900" lon="5.173550">
        <ele>251.5</ele>
        <time>2020-06-01T14:36:01.000Z</time>
      </trkpt>
      <trkpt lat="43.998850" lon="5.173700">
        <ele>249.7</ele>
        <time>2020-06-01T14:36:07.000Z</time>
      </trkpt>
      <trkpt lat="43.998830" lon="5.173880">
        <ele>249.1</ele>
        <time>2020-06-01T14:36:14.000Z</time>
      </trkpt>
      <trkpt lat="43.998830" lon="5.174440">
        <ele>244.8</ele>
        <time>2020-06-01T14:36:34.000Z</time>
      </trkpt>
      <trkpt lat="43.998950" lon="5.174700">
        <ele>243.5</ele>
        <time>2020-06-01T14:36:45.000Z</time>
      </trkpt>
      <trkpt lat="43.999050" lon="5.174830">
        <ele>243.2</ele>
        <time>2020-06-01T14:36:52.000Z</time>
      </trkpt>
      <trkpt lat="43.999150" lon="5.174940">
        <ele>243.2</ele>
        <time>2020-06-01T14:36:58.000Z</time>
      </trkpt>
      <trkpt lat="43.999260" lon="5.175020">
        <ele>242.2</ele>
        <time>2020-06-01T14:37:05.000Z</time>
      </trkpt>
      <trkpt lat="43.999340" lon="5.175130">
        <ele>243.0</ele>
        <time>2020-06-01T14:37:10.000Z</time>
      </trkpt>
      <trkpt lat="43.999480" lon="5.175190">
        <ele>242.7</ele>
        <time>2020-06-01T14:37:18.000Z</time>
      </trkpt>
      <trkpt lat="43.999810" lon="5.175200">
        <ele>241.1</ele>
        <time>2020-06-01T14:37:34.000Z</time>
      </trkpt>
      <trkpt lat="44.000140" lon="5.175340">
        <ele>235.3</ele>
        <time>2020-06-01T14:37:51.000Z</time>
      </trkpt>
      <trkpt lat="44.000500" lon="5.175650">
        <ele>223.9</ele>
        <time>2020-06-01T14:38:13.000Z</time>
      </trkpt>
      <trkpt lat="44.000580" lon="5.175690">
        <ele>221.8</ele>
        <time>2020-06-01T14:38:17.000Z</time>
      </trkpt>
      <trkpt lat="44.000700" lon="5.175720">
        <ele>219.1</ele>
        <time>2020-06-01T14:38:23.000Z</time>
      </trkpt>
      <trkpt lat="44.000970" lon="5.175730">
        <ele>216.3</ele>
        <time>2020-06-01T14:38:36.000Z</time>
      </trkpt>
      <trkpt lat="44.000970" lon="5.175730">
        <ele>216.3</ele>
        <time>2020-06-01T14:38:36.000Z</time>
      </trkpt>
      <trkpt lat="44.001170" lon="5.175700">
        <ele>216.7</ele>
        <time>2020-06-01T14:38:47.000Z</time>
      </trkpt>
      <trkpt lat="44.001560" lon="5.175790">
        <ele>215.0</ele>
        <time>2020-06-01T14:39:06.000Z</time>
      </trkpt>
      <trkpt lat="44.001680" lon="5.175790">
        <ele>215.2</ele>
        <time>2020-06-01T14:39:12.000Z</time>
      </trkpt>
      <trkpt lat="44.001770" lon="5.175740">
        <ele>218.4</ele>
        <time>2020-06-01T14:39:17.000Z</time>
      </trkpt>
      <trkpt lat="44.002160" lon="5.175620">
        <ele>230.2</ele>
        <time>2020-06-01T14:39:37.000Z</time>
      </trkpt>
      <trkpt lat="44.002280" lon="5.175660">
        <ele>232.6</ele>
        <time>2020-06-01T14:39:43.000Z</time>
      </trkpt>
      <trkpt lat="44.002340" lon="5.175750">
        <ele>232.5</ele>
        <time>2020-06-01T14:39:48.000Z</time>
      </trkpt>
      <trkpt lat="44.002410" lon="5.176080">
        <ele>230.0</ele>
        <time>2020-06-01T14:40:00.000Z</time>
      </trkpt>
      <trkpt lat="44.002430" lon="5.176270">
        <ele>228.2</ele>
        <time>2020-06-01T14:40:07.000Z</time>
      </trkpt>
      <trkpt lat="44.002430" lon="5.176270">
        <ele>228.2</ele>
        <time>2020-06-01T14:40:07.000Z</time>
      </trkpt>
      <trkpt lat="44.002390" lon="5.176770">
        <ele>222.3</ele>
        <time>2020-06-01T14:40:25.000Z</time>
      </trkpt>
      <trkpt lat="44.002360" lon="5.177050">
        <ele>220.2</ele>
        <time>2020-06-01T14:40:35.000Z</time>
      </trkpt>
      <trkpt lat="44.002370" lon="5.177200">
        <ele>219.1</ele>
        <time>2020-06-01T14:40:41.000Z</time>
      </trkpt>
      <trkpt lat="44.002400" lon="5.177350">
        <ele>218.2</ele>
        <time>2020-06-01T14:40:46.000Z</time>
      </trkpt>
      <trkpt lat="44.002380" lon="5.177660">
        <ele>217.0</ele>
        <time>2020-06-01T14:40:58.000Z</time>
      </trkpt>
      <trkpt lat="44.002350" lon="5.177750">
        <ele>217.0</ele>
        <time>2020-06-01T14:41:01.000Z</time>
      </trkpt>
      <trkpt lat="44.002330" lon="5.177940">
        <ele>217.0</ele>
        <time>2020-06-01T14:41:08.000Z</time>
      </trkpt>
      <trkpt lat="44.002330" lon="5.178100">
        <ele>217.0</ele>
        <time>2020-06-01T14:41:14.000Z</time>
      </trkpt>
      <trkpt lat="44.002370" lon="5.178200">
        <ele>217.0</ele>
        <time>2020-06-01T14:41:18.000Z</time>
      </trkpt>
      <trkpt lat="44.002380" lon="5.178420">
        <ele>217.0</ele>
        <time>2020-06-01T14:41:26.000Z</time>
      </trkpt>
      <trkpt lat="44.002420" lon="5.178550">
        <ele>216.9</ele>
        <time>2020-06-01T14:41:31.000Z</time>
      </trkpt>
      <trkpt lat="44.002460" lon="5.178750">
        <ele>216.6</ele>
        <time>2020-06-01T14:41:38.000Z</time>
      </trkpt>
      <trkpt lat="44.002480" lon="5.178830">
        <ele>216.5</ele>
        <time>2020-06-01T14:41:41.000Z</time>
      </trkpt>
      <trkpt lat="44.002550" lon="5.178860">
        <ele>216.6</ele>
        <time>2020-06-01T14:41:45.000Z</time>
      </trkpt>
      <trkpt lat="44.002620" lon="5.179150">
        <ele>216.2</ele>
        <time>2020-06-01T14:41:56.000Z</time>
      </trkpt>
      <trkpt lat="44.002700" lon="5.179240">
        <ele>216.2</ele>
        <time>2020-06-01T14:42:01.000Z</time>
      </trkpt>
      <trkpt lat="44.002850" lon="5.179990">
        <ele>216.4</ele>
        <time>2020-06-01T14:42:29.000Z</time>
      </trkpt>
      <trkpt lat="44.002930" lon="5.180110">
        <ele>216.8</ele>
        <time>2020-06-01T14:42:35.000Z</time>
      </trkpt>
      <trkpt lat="44.002910" lon="5.180180">
        <ele>216.9</ele>
        <time>2020-06-01T14:42:38.000Z</time>
      </trkpt>
      <trkpt lat="44.002920" lon="5.180310">
        <ele>217.2</ele>
        <time>2020-06-01T14:42:43.000Z</time>
      </trkpt>
      <trkpt lat="44.002900" lon="5.180410">
        <ele>217.4</ele>
        <time>2020-06-01T14:42:46.000Z</time>
      </trkpt>
      <trkpt lat="44.003000" lon="5.180690">
        <ele>218.3</ele>
        <time>2020-06-01T14:42:58.000Z</time>
      </trkpt>
      <trkpt lat="44.003030" lon="5.180830">
        <ele>218.6</ele>
        <time>2020-06-01T14:43:03.000Z</time>
      </trkpt>
      <trkpt lat="44.003030" lon="5.181030">
        <ele>219.0</ele>
        <time>2020-06-01T14:43:10.000Z</time>
      </trkpt>
      <trkpt lat="44.003010" lon="5.181130">
        <ele>219.1</ele>
        <time>2020-06-01T14:43:14.000Z</time>
      </trkpt>
      <trkpt lat="44.002920" lon="5.181270">
        <ele>219.5</ele>
        <time>2020-06-01T14:43:21.000Z</time>
      </trkpt>
      <trkpt lat="44.002900" lon="5.181380">
        <ele>219.8</ele>
        <time>2020-06-01T14:43:25.000Z</time>
      </trkpt>
      <trkpt lat="44.002870" lon="5.181870">
        <ele>220.7</ele>
        <time>2020-06-01T14:43:42.000Z</time>
      </trkpt>
      <trkpt lat="44.002850" lon="5.181940">
        <ele>220.9</ele>
        <time>2020-06-01T14:43:45.000Z</time>
      </trkpt>
      <trkpt lat="44.002790" lon="5.182010">
        <ele>221.3</ele>
        <time>2020-06-01T14:43:49.000Z</time>
      </trkpt>
      <trkpt lat="44.002540" lon="5.182220">
        <ele>223.6</ele>
        <time>2020-06-01T14:44:04.000Z</time>
      </trkpt>
      <trkpt lat="44.002220" lon="5.182430">
        <ele>230.2</ele>
        <time>2020-06-01T14:44:21.000Z</time>
      </trkpt>
      <trkpt lat="44.002140" lon="5.182450">
        <ele>231.8</ele>
        <time>2020-06-01T14:44:25.000Z</time>
      </trkpt>
      <trkpt lat="44.001980" lon="5.182630">
        <ele>236.2</ele>
        <time>2020-06-01T14:44:36.000Z</time>
      </trkpt>
      <trkpt lat="44.001740" lon="5.182780">
        <ele>243.2</ele>
        <time>2020-06-01T14:44:49.000Z</time>
      </trkpt>
      <trkpt lat="44.001660" lon="5.182890">
        <ele>246.8</ele>
        <time>2020-06-01T14:44:54.000Z</time>
      </trkpt>
      <trkpt lat="44.001620" lon="5.182910">
        <ele>248.2</ele>
        <time>2020-06-01T14:44:57.000Z</time>
      </trkpt>
      <trkpt lat="44.001160" lon="5.182790">
        <ele>260.5</ele>
        <time>2020-06-01T14:45:20.000Z</time>
      </trkpt>
      <trkpt lat="44.001070" lon="5.182800">
        <ele>263.4</ele>
        <time>2020-06-01T14:45:25.000Z</time>
      </trkpt>
      <trkpt lat="44.001000" lon="5.182840">
        <ele>266.0</ele>
        <time>2020-06-01T14:45:28.000Z</time>
      </trkpt>
      <trkpt lat="44.000950" lon="5.182890">
        <ele>268.2</ele>
        <time>2020-06-01T14:45:31.000Z</time>
      </trkpt>
      <trkpt lat="44.000800" lon="5.183120">
        <ele>274.8</ele>
        <time>2020-06-01T14:45:43.000Z</time>
      </trkpt>
      <trkpt lat="44.000630" lon="5.183250">
        <ele>278.6</ele>
        <time>2020-06-01T14:45:52.000Z</time>
      </trkpt>
      <trkpt lat="44.000580" lon="5.183340">
        <ele>280.0</ele>
        <time>2020-06-01T14:45:56.000Z</time>
      </trkpt>
      <trkpt lat="44.000290" lon="5.183640">
        <ele>293.6</ele>
        <time>2020-06-01T14:46:14.000Z</time>
      </trkpt>
      <trkpt lat="44.000120" lon="5.183650">
        <ele>296.5</ele>
        <time>2020-06-01T14:46:23.000Z</time>
      </trkpt>
      <trkpt lat="44.000120" lon="5.183650">
        <ele>296.5</ele>
        <time>2020-06-01T14:46:23.000Z</time>
      </trkpt>
      <trkpt lat="43.999840" lon="5.183740">
        <ele>302.8</ele>
        <time>2020-06-01T14:46:37.000Z</time>
      </trkpt>
      <trkpt lat="43.999750" lon="5.183770">
        <ele>304.4</ele>
        <time>2020-06-01T14:46:42.000Z</time>
      </trkpt>
      <trkpt lat="43.999660" lon="5.183840">
        <ele>307.3</ele>
        <time>2020-06-01T14:46:47.000Z</time>
      </trkpt>
      <trkpt lat="43.999520" lon="5.183830">
        <ele>307.7</ele>
        <time>2020-06-01T14:46:54.000Z</time>
      </trkpt>
      <trkpt lat="43.999430" lon="5.183880">
        <ele>309.5</ele>
        <time>2020-06-01T14:46:59.000Z</time>
      </trkpt>
      <trkpt lat="43.998960" lon="5.183960">
        <ele>315.5</ele>
        <time>2020-06-01T14:47:23.000Z</time>
      </trkpt>
      <trkpt lat="43.998690" lon="5.184080">
        <ele>320.9</ele>
        <time>2020-06-01T14:47:37.000Z</time>
      </trkpt>
      <trkpt lat="43.998660" lon="5.184080">
        <ele>321.3</ele>
        <time>2020-06-01T14:47:38.000Z</time>
      </trkpt>
      <trkpt lat="43.998580" lon="5.183980">
        <ele>321.7</ele>
        <time>2020-06-01T14:47:44.000Z</time>
      </trkpt>
      <trkpt lat="43.998580" lon="5.183980">
        <ele>321.7</ele>
        <time>2020-06-01T14:47:44.000Z</time>
      </trkpt>
      <trkpt lat="43.998540" lon="5.183980">
        <ele>322.3</ele>
        <time>2020-06-01T14:47:46.000Z</time>
      </trkpt>
      <trkpt lat="43.998380" lon="5.184140">
        <ele>325.3</ele>
        <time>2020-06-01T14:47:56.000Z</time>
      </trkpt>
      <trkpt lat="43.998160" lon="5.184340">
        <ele>333.8</ele>
        <time>2020-06-01T14:48:09.000Z</time>
      </trkpt>
      <trkpt lat="43.997820" lon="5.184900">
        <ele>348.1</ele>
        <time>2020-06-01T14:48:35.000Z</time>
      </trkpt>
      <trkpt lat="43.997710" lon="5.185040">
        <ele>349.7</ele>
        <time>2020-06-01T14:48:43.000Z</time>
      </trkpt>
      <trkpt lat="43.997550" lon="5.185290">
        <ele>353.5</ele>
        <time>2020-06-01T14:48:55.000Z</time>
      </trkpt>
      <trkpt lat="43.997350" lon="5.185390">
        <ele>355.0</ele>
        <time>2020-06-01T14:49:05.000Z</time>
      </trkpt>
      <trkpt lat="43.997270" lon="5.185520">
        <ele>357.2</ele>
        <time>2020-06-01T14:49:12.000Z</time>
      </trkpt>
      <trkpt lat="43.996990" lon="5.185610">
        <ele>356.7</ele>
        <time>2020-06-01T14:49:26.000Z</time>
      </trkpt>
      <trkpt lat="43.996920" lon="5.185650">
        <ele>356.6</ele>
        <time>2020-06-01T14:49:30.000Z</time>
      </trkpt>
      <trkpt lat="43.996660" lon="5.185950">
        <ele>358.1</ele>
        <time>2020-06-01T14:49:47.000Z</time>
      </trkpt>
      <trkpt lat="43.996530" lon="5.186190">
        <ele>363.9</ele>
        <time>2020-06-01T14:49:57.000Z</time>
      </trkpt>
      <trkpt lat="43.996470" lon="5.186240">
        <ele>364.9</ele>
        <time>2020-06-01T14:50:01.000Z</time>
      </trkpt>
      <trkpt lat="43.996210" lon="5.186310">
        <ele>364.9</ele>
        <time>2020-06-01T14:50:14.000Z</time>
      </trkpt>
      <trkpt lat="43.996080" lon="5.186380">
        <ele>365.1</ele>
        <time>2020-06-01T14:50:21.000Z</time>
      </trkpt>
      <trkpt lat="43.995750" lon="5.186460">
        <ele>364.3</ele>
        <time>2020-06-01T14:50:38.000Z</time>
      </trkpt>
      <trkpt lat="43.995640" lon="5.186470">
        <ele>365.0</ele>
        <time>2020-06-01T14:50:43.000Z</time>
      </trkpt>
      <trkpt lat="43.995490" lon="5.186360">
        <ele>366.3</ele>
        <time>2020-06-01T14:50:52.000Z</time>
      </trkpt>
      <trkpt lat="43.995300" lon="5.186330">
        <ele>368.3</ele>
        <time>2020-06-01T14:51:01.000Z</time>
      </trkpt>
      <trkpt lat="43.995210" lon="5.186360">
        <ele>368.9</ele>
        <time>2020-06-01T14:51:06.000Z</time>
      </trkpt>
      <trkpt lat="43.995120" lon="5.186440">
        <ele>368.8</ele>
        <time>2020-06-01T14:51:11.000Z</time>
      </trkpt>
      <trkpt lat="43.994810" lon="5.186900">
        <ele>373.8</ele>
        <time>2020-06-01T14:51:34.000Z</time>
      </trkpt>
      <trkpt lat="43.994160" lon="5.187590">
        <ele>383.3</ele>
        <time>2020-06-01T14:52:15.000Z</time>
      </trkpt>
      <trkpt lat="43.994080" lon="5.187760">
        <ele>385.5</ele>
        <time>2020-06-01T14:52:22.000Z</time>
      </trkpt>
      <trkpt lat="43.994020" lon="5.187940">
        <ele>387.5</ele>
        <time>2020-06-01T14:52:30.000Z</time>
      </trkpt>
      <trkpt lat="43.993900" lon="5.188070">
        <ele>388.2</ele>
        <time>2020-06-01T14:52:37.000Z</time>
      </trkpt>
      <trkpt lat="43.993690" lon="5.188210">
        <ele>387.9</ele>
        <time>2020-06-01T14:52:49.000Z</time>
      </trkpt>
      <trkpt lat="43.993440" lon="5.188310">
        <ele>386.1</ele>
        <time>2020-06-01T14:53:02.000Z</time>
      </trkpt>
      <trkpt lat="43.993330" lon="5.188380">
        <ele>385.6</ele>
        <time>2020-06-01T14:53:08.000Z</time>
      </trkpt>
      <trkpt lat="43.993300" lon="5.188370">
        <ele>385.8</ele>
        <time>2020-06-01T14:53:09.000Z</time>
      </trkpt>
      <trkpt lat="43.993180" lon="5.188260">
        <ele>386.6</ele>
        <time>2020-06-01T14:53:17.000Z</time>
      </trkpt>
      <trkpt lat="43.993100" lon="5.188270">
        <ele>387.5</ele>
        <time>2020-06-01T14:53:21.000Z</time>
      </trkpt>
      <trkpt lat="43.992910" lon="5.188330">
        <ele>389.6</ele>
        <time>2020-06-01T14:53:30.000Z</time>
      </trkpt>
      <trkpt lat="43.992560" lon="5.188560">
        <ele>395.8</ele>
        <time>2020-06-01T14:53:50.000Z</time>
      </trkpt>
      <trkpt lat="43.992560" lon="5.188560">
        <ele>395.8</ele>
        <time>2020-06-01T14:53:50.000Z</time>
      </trkpt>
      <trkpt lat="43.992350" lon="5.188580">
        <ele>398.9</ele>
        <time>2020-06-01T14:54:00.000Z</time>
      </trkpt>
      <trkpt lat="43.992200" lon="5.188540">
        <ele>400.8</ele>
        <time>2020-06-01T14:54:08.000Z</time>
      </trkpt>
      <trkpt lat="43.991900" lon="5.188520">
        <ele>405.3</ele>
        <time>2020-06-01T14:54:23.000Z</time>
      </trkpt>
      <trkpt lat="43.991780" lon="5.188490">
        <ele>407.2</ele>
        <time>2020-06-01T14:54:29.000Z</time>
      </trkpt>
      <trkpt lat="43.991660" lon="5.188510">
        <ele>409.0</ele>
        <time>2020-06-01T14:54:35.000Z</time>
      </trkpt>
      <trkpt lat="43.991400" lon="5.188360">
        <ele>410.3</ele>
        <time>2020-06-01T14:54:49.000Z</time>
      </trkpt>
      <trkpt lat="43.991320" lon="5.188280">
        <ele>410.8</ele>
        <time>2020-06-01T14:54:54.000Z</time>
      </trkpt>
      <trkpt lat="43.991190" lon="5.188120">
        <ele>411.6</ele>
        <time>2020-06-01T14:55:03.000Z</time>
      </trkpt>
      <trkpt lat="43.991190" lon="5.188120">
        <ele>411.6</ele>
        <time>2020-06-01T14:55:03.000Z</time>
      </trkpt>
      <trkpt lat="43.990840" lon="5.187780">
        <ele>412.3</ele>
        <time>2020-06-01T14:55:24.000Z</time>
      </trkpt>
      <trkpt lat="43.991200" lon="5.187270">
        <ele>411.9</ele>
        <time>2020-06-01T14:55:50.000Z</time>
      </trkpt>
      <trkpt lat="43.991290" lon="5.187190">
        <ele>411.8</ele>
        <time>2020-06-01T14:55:55.000Z</time>
      </trkpt>
      <trkpt lat="43.991410" lon="5.187130">
        <ele>411.8</ele>
        <time>2020-06-01T14:56:02.000Z</time>
      </trkpt>
      <trkpt lat="43.991760" lon="5.187010">
        <ele>411.3</ele>
        <time>2020-06-01T14:56:20.000Z</time>
      </trkpt>
      <trkpt lat="43.991940" lon="5.186910">
        <ele>410.5</ele>
        <time>2020-06-01T14:56:29.000Z</time>
      </trkpt>
      <trkpt lat="43.992110" lon="5.186770">
        <ele>410.5</ele>
        <time>2020-06-01T14:56:39.000Z</time>
      </trkpt>
      <trkpt lat="43.993140" lon="5.185620">
        <ele>409.3</ele>
        <time>2020-06-01T14:57:45.000Z</time>
      </trkpt>
      <trkpt lat="43.993520" lon="5.185250">
        <ele>408.0</ele>
        <time>2020-06-01T14:58:09.000Z</time>
      </trkpt>
      <trkpt lat="43.993730" lon="5.185100">
        <ele>407.2</ele>
        <time>2020-06-01T14:58:20.000Z</time>
      </trkpt>
      <trkpt lat="43.994140" lon="5.184730">
        <ele>404.3</ele>
        <time>2020-06-01T14:58:45.000Z</time>
      </trkpt>
      <trkpt lat="43.994270" lon="5.184650">
        <ele>402.8</ele>
        <time>2020-06-01T14:58:52.000Z</time>
      </trkpt>
      <trkpt lat="43.994420" lon="5.184620">
        <ele>401.1</ele>
        <time>2020-06-01T14:59:00.000Z</time>
      </trkpt>
      <trkpt lat="43.994570" lon="5.184620">
        <ele>399.4</ele>
        <time>2020-06-01T14:59:07.000Z</time>
      </trkpt>
      <trkpt lat="43.994780" lon="5.184690">
        <ele>397.1</ele>
        <time>2020-06-01T14:59:18.000Z</time>
      </trkpt>
      <trkpt lat="43.995090" lon="5.184750">
        <ele>392.9</ele>
        <time>2020-06-01T14:59:34.000Z</time>
      </trkpt>
      <trkpt lat="43.995190" lon="5.184740">
        <ele>390.9</ele>
        <time>2020-06-01T14:59:39.000Z</time>
      </trkpt>
      <trkpt lat="43.995290" lon="5.184660">
        <ele>389.1</ele>
        <time>2020-06-01T14:59:44.000Z</time>
      </trkpt>
      <trkpt lat="43.995440" lon="5.184490">
        <ele>387.0</ele>
        <time>2020-06-01T14:59:54.000Z</time>
      </trkpt>
      <trkpt lat="43.995550" lon="5.184320">
        <ele>386.0</ele>
        <time>2020-06-01T15:00:02.000Z</time>
      </trkpt>
      <trkpt lat="43.995630" lon="5.184140">
        <ele>385.6</ele>
        <time>2020-06-01T15:00:10.000Z</time>
      </trkpt>
      <trkpt lat="43.995710" lon="5.184040">
        <ele>384.3</ele>
        <time>2020-06-01T15:00:15.000Z</time>
      </trkpt>
      <trkpt lat="43.995980" lon="5.183820">
        <ele>379.3</ele>
        <time>2020-06-01T15:00:31.000Z</time>
      </trkpt>
      <trkpt lat="43.996180" lon="5.183630">
        <ele>375.8</ele>
        <time>2020-06-01T15:00:43.000Z</time>
      </trkpt>
      <trkpt lat="43.996320" lon="5.183430">
        <ele>374.2</ele>
        <time>2020-06-01T15:00:53.000Z</time>
      </trkpt>
      <trkpt lat="43.996610" lon="5.182740">
        <ele>367.0</ele>
        <time>2020-06-01T15:01:22.000Z</time>
      </trkpt>
      <trkpt lat="43.996630" lon="5.182560">
        <ele>365.7</ele>
        <time>2020-06-01T15:01:28.000Z</time>
      </trkpt>
      <trkpt lat="43.996610" lon="5.182440">
        <ele>365.0</ele>
        <time>2020-06-01T15:01:33.000Z</time>
      </trkpt>
      <trkpt lat="43.996510" lon="5.182320">
        <ele>364.9</ele>
        <time>2020-06-01T15:01:39.000Z</time>
      </trkpt>
      <trkpt lat="43.996510" lon="5.182320">
        <ele>364.9</ele>
        <time>2020-06-01T15:01:39.000Z</time>
      </trkpt>
      <trkpt lat="43.996330" lon="5.182170">
        <ele>365.2</ele>
        <time>2020-06-01T15:01:50.000Z</time>
      </trkpt>
      <trkpt lat="43.996260" lon="5.182020">
        <ele>364.5</ele>
        <time>2020-06-01T15:01:56.000Z</time>
      </trkpt>
      <trkpt lat="43.996250" lon="5.181840">
        <ele>362.7</ele>
        <time>2020-06-01T15:02:03.000Z</time>
      </trkpt>
      <trkpt lat="43.996500" lon="5.181250">
        <ele>354.9</ele>
        <time>2020-06-01T15:02:28.000Z</time>
      </trkpt>
      <trkpt lat="43.996500" lon="5.181250">
        <ele>354.9</ele>
        <time>2020-06-01T15:02:28.000Z</time>
      </trkpt>
      <trkpt lat="43.996710" lon="5.180580">
        <ele>346.0</ele>
        <time>2020-06-01T15:02:54.000Z</time>
      </trkpt>
      <trkpt lat="43.996760" lon="5.180250">
        <ele>343.2</ele>
        <time>2020-06-01T15:03:06.000Z</time>
      </trkpt>
      <trkpt lat="43.996820" lon="5.180060">
        <ele>341.6</ele>
        <time>2020-06-01T15:03:13.000Z</time>
      </trkpt>
      <trkpt lat="43.997340" lon="5.179130">
        <ele>331.6</ele>
        <time>2020-06-01T15:03:56.000Z</time>
      </trkpt>
      <trkpt lat="43.997410" lon="5.178910">
        <ele>328.5</ele>
        <time>2020-06-01T15:04:05.000Z</time>
      </trkpt>
      <trkpt lat="43.997430" lon="5.178720">
        <ele>326.3</ele>
        <time>2020-06-01T15:04:11.000Z</time>
      </trkpt>
      <trkpt lat="43.997420" lon="5.178530">
        <ele>324.7</ele>
        <time>2020-06-01T15:04:18.000Z</time>
      </trkpt>
      <trkpt lat="43.997440" lon="5.178360">
        <ele>322.6</ele>
        <time>2020-06-01T15:04:24.000Z</time>
      </trkpt>
      <trkpt lat="43.997690" lon="5.177930">
        <ele>319.7</ele>
        <time>2020-06-01T15:04:44.000Z</time>
      </trkpt>
      <trkpt lat="43.997690" lon="5.177860">
        <ele>320.0</ele>
        <time>2020-06-01T15:04:47.000Z</time>
      </trkpt>
      <trkpt lat="43.997670" lon="5.177820">
        <ele>320.7</ele>
        <time>2020-06-01T15:04:49.000Z</time>
      </trkpt>
      <trkpt lat="43.997640" lon="5.177790">
        <ele>321.6</ele>
        <time>2020-06-01T15:04:51.000Z</time>
      </trkpt>
      <trkpt lat="43.997570" lon="5.177800">
        <ele>323.1</ele>
        <time>2020-06-01T15:04:54.000Z</time>
      </trkpt>
      <trkpt lat="43.997080" lon="5.177960">
        <ele>329.9</ele>
        <time>2020-06-01T15:05:19.000Z</time>
      </trkpt>
      <trkpt lat="43.996680" lon="5.178200">
        <ele>338.2</ele>
        <time>2020-06-01T15:05:41.000Z</time>
      </trkpt>
      <trkpt lat="43.996450" lon="5.178440">
        <ele>338.0</ele>
        <time>2020-06-01T15:05:55.000Z</time>
      </trkpt>
      <trkpt lat="43.996180" lon="5.178650">
        <ele>338.1</ele>
        <time>2020-06-01T15:06:11.000Z</time>
      </trkpt>
      <trkpt lat="43.995800" lon="5.178740">
        <ele>338.4</ele>
        <time>2020-06-01T15:06:30.000Z</time>
      </trkpt>
      <trkpt lat="43.995810" lon="5.178620">
        <ele>335.9</ele>
        <time>2020-06-01T15:06:35.000Z</time>
      </trkpt>
      <trkpt lat="43.995860" lon="5.178460">
        <ele>332.8</ele>
        <time>2020-06-01T15:06:41.000Z</time>
      </trkpt>
      <trkpt lat="43.995930" lon="5.178340">
        <ele>331.2</ele>
        <time>2020-06-01T15:06:46.000Z</time>
      </trkpt>
      <trkpt lat="43.996020" lon="5.178230">
        <ele>330.7</ele>
        <time>2020-06-01T15:06:52.000Z</time>
      </trkpt>
      <trkpt lat="43.996100" lon="5.178080">
        <ele>329.3</ele>
        <time>2020-06-01T15:06:59.000Z</time>
      </trkpt>
      <trkpt lat="43.996360" lon="5.177450">
        <ele>324.8</ele>
        <time>2020-06-01T15:07:25.000Z</time>
      </trkpt>
      <trkpt lat="43.996340" lon="5.177340">
        <ele>322.9</ele>
        <time>2020-06-01T15:07:29.000Z</time>
      </trkpt>
      <trkpt lat="43.996250" lon="5.177150">
        <ele>319.3</ele>
        <time>2020-06-01T15:07:38.000Z</time>
      </trkpt>
      <trkpt lat="43.996190" lon="5.177110">
        <ele>318.0</ele>
        <time>2020-06-01T15:07:41.000Z</time>
      </trkpt>
      <trkpt lat="43.996180" lon="5.177080">
        <ele>317.5</ele>
        <time>2020-06-01T15:07:42.000Z</time>
      </trkpt>
      <trkpt lat="43.996200" lon="5.177030">
        <ele>317.3</ele>
        <time>2020-06-01T15:07:44.000Z</time>
      </trkpt>
      <trkpt lat="43.996190" lon="5.176980">
        <ele>316.5</ele>
        <time>2020-06-01T15:07:46.000Z</time>
      </trkpt>
      <trkpt lat="43.996090" lon="5.176920">
        <ele>314.7</ele>
        <time>2020-06-01T15:07:51.000Z</time>
      </trkpt>
      <trkpt lat="43.996080" lon="5.176900">
        <ele>314.4</ele>
        <time>2020-06-01T15:07:52.000Z</time>
      </trkpt>
      <trkpt lat="43.996130" lon="5.176630">
        <ele>312.3</ele>
        <time>2020-06-01T15:08:02.000Z</time>
      </trkpt>
      <trkpt lat="43.996160" lon="5.176590">
        <ele>312.4</ele>
        <time>2020-06-01T15:08:04.000Z</time>
      </trkpt>
      <trkpt lat="43.996190" lon="5.176590">
        <ele>312.5</ele>
        <time>2020-06-01T15:08:06.000Z</time>
      </trkpt>
      <trkpt lat="43.996260" lon="5.176500">
        <ele>312.2</ele>
        <time>2020-06-01T15:08:11.000Z</time>
      </trkpt>
      <trkpt lat="43.996330" lon="5.176360">
        <ele>311.0</ele>
        <time>2020-06-01T15:08:17.000Z</time>
      </trkpt>
      <trkpt lat="43.996330" lon="5.176180">
        <ele>309.1</ele>
        <time>2020-06-01T15:08:23.000Z</time>
      </trkpt>
      <trkpt lat="43.996300" lon="5.176110">
        <ele>308.7</ele>
        <time>2020-06-01T15:08:26.000Z</time>
      </trkpt>
      <trkpt lat="43.996270" lon="5.175980">
        <ele>307.9</ele>
        <time>2020-06-01T15:08:31.000Z</time>
      </trkpt>
      <trkpt lat="43.996280" lon="5.175820">
        <ele>306.3</ele>
        <time>2020-06-01T15:08:37.000Z</time>
      </trkpt>
      <trkpt lat="43.996350" lon="5.175610">
        <ele>303.0</ele>
        <time>2020-06-01T15:08:45.000Z</time>
      </trkpt>
      <trkpt lat="43.996360" lon="5.175350">
        <ele>300.1</ele>
        <time>2020-06-01T15:08:55.000Z</time>
      </trkpt>
      <trkpt lat="43.996310" lon="5.175240">
        <ele>299.9</ele>
        <time>2020-06-01T15:08:59.000Z</time>
      </trkpt>
      <trkpt lat="43.996140" lon="5.175040">
        <ele>301.9</ele>
        <time>2020-06-01T15:09:10.000Z</time>
      </trkpt>
      <trkpt lat="43.996100" lon="5.175030">
        <ele>302.8</ele>
        <time>2020-06-01T15:09:12.000Z</time>
      </trkpt>
      <trkpt lat="43.996050" lon="5.175040">
        <ele>304.1</ele>
        <time>2020-06-01T15:09:15.000Z</time>
      </trkpt>
      <trkpt lat="43.995980" lon="5.175090">
        <ele>306.1</ele>
        <time>2020-06-01T15:09:19.000Z</time>
      </trkpt>
      <trkpt lat="43.995780" lon="5.175140">
        <ele>310.0</ele>
        <time>2020-06-01T15:09:29.000Z</time>
      </trkpt>
      <trkpt lat="43.995500" lon="5.175280">
        <ele>312.6</ele>
        <time>2020-06-01T15:09:44.000Z</time>
      </trkpt>
      <trkpt lat="43.995500" lon="5.175280">
        <ele>312.6</ele>
        <time>2020-06-01T15:09:44.000Z</time>
      </trkpt>
      <trkpt lat="43.995450" lon="5.175280">
        <ele>312.9</ele>
        <time>2020-06-01T15:09:47.000Z</time>
      </trkpt>
      <trkpt lat="43.995370" lon="5.175260">
        <ele>313.2</ele>
        <time>2020-06-01T15:09:51.000Z</time>
      </trkpt>
      <trkpt lat="43.995180" lon="5.175090">
        <ele>311.9</ele>
        <time>2020-06-01T15:10:02.000Z</time>
      </trkpt>
      <trkpt lat="43.995130" lon="5.174990">
        <ele>310.4</ele>
        <time>2020-06-01T15:10:06.000Z</time>
      </trkpt>
      <trkpt lat="43.995130" lon="5.174990">
        <ele>310.4</ele>
        <time>2020-06-01T15:10:06.000Z</time>
      </trkpt>
      <trkpt lat="43.995110" lon="5.174870">
        <ele>308.0</ele>
        <time>2020-06-01T15:10:11.000Z</time>
      </trkpt>
      <trkpt lat="43.995130" lon="5.174690">
        <ele>304.2</ele>
        <time>2020-06-01T15:10:17.000Z</time>
      </trkpt>
      <trkpt lat="43.995120" lon="5.174600">
        <ele>302.3</ele>
        <time>2020-06-01T15:10:21.000Z</time>
      </trkpt>
      <trkpt lat="43.995090" lon="5.174550">
        <ele>301.2</ele>
        <time>2020-06-01T15:10:23.000Z</time>
      </trkpt>
      <trkpt lat="43.995040" lon="5.174510">
        <ele>300.4</ele>
        <time>2020-06-01T15:10:26.000Z</time>
      </trkpt>
      <trkpt lat="43.994920" lon="5.174460">
        <ele>299.6</ele>
        <time>2020-06-01T15:10:32.000Z</time>
      </trkpt>
      <trkpt lat="43.994860" lon="5.174390">
        <ele>298.6</ele>
        <time>2020-06-01T15:10:36.000Z</time>
      </trkpt>
      <trkpt lat="43.994820" lon="5.174170">
        <ele>294.3</ele>
        <time>2020-06-01T15:10:44.000Z</time>
      </trkpt>
      <trkpt lat="43.994860" lon="5.174090">
        <ele>292.8</ele>
        <time>2020-06-01T15:10:48.000Z</time>
      </trkpt>
      <trkpt lat="43.994980" lon="5.173950">
        <ele>289.5</ele>
        <time>2020-06-01T15:10:55.000Z</time>
      </trkpt>
      <trkpt lat="43.995150" lon="5.173710">
        <ele>285.9</ele>
        <time>2020-06-01T15:11:08.000Z</time>
      </trkpt>
      <trkpt lat="43.995230" lon="5.173420">
        <ele>281.1</ele>
        <time>2020-06-01T15:11:19.000Z</time>
      </trkpt>
      <trkpt lat="43.995240" lon="5.173220">
        <ele>278.8</ele>
        <time>2020-06-01T15:11:26.000Z</time>
      </trkpt>
      <trkpt lat="43.995290" lon="5.173180">
        <ele>278.4</ele>
        <time>2020-06-01T15:11:29.000Z</time>
      </trkpt>
      <trkpt lat="43.995310" lon="5.172890">
        <ele>275.4</ele>
        <time>2020-06-01T15:11:39.000Z</time>
      </trkpt>
      <trkpt lat="43.995230" lon="5.172620">
        <ele>273.3</ele>
        <time>2020-06-01T15:11:50.000Z</time>
      </trkpt>
      <trkpt lat="43.995210" lon="5.172520">
        <ele>272.6</ele>
        <time>2020-06-01T15:11:54.000Z</time>
      </trkpt>
      <trkpt lat="43.995240" lon="5.172440">
        <ele>272.8</ele>
        <time>2020-06-01T15:11:57.000Z</time>
      </trkpt>
      <trkpt lat="43.995520" lon="5.172160">
        <ele>271.1</ele>
        <time>2020-06-01T15:12:14.000Z</time>
      </trkpt>
      <trkpt lat="43.995770" lon="5.171840">
        <ele>267.9</ele>
        <time>2020-06-01T15:12:31.000Z</time>
      </trkpt>
      <trkpt lat="43.996020" lon="5.171450">
        <ele>263.7</ele>
        <time>2020-06-01T15:12:50.000Z</time>
      </trkpt>
      <trkpt lat="43.996370" lon="5.170910">
        <ele>255.4</ele>
        <time>2020-06-01T15:13:16.000Z</time>
      </trkpt>
      <trkpt lat="43.996420" lon="5.170780">
        <ele>254.2</ele>
        <time>2020-06-01T15:13:21.000Z</time>
      </trkpt>
      <trkpt lat="43.996540" lon="5.170330">
        <ele>253.6</ele>
        <time>2020-06-01T15:13:39.000Z</time>
      </trkpt>
      <trkpt lat="43.996520" lon="5.170080">
        <ele>256.1</ele>
        <time>2020-06-01T15:13:48.000Z</time>
      </trkpt>
      <trkpt lat="43.996480" lon="5.170010">
        <ele>258.0</ele>
        <time>2020-06-01T15:13:51.000Z</time>
      </trkpt>
      <trkpt lat="43.996380" lon="5.169930">
        <ele>261.5</ele>
        <time>2020-06-01T15:13:57.000Z</time>
      </trkpt>
      <trkpt lat="43.996280" lon="5.169790">
        <ele>264.8</ele>
        <time>2020-06-01T15:14:04.000Z</time>
      </trkpt>
      <trkpt lat="43.996180" lon="5.169720">
        <ele>268.1</ele>
        <time>2020-06-01T15:14:09.000Z</time>
      </trkpt>
      <trkpt lat="43.996050" lon="5.169570">
        <ele>272.3</ele>
        <time>2020-06-01T15:14:18.000Z</time>
      </trkpt>
      <trkpt lat="43.995920" lon="5.169480">
        <ele>276.4</ele>
        <time>2020-06-01T15:14:25.000Z</time>
      </trkpt>
      <trkpt lat="43.995610" lon="5.169190">
        <ele>281.4</ele>
        <time>2020-06-01T15:14:44.000Z</time>
      </trkpt>
      <trkpt lat="43.995560" lon="5.169150">
        <ele>282.0</ele>
        <time>2020-06-01T15:14:47.000Z</time>
      </trkpt>
      <trkpt lat="43.995370" lon="5.169000">
        <ele>284.1</ele>
        <time>2020-06-01T15:14:58.000Z</time>
      </trkpt>
      <trkpt lat="43.995270" lon="5.168940">
        <ele>285.4</ele>
        <time>2020-06-01T15:15:03.000Z</time>
      </trkpt>
      <trkpt lat="43.995190" lon="5.168830">
        <ele>286.5</ele>
        <time>2020-06-01T15:15:09.000Z</time>
      </trkpt>
      <trkpt lat="43.994950" lon="5.168310">
        <ele>290.0</ele>
        <time>2020-06-01T15:15:31.000Z</time>
      </trkpt>
      <trkpt lat="43.994860" lon="5.168200">
        <ele>289.9</ele>
        <time>2020-06-01T15:15:37.000Z</time>
      </trkpt>
      <trkpt lat="43.994760" lon="5.168130">
        <ele>289.6</ele>
        <time>2020-06-01T15:15:43.000Z</time>
      </trkpt>
      <trkpt lat="43.994620" lon="5.168090">
        <ele>289.2</ele>
        <time>2020-06-01T15:15:50.000Z</time>
      </trkpt>
      <trkpt lat="43.994610" lon="5.168050">
        <ele>289.0</ele>
        <time>2020-06-01T15:15:51.000Z</time>
      </trkpt>
      <trkpt lat="43.994690" lon="5.167590">
        <ele>287.4</ele>
        <time>2020-06-01T15:16:08.000Z</time>
      </trkpt>
      <trkpt lat="43.994670" lon="5.167210">
        <ele>284.0</ele>
        <time>2020-06-01T15:16:22.000Z</time>
      </trkpt>
      <trkpt lat="43.994650" lon="5.167110">
        <ele>283.0</ele>
        <time>2020-06-01T15:16:26.000Z</time>
      </trkpt>
      <trkpt lat="43.994649" lon="5.167068">
        <ele>282.5</ele>
        <time>2020-06-01T15:16:29.000Z</time>
      </trkpt>
      <trkpt lat="43.994640" lon="5.166998">
        <ele>281.9</ele>
        <time>2020-06-01T15:16:32.000Z</time>
      </trkpt>
      <trkpt lat="43.994637" lon="5.166947">
        <ele>281.4</ele>
        <time>2020-06-01T15:16:33.000Z</time>
      </trkpt>
      <trkpt lat="43.994476" lon="5.166322">
        <ele>274.7</ele>
        <time>2020-06-01T15:18:37.348Z</time>
      </trkpt>
      <trkpt lat="43.994565" lon="5.165840">
        <ele>270.0</ele>
        <time>2020-06-01T15:20:10.413Z</time>
      </trkpt>
      <trkpt lat="43.994650" lon="5.165000">
        <ele>263.3</ele>
        <time>2020-06-01T15:22:48.812Z</time>
      </trkpt>
      <trkpt lat="43.994808" lon="5.164544">
        <ele>261.0</ele>
        <time>2020-06-01T15:24:23.081Z</time>
      </trkpt>
      <trkpt lat="43.995075" lon="5.163756">
        <ele>256.5</ele>
        <time>2020-06-01T15:27:05.255Z</time>
      </trkpt>
      <trkpt lat="43.995230" lon="5.162694">
        <ele>245.0</ele>
        <time>2020-06-01T15:30:28.250Z</time>
      </trkpt>
      <trkpt lat="43.995717" lon="5.161847">
        <ele>230.8</ele>
        <time>2020-06-01T15:33:52.422Z</time>
      </trkpt>
      <trkpt lat="43.996453" lon="5.160974">
        <ele>200.6</ele>
        <time>2020-06-01T15:38:11.888Z</time>
      </trkpt>
      <trkpt lat="43.996800" lon="5.160668">
        <ele>193.7</ele>
        <time>2020-06-01T15:39:59.155Z</time>
      </trkpt>
      <trkpt lat="43.996970" lon="5.160580">
        <ele>192.8</ele>
        <time>2020-06-01T15:40:46.137Z</time>
      </trkpt>
      <trkpt lat="43.997147" lon="5.160356">
        <ele>191.7</ele>
        <time>2020-06-01T15:41:47.973Z</time>
      </trkpt>
      <trkpt lat="43.997270" lon="5.160060">
        <ele>191.1</ele>
        <time>2020-06-01T15:42:51.493Z</time>
      </trkpt>
      <trkpt lat="43.997315" lon="5.159887">
        <ele>190.7</ele>
        <time>2020-06-01T15:43:25.780Z</time>
      </trkpt>
      <trkpt lat="43.997400" lon="5.159180">
        <ele>188.4</ele>
        <time>2020-06-01T15:45:38.972Z</time>
      </trkpt>
      <trkpt lat="43.997600" lon="5.158987">
        <ele>189.9</ele>
        <time>2020-06-01T15:46:41.807Z</time>
      </trkpt>
      <trkpt lat="43.997770" lon="5.158950">
        <ele>192.8</ele>
        <time>2020-06-01T15:47:26.865Z</time>
      </trkpt>
      <trkpt lat="43.997860" lon="5.159180">
        <ele>193.2</ele>
        <time>2020-06-01T15:48:15.518Z</time>
      </trkpt>
      <trkpt lat="43.997999" lon="5.159346">
        <ele>194.9</ele>
        <time>2020-06-01T15:49:03.053Z</time>
      </trkpt>
      <trkpt lat="43.998271" lon="5.159502">
        <ele>197.4</ele>
        <time>2020-06-01T15:50:19.236Z</time>
      </trkpt>
      <trkpt lat="43.998290" lon="5.159281">
        <ele>198.8</ele>
        <time>2020-06-01T15:51:00.795Z</time>
      </trkpt>
      <trkpt lat="43.998163" lon="5.158564">
        <ele>202.4</ele>
        <time>2020-06-01T15:53:18.108Z</time>
      </trkpt>
      <trkpt lat="43.998060" lon="5.157685">
        <ele>207.0</ele>
        <time>2020-06-01T15:56:03.958Z</time>
      </trkpt>
      <trkpt lat="43.998276" lon="5.156721">
        <ele>218.0</ele>
        <time>2020-06-01T15:59:13.237Z</time>
      </trkpt>
      <trkpt lat="43.998341" lon="5.154585">
        <ele>211.4</ele>
        <time>2020-06-01T16:05:50.780Z</time>
      </trkpt>
      <trkpt lat="43.998341" lon="5.152683">
        <ele>194.5</ele>
        <time>2020-06-01T16:11:46.314Z</time>
      </trkpt>
      <trkpt lat="43.998340" lon="5.151990">
        <ele>187.8</ele>
        <time>2020-06-01T16:13:55.937Z</time>
      </trkpt>
      <trkpt lat="43.998430" lon="5.151370">
        <ele>186.4</ele>
        <time>2020-06-01T16:15:53.474Z</time>
      </trkpt>
      <trkpt lat="43.998580" lon="5.151093">
        <ele>188.5</ele>
        <time>2020-06-01T16:16:58.075Z</time>
      </trkpt>
      <trkpt lat="43.999130" lon="5.149610">
        <ele>189.6</ele>
        <time>2020-06-01T16:22:08.083Z</time>
      </trkpt>
      <trkpt lat="43.999030" lon="5.149230">
        <ele>188.7</ele>
        <time>2020-06-01T16:23:23.293Z</time>
      </trkpt>
      <trkpt lat="43.998754" lon="5.148990">
        <ele>185.7</ele>
        <time>2020-06-01T16:24:47.752Z</time>
      </trkpt>
      <trkpt lat="43.998370" lon="5.148630">
        <ele>181.1</ele>
        <time>2020-06-01T16:26:47.740Z</time>
      </trkpt>
      <trkpt lat="43.997898" lon="5.148586">
        <ele>183.4</ele>
        <time>2020-06-01T16:28:50.000Z</time>
      </trkpt>
      <trkpt lat="43.997647" lon="5.148477">
        <ele>185.0</ele>
        <time>2020-06-01T15:45:47.000Z</time>
      </trkpt>
      <trkpt lat="43.997658" lon="5.148205">
        <ele>185.7</ele>
        <time>2020-06-01T15:35:23.000Z</time>
      </trkpt>
      <trkpt lat="43.997516" lon="5.148451">
        <ele>185.9</ele>
        <time>2020-06-01T15:32:44.000Z</time>
      </trkpt>
      <trkpt lat="43.997308" lon="5.148227">
        <ele>192.1</ele>
        <time>2020-06-01T15:32:44.000Z</time>
      </trkpt>
      <trkpt lat="43.997286" lon="5.147348">
        <ele>202.8</ele>
        <time>2020-06-01T15:33:38.000Z</time>
      </trkpt>
      <trkpt lat="43.996964" lon="5.147193">
        <ele>216.7</ele>
        <time>2020-06-01T15:33:38.000Z</time>
      </trkpt>
      <trkpt lat="43.996875" lon="5.146746">
        <ele>228.0</ele>
        <time>2020-06-01T15:33:38.000Z</time>
      </trkpt>
      <trkpt lat="43.997131" lon="5.146298">
        <ele>227.9</ele>
        <time>2020-06-01T15:33:38.000Z</time>
      </trkpt>
      <trkpt lat="43.996931" lon="5.146082">
        <ele>239.7</ele>
        <time>2020-06-01T15:33:38.000Z</time>
      </trkpt>
      <trkpt lat="43.996753" lon="5.146298">
        <ele>241.9</ele>
        <time>2020-06-01T15:33:38.000Z</time>
      </trkpt>
      <trkpt lat="43.996487" lon="5.146854">
        <ele>239.9</ele>
        <time>2020-06-01T15:34:11.000Z</time>
      </trkpt>
      <trkpt lat="43.996487" lon="5.146854">
        <ele>239.9</ele>
        <time>2020-06-01T15:34:11.000Z</time>
      </trkpt>
      <trkpt lat="43.995987" lon="5.147379">
        <ele>245.4</ele>
        <time>2020-06-01T15:34:11.000Z</time>
      </trkpt>
      <trkpt lat="43.995810" lon="5.147641">
        <ele>245.2</ele>
        <time>2020-06-01T15:34:25.000Z</time>
      </trkpt>
      <trkpt lat="43.995732" lon="5.147842">
        <ele>244.1</ele>
        <time>2020-06-01T15:34:25.000Z</time>
      </trkpt>
      <trkpt lat="43.995732" lon="5.147842">
        <ele>244.1</ele>
        <time>2020-06-01T15:34:25.000Z</time>
      </trkpt>
      <trkpt lat="43.995280" lon="5.148670">
        <ele>247.2</ele>
        <time>2020-06-01T15:34:45.000Z</time>
      </trkpt>
      <trkpt lat="43.995280" lon="5.148670">
        <ele>247.2</ele>
        <time>2020-06-01T15:34:45.000Z</time>
      </trkpt>
      <trkpt lat="43.994990" lon="5.148980">
        <ele>251.6</ele>
        <time>2020-06-01T15:35:04.000Z</time>
      </trkpt>
      <trkpt lat="43.994990" lon="5.148980">
        <ele>251.6</ele>
        <time>2020-06-01T15:35:04.000Z</time>
      </trkpt>
      <trkpt lat="43.994761" lon="5.148978">
        <ele>260.1</ele>
        <time>2020-06-01T15:35:28.000Z</time>
      </trkpt>
      <trkpt lat="43.994720" lon="5.148760">
        <ele>266.1</ele>
        <time>2020-06-01T15:35:49.000Z</time>
      </trkpt>
      <trkpt lat="43.994720" lon="5.148760">
        <ele>266.1</ele>
        <time>2020-06-01T15:35:49.000Z</time>
      </trkpt>
      <trkpt lat="43.994730" lon="5.148320">
        <ele>274.3</ele>
        <time>2020-06-01T15:36:05.000Z</time>
      </trkpt>
      <trkpt lat="43.994701" lon="5.148159">
        <ele>277.8</ele>
        <time>2020-06-01T15:36:05.000Z</time>
      </trkpt>
      <trkpt lat="43.994405" lon="5.147869">
        <ele>288.5</ele>
        <time>2020-06-01T15:36:05.000Z</time>
      </trkpt>
      <trkpt lat="43.993837" lon="5.147822">
        <ele>292.3</ele>
        <time>2020-06-01T15:36:05.000Z</time>
      </trkpt>
      <trkpt lat="43.991967" lon="5.148518">
        <ele>297.2</ele>
        <time>2020-06-01T15:36:05.000Z</time>
      </trkpt>
      <trkpt lat="43.991549" lon="5.148903">
        <ele>300.9</ele>
        <time>2020-06-01T15:36:05.000Z</time>
      </trkpt>
      <trkpt lat="43.990721" lon="5.148896">
        <ele>298.0</ele>
        <time>2020-06-01T15:36:05.000Z</time>
      </trkpt>
      <trkpt lat="43.990291" lon="5.148987">
        <ele>299.5</ele>
        <time>2020-06-01T15:36:05.000Z</time>
      </trkpt>
      <trkpt lat="43.989612" lon="5.149306">
        <ele>304.7</ele>
        <time>2020-06-01T15:36:05.000Z</time>
      </trkpt>
      <trkpt lat="43.988670" lon="5.149035">
        <ele>314.1</ele>
        <time>2020-06-01T15:36:05.000Z</time>
      </trkpt>
      <trkpt lat="43.988638" lon="5.149370">
        <ele>315.5</ele>
        <time>2020-06-01T15:36:05.000Z</time>
      </trkpt>
    </trkseg>
  </trk>
</gpx>
