<?xml version="1.0"?>
<gpx version="1.1" creator="GDAL 2.2.1" xmlns:xsi="http://www.w3.org/2001/XMLSchema-instance" xmlns:ogr="http://osgeo.org/gdal" xmlns="http://www.topografix.com/GPX/1/1" xsi:schemaLocation="http://www.topografix.com/GPX/1/1 http://www.topografix.com/GPX/1/1/gpx.xsd">
<metadata><bounds minlat="44.091319999999904" minlon="5.370880000000001" maxlat="44.113349999999897" maxlon="5.408330000000000"/></metadata>                    
<rte>
  <rtept lat="44.092599999999891" lon="5.40832">
    <ele>761.9</ele>
  </rtept>
  <rtept lat="44.09227" lon="5.40831">
    <ele>762.7</ele>
  </rtept>
  <rtept lat="44.09223" lon="5.40833">
    <ele>762.9</ele>
  </rtept>
  <rtept lat="44.092149999999897" lon="5.40822">
    <ele>762.2</ele>
  </rtept>
  <rtept lat="44.092129999999898" lon="5.40817">
    <ele>761.8</ele>
  </rtept>
  <rtept lat="44.092089999999899" lon="5.40809">
    <ele>761.2</ele>
  </rtept>
  <rtept lat="44.09197" lon="5.40809">
    <ele>761.2</ele>
  </rtept>
  <rtept lat="44.0919" lon="5.4081">
    <ele>761.2</ele>
  </rtept>
  <rtept lat="44.09182" lon="5.4081">
    <ele>760.9</ele>
  </rtept>
  <rtept lat="44.09177" lon="5.40811">
    <ele>760.8</ele>
  </rtept>
  <rtept lat="44.09174" lon="5.40808">
    <ele>760.4</ele>
  </rtept>
  <rtept lat="44.091729999999899" lon="5.40804">
    <ele>760.2</ele>
  </rtept>
  <rtept lat="44.09171" lon="5.40801">
    <ele>760.0</ele>
  </rtept>
  <rtept lat="44.09169" lon="5.408">
    <ele>759.9</ele>
  </rtept>
  <rtept lat="44.09167" lon="5.40801">
    <ele>759.8</ele>
  </rtept>
  <rtept lat="44.091569999999891" lon="5.40804">
    <ele>759.9</ele>
  </rtept>
  <rtept lat="44.091569999999898" lon="5.408">
    <ele>759.7</ele>
  </rtept>
  <rtept lat="44.09156" lon="5.40797">
    <ele>759.6</ele>
  </rtept>
  <rtept lat="44.091549999999899" lon="5.40797">
    <ele>759.6</ele>
  </rtept>
  <rtept lat="44.09151" lon="5.4078">
    <ele>758.6</ele>
  </rtept>
  <rtept lat="44.0915" lon="5.40774">
    <ele>757.8</ele>
  </rtept>
  <rtept lat="44.091449999999888" lon="5.40765">
    <ele>756.0</ele>
  </rtept>
  <rtept lat="44.09143" lon="5.40763">
    <ele>755.6</ele>
  </rtept>
  <rtept lat="44.091429999999889" lon="5.40758">
    <ele>754.7</ele>
  </rtept>
  <rtept lat="44.091439999999899" lon="5.40753">
    <ele>753.9</ele>
  </rtept>
  <rtept lat="44.09145" lon="5.40733">
    <ele>749.7</ele>
  </rtept>
  <rtept lat="44.09136" lon="5.40728">
    <ele>749.1</ele>
  </rtept>
  <rtept lat="44.09134" lon="5.40727">
    <ele>749.0</ele>
  </rtept>
  <rtept lat="44.09133" lon="5.40727">
    <ele>749.0</ele>
  </rtept>
  <rtept lat="44.09132" lon="5.40727">
    <ele>749.0</ele>
  </rtept>
  <rtept lat="44.09133" lon="5.40727">
    <ele>749.0</ele>
  </rtept>
  <rtept lat="44.09134" lon="5.40727">
    <ele>749.0</ele>
  </rtept>
  <rtept lat="44.09136" lon="5.40726">
    <ele>748.8</ele>
  </rtept>
  <rtept lat="44.09161" lon="5.40715">
    <ele>743.9</ele>
  </rtept>
  <rtept lat="44.09169" lon="5.40712">
    <ele>742.8</ele>
  </rtept>
  <rtept lat="44.09176" lon="5.40708">
    <ele>741.9</ele>
  </rtept>
  <rtept lat="44.09188" lon="5.40695">
    <ele>738.4</ele>
  </rtept>
  <rtept lat="44.09229" lon="5.40687">
    <ele>734.1</ele>
  </rtept>
  <rtept lat="44.09236" lon="5.40682">
    <ele>731.2</ele>
  </rtept>
  <rtept lat="44.092309999999898" lon="5.40679">
    <ele>731.1</ele>
  </rtept>
  <rtept lat="44.09233" lon="5.40676">
    <ele>729.8</ele>
  </rtept>
  <rtept lat="44.092309999999898" lon="5.40675">
    <ele>729.8</ele>
  </rtept>
  <rtept lat="44.09233" lon="5.40676">
    <ele>729.8</ele>
  </rtept>
  <rtept lat="44.09236" lon="5.40676">
    <ele>729.4</ele>
  </rtept>
  <rtept lat="44.092529999999883" lon="5.40681">
    <ele>728.1</ele>
  </rtept>
  <rtept lat="44.09275" lon="5.40682">
    <ele>724.7</ele>
  </rtept>
  <rtept lat="44.09312" lon="5.40689">
    <ele>721.5</ele>
  </rtept>
  <rtept lat="44.09356" lon="5.40684">
    <ele>717.4</ele>
  </rtept>
  <rtept lat="44.09375" lon="5.40683">
    <ele>715.9</ele>
  </rtept>
  <rtept lat="44.09387" lon="5.40617">
    <ele>705.7</ele>
  </rtept>
  <rtept lat="44.094169999999899" lon="5.40499">
    <ele>694.9</ele>
  </rtept>
  <rtept lat="44.094229999999897" lon="5.40483">
    <ele>693.4</ele>
  </rtept>
  <rtept lat="44.09425" lon="5.40478">
    <ele>692.9</ele>
  </rtept>
  <rtept lat="44.094269999999895" lon="5.40477">
    <ele>692.7</ele>
  </rtept>
  <rtept lat="44.09425" lon="5.40472">
    <ele>692.4</ele>
  </rtept>
  <rtept lat="44.09425" lon="5.40463">
    <ele>691.9</ele>
  </rtept>
  <rtept lat="44.09431" lon="5.4044">
    <ele>690.8</ele>
  </rtept>
  <rtept lat="44.09434" lon="5.40428">
    <ele>690.4</ele>
  </rtept>
  <rtept lat="44.09434" lon="5.40421">
    <ele>690.2</ele>
  </rtept>
  <rtept lat="44.09431" lon="5.40414">
    <ele>689.9</ele>
  </rtept>
  <rtept lat="44.09391" lon="5.40371">
    <ele>689.9</ele>
  </rtept>
  <rtept lat="44.09368" lon="5.40339">
    <ele>689.6</ele>
  </rtept>
  <rtept lat="44.09347" lon="5.40305">
    <ele>689.0</ele>
  </rtept>
  <rtept lat="44.0934" lon="5.40284">
    <ele>688.8</ele>
  </rtept>
  <rtept lat="44.09328" lon="5.40228">
    <ele>688.4</ele>
  </rtept>
  <rtept lat="44.093269999999897" lon="5.40205">
    <ele>688.2</ele>
  </rtept>
  <rtept lat="44.09333" lon="5.40145">
    <ele>689.0</ele>
  </rtept>
  <rtept lat="44.09334" lon="5.40121">
    <ele>688.9</ele>
  </rtept>
  <rtept lat="44.09316" lon="5.40116">
    <ele>689.0</ele>
  </rtept>
  <rtept lat="44.09285" lon="5.40103">
    <ele>689.5</ele>
  </rtept>
  <rtept lat="44.09277" lon="5.40094">
    <ele>689.4</ele>
  </rtept>
  <rtept lat="44.09271" lon="5.40084">
    <ele>689.0</ele>
  </rtept>
  <rtept lat="44.09266" lon="5.40075">
    <ele>689.0</ele>
  </rtept>
  <rtept lat="44.09264" lon="5.40071">
    <ele>689.0</ele>
  </rtept>
  <rtept lat="44.092929999999896" lon="5.40001">
    <ele>687.0</ele>
  </rtept>
  <rtept lat="44.093079999999894" lon="5.39966">
    <ele>685.8</ele>
  </rtept>
  <rtept lat="44.09311" lon="5.39961">
    <ele>685.7</ele>
  </rtept>
  <rtept lat="44.093079999999894" lon="5.39953">
    <ele>685.3</ele>
  </rtept>
  <rtept lat="44.09309" lon="5.39867">
    <ele>684.9</ele>
  </rtept>
  <rtept lat="44.09306" lon="5.39844">
    <ele>684.4</ele>
  </rtept>
  <rtept lat="44.09299" lon="5.39834">
    <ele>684.0</ele>
  </rtept>
  <rtept lat="44.092769999999895" lon="5.39782">
    <ele>684.0</ele>
  </rtept>
  <rtept lat="44.0927" lon="5.39743">
    <ele>683.3</ele>
  </rtept>
  <rtept lat="44.092639999999889" lon="5.39749">
    <ele>683.5</ele>
  </rtept>
  <rtept lat="44.0927" lon="5.39743">
    <ele>683.3</ele>
  </rtept>
  <rtept lat="44.092729999999897" lon="5.39738">
    <ele>683.2</ele>
  </rtept>
  <rtept lat="44.09275" lon="5.39729">
    <ele>683.1</ele>
  </rtept>
  <rtept lat="44.09281" lon="5.39721">
    <ele>683.1</ele>
  </rtept>
  <rtept lat="44.09287" lon="5.39716">
    <ele>683.2</ele>
  </rtept>
  <rtept lat="44.09291" lon="5.39714">
    <ele>683.3</ele>
  </rtept>
  <rtept lat="44.09295" lon="5.39714">
    <ele>683.5</ele>
  </rtept>
  <rtept lat="44.093719999999898" lon="5.39707">
    <ele>688.8</ele>
  </rtept>
  <rtept lat="44.093739999999897" lon="5.39707">
    <ele>688.9</ele>
  </rtept>
  <rtept lat="44.09379" lon="5.39709">
    <ele>689.3</ele>
  </rtept>
  <rtept lat="44.09381" lon="5.39683">
    <ele>689.0</ele>
  </rtept>
  <rtept lat="44.09382" lon="5.39661">
    <ele>688.4</ele>
  </rtept>
  <rtept lat="44.09379" lon="5.39574">
    <ele>686.0</ele>
  </rtept>
  <rtept lat="44.093739999999897" lon="5.39343">
    <ele>682.4</ele>
  </rtept>
  <rtept lat="44.093739999999897" lon="5.3933">
    <ele>682.3</ele>
  </rtept>
  <rtept lat="44.09381" lon="5.39327">
    <ele>682.9</ele>
  </rtept>
  <rtept lat="44.09385" lon="5.39326">
    <ele>683.3</ele>
  </rtept>
  <rtept lat="44.0939" lon="5.3932">
    <ele>683.8</ele>
  </rtept>
  <rtept lat="44.09393" lon="5.39314">
    <ele>684.2</ele>
  </rtept>
  <rtept lat="44.093999999999895" lon="5.39232">
    <ele>682.7</ele>
  </rtept>
  <rtept lat="44.09404" lon="5.39215">
    <ele>683.2</ele>
  </rtept>
  <rtept lat="44.094069999999896" lon="5.39191">
    <ele>683.6</ele>
  </rtept>
  <rtept lat="44.09409" lon="5.3918">
    <ele>683.7</ele>
  </rtept>
  <rtept lat="44.09416" lon="5.39158">
    <ele>684.0</ele>
  </rtept>
  <rtept lat="44.094189999999891" lon="5.39154">
    <ele>684.2</ele>
  </rtept>
  <rtept lat="44.09427" lon="5.39122">
    <ele>684.7</ele>
  </rtept>
  <rtept lat="44.094299999999897" lon="5.3911">
    <ele>685.0</ele>
  </rtept>
  <rtept lat="44.09429" lon="5.39099">
    <ele>685.5</ele>
  </rtept>
  <rtept lat="44.0942" lon="5.39063">
    <ele>686.7</ele>
  </rtept>
  <rtept lat="44.09418" lon="5.39037">
    <ele>688.4</ele>
  </rtept>
  <rtept lat="44.09424" lon="5.38951">
    <ele>694.5</ele>
  </rtept>
  <rtept lat="44.09429" lon="5.3891">
    <ele>698.5</ele>
  </rtept>
  <rtept lat="44.094189999999891" lon="5.38841">
    <ele>702.3</ele>
  </rtept>
  <rtept lat="44.09411" lon="5.38827">
    <ele>700.1</ele>
  </rtept>
  <rtept lat="44.09411" lon="5.38807">
    <ele>702.0</ele>
  </rtept>
  <rtept lat="44.09413" lon="5.38769">
    <ele>702.7</ele>
  </rtept>
  <rtept lat="44.094229999999897" lon="5.38726">
    <ele>704.7</ele>
  </rtept>
  <rtept lat="44.094659999999898" lon="5.38629">
    <ele>707.5</ele>
  </rtept>
  <rtept lat="44.09478" lon="5.38597">
    <ele>706.8</ele>
  </rtept>
  <rtept lat="44.094919999999895" lon="5.38584">
    <ele>706.5</ele>
  </rtept>
  <rtept lat="44.09495" lon="5.3858">
    <ele>706.0</ele>
  </rtept>
  <rtept lat="44.095009999999895" lon="5.38577">
    <ele>706.0</ele>
  </rtept>
  <rtept lat="44.09525" lon="5.3856">
    <ele>705.5</ele>
  </rtept>
  <rtept lat="44.09534" lon="5.38553">
    <ele>706.0</ele>
  </rtept>
  <rtept lat="44.095409999999895" lon="5.38544">
    <ele>706.9</ele>
  </rtept>
  <rtept lat="44.095439999999897" lon="5.38524">
    <ele>707.3</ele>
  </rtept>
  <rtept lat="44.095419999999883" lon="5.38485">
    <ele>708.2</ele>
  </rtept>
  <rtept lat="44.09543" lon="5.38471">
    <ele>709.1</ele>
  </rtept>
  <rtept lat="44.095469999999899" lon="5.3846">
    <ele>710.5</ele>
  </rtept>
  <rtept lat="44.09559" lon="5.3844">
    <ele>712.5</ele>
  </rtept>
  <rtept lat="44.09563" lon="5.3843">
    <ele>712.5</ele>
  </rtept>
  <rtept lat="44.095829999999893" lon="5.3834">
    <ele>711.8</ele>
  </rtept>
  <rtept lat="44.09589" lon="5.38295">
    <ele>709.0</ele>
  </rtept>
  <rtept lat="44.095869999999898" lon="5.38239">
    <ele>708.6</ele>
  </rtept>
  <rtept lat="44.095879999999894" lon="5.38226">
    <ele>708.7</ele>
  </rtept>
  <rtept lat="44.09598" lon="5.38192">
    <ele>707.7</ele>
  </rtept>
  <rtept lat="44.09604" lon="5.38166">
    <ele>708.4</ele>
  </rtept>
  <rtept lat="44.09605" lon="5.38147">
    <ele>708.4</ele>
  </rtept>
  <rtept lat="44.096049999999899" lon="5.38133">
    <ele>708.1</ele>
  </rtept>
  <rtept lat="44.09608" lon="5.38124">
    <ele>708.6</ele>
  </rtept>
  <rtept lat="44.09616" lon="5.38113">
    <ele>709.6</ele>
  </rtept>
  <rtept lat="44.09642" lon="5.38095">
    <ele>710.6</ele>
  </rtept>
  <rtept lat="44.09649" lon="5.38091">
    <ele>711.1</ele>
  </rtept>
  <rtept lat="44.09654" lon="5.38085">
    <ele>711.3</ele>
  </rtept>
  <rtept lat="44.09657" lon="5.38077">
    <ele>711.4</ele>
  </rtept>
  <rtept lat="44.09659" lon="5.38066">
    <ele>711.6</ele>
  </rtept>
  <rtept lat="44.0966" lon="5.38056">
    <ele>711.6</ele>
  </rtept>
  <rtept lat="44.09656" lon="5.38037">
    <ele>711.6</ele>
  </rtept>
  <rtept lat="44.09653" lon="5.38029">
    <ele>711.5</ele>
  </rtept>
  <rtept lat="44.096499999999899" lon="5.38026">
    <ele>711.3</ele>
  </rtept>
  <rtept lat="44.09624" lon="5.38007">
    <ele>708.7</ele>
  </rtept>
  <rtept lat="44.09619" lon="5.38">
    <ele>708.3</ele>
  </rtept>
  <rtept lat="44.09608" lon="5.37978">
    <ele>707.4</ele>
  </rtept>
  <rtept lat="44.09606" lon="5.37966">
    <ele>707.6</ele>
  </rtept>
  <rtept lat="44.096049999999899" lon="5.37949">
    <ele>707.9</ele>
  </rtept>
  <rtept lat="44.0961" lon="5.3791">
    <ele>707.2</ele>
  </rtept>
  <rtept lat="44.096139999999899" lon="5.37891">
    <ele>706.8</ele>
  </rtept>
  <rtept lat="44.09629" lon="5.37866">
    <ele>707.9</ele>
  </rtept>
  <rtept lat="44.09654" lon="5.37842">
    <ele>709.1</ele>
  </rtept>
  <rtept lat="44.096879999999899" lon="5.37816">
    <ele>710.5</ele>
  </rtept>
  <rtept lat="44.09693" lon="5.37815">
    <ele>711.1</ele>
  </rtept>
  <rtept lat="44.09695" lon="5.37816">
    <ele>711.7</ele>
  </rtept>
  <rtept lat="44.097" lon="5.37811">
    <ele>711.0</ele>
  </rtept>
  <rtept lat="44.097269999999895" lon="5.37787">
    <ele>710.9</ele>
  </rtept>
  <rtept lat="44.09729" lon="5.37783">
    <ele>710.6</ele>
  </rtept>
  <rtept lat="44.09729" lon="5.37767">
    <ele>710.0</ele>
  </rtept>
  <rtept lat="44.09699" lon="5.37693">
    <ele>711.8</ele>
  </rtept>
  <rtept lat="44.09697" lon="5.37682">
    <ele>713.1</ele>
  </rtept>
  <rtept lat="44.09697" lon="5.37671">
    <ele>714.2</ele>
  </rtept>
  <rtept lat="44.09715" lon="5.37573">
    <ele>717.6</ele>
  </rtept>
  <rtept lat="44.0972" lon="5.37534">
    <ele>719.1</ele>
  </rtept>
  <rtept lat="44.0973" lon="5.37415">
    <ele>721.5</ele>
  </rtept>
  <rtept lat="44.09732" lon="5.37337">
    <ele>723.3</ele>
  </rtept>
  <rtept lat="44.09736" lon="5.37313">
    <ele>723.9</ele>
  </rtept>
  <rtept lat="44.09741" lon="5.37286">
    <ele>723.6</ele>
  </rtept>
  <rtept lat="44.097609999999897" lon="5.37203">
    <ele>724.0</ele>
  </rtept>
  <rtept lat="44.09767" lon="5.3717">
    <ele>724.7</ele>
  </rtept>
  <rtept lat="44.09767" lon="5.37162">
    <ele>724.8</ele>
  </rtept>
  <rtept lat="44.09766" lon="5.37145">
    <ele>724.9</ele>
  </rtept>
  <rtept lat="44.0976" lon="5.37113">
    <ele>723.3</ele>
  </rtept>
  <rtept lat="44.09758" lon="5.37088">
    <ele>722.8</ele>
  </rtept>
  <rtept lat="44.09766" lon="5.37119">
    <ele>725.1</ele>
  </rtept>
  <rtept lat="44.09781" lon="5.37165">
    <ele>728.3</ele>
  </rtept>
  <rtept lat="44.098239999999898" lon="5.3728">
    <ele>737.8</ele>
  </rtept>
  <rtept lat="44.098519999999894" lon="5.37331">
    <ele>743.5</ele>
  </rtept>
  <rtept lat="44.098689999999898" lon="5.37359">
    <ele>745.9</ele>
  </rtept>
  <rtept lat="44.098849999999899" lon="5.37377">
    <ele>748.0</ele>
  </rtept>
  <rtept lat="44.09907" lon="5.37395">
    <ele>750.0</ele>
  </rtept>
  <rtept lat="44.09914" lon="5.37404">
    <ele>750.4</ele>
  </rtept>
  <rtept lat="44.09919" lon="5.37406">
    <ele>751.1</ele>
  </rtept>
  <rtept lat="44.0992" lon="5.37405">
    <ele>751.3</ele>
  </rtept>
  <rtept lat="44.09922" lon="5.37399">
    <ele>752.1</ele>
  </rtept>
  <rtept lat="44.0991" lon="5.3735">
    <ele>754.6</ele>
  </rtept>
  <rtept lat="44.099089999999897" lon="5.37343">
    <ele>754.9</ele>
  </rtept>
  <rtept lat="44.099142320659105" lon="5.373370735290707">
    <ele>0.0</ele>
  </rtept>
  <rtept lat="44.099214157172902" lon="5.37342832268738">
    <ele>0.0</ele>
  </rtept>
  <rtept lat="44.099473662324918" lon="5.373710538265649">
    <ele>754.9</ele>
  </rtept>
  <rtept lat="44.099748833747562" lon="5.373800099257852">
    <ele>756.4</ele>
  </rtept>
  <rtept lat="44.099944936238515" lon="5.373813276607474">
    <ele>756.9</ele>
  </rtept>
  <rtept lat="44.100189477441624" lon="5.373821806414012">
    <ele>758.7</ele>
  </rtept>
  <rtept lat="44.100383724900773" lon="5.373803231163818">
    <ele>761.0</ele>
  </rtept>
  <rtept lat="44.100592164636147" lon="5.373817764878481">
    <ele>0.0</ele>
  </rtept>
  <rtept lat="44.100709949797654" lon="5.373808083643579">
    <ele>764.2</ele>
  </rtept>
  <rtept lat="44.10065603768787" lon="5.37369979617822">
    <ele>768.9</ele>
  </rtept>
  <rtept lat="44.100537342993981" lon="5.373601503578777">
    <ele>773.1</ele>
  </rtept>
  <rtept lat="44.100489072436126" lon="5.373458256924106">
    <ele>776.5</ele>
  </rtept>
  <rtept lat="44.10052058932559" lon="5.373323546661827">
    <ele>777.7</ele>
  </rtept>
  <rtept lat="44.100559999999895" lon="5.37317">
    <ele>778.6</ele>
  </rtept>
  <rtept lat="44.100599999999893" lon="5.37311">
    <ele>779.3</ele>
  </rtept>
  <rtept lat="44.10069" lon="5.37306">
    <ele>780.4</ele>
  </rtept>
  <rtept lat="44.10079" lon="5.37305">
    <ele>781.5</ele>
  </rtept>
  <rtept lat="44.10097" lon="5.37312">
    <ele>782.9</ele>
  </rtept>
  <rtept lat="44.10108" lon="5.37311">
    <ele>783.8</ele>
  </rtept>
  <rtept lat="44.10117" lon="5.37307">
    <ele>784.4</ele>
  </rtept>
  <rtept lat="44.10164" lon="5.37306">
    <ele>786.0</ele>
  </rtept>
  <rtept lat="44.10194" lon="5.37312">
    <ele>787.2</ele>
  </rtept>
  <rtept lat="44.10265" lon="5.37322">
    <ele>792.0</ele>
  </rtept>
  <rtept lat="44.103225601809221" lon="5.373289008985849">
    <ele>793.3</ele>
  </rtept>
  <rtept lat="44.104210150828074" lon="5.373260189142252">
    <ele>0.0</ele>
  </rtept>
  <rtept lat="44.104819931447345" lon="5.373459488354345">
    <ele>0.0</ele>
  </rtept>
  <rtept lat="44.104942387555177" lon="5.373402527722577">
    <ele>798.9</ele>
  </rtept>
  <rtept lat="44.105137829987385" lon="5.373145286857028">
    <ele>799.4</ele>
  </rtept>
  <rtept lat="44.105121859432003" lon="5.373279391438715">
    <ele>800.0</ele>
  </rtept>
  <rtept lat="44.105142668007183" lon="5.373548146390067">
    <ele>799.4</ele>
  </rtept>
  <rtept lat="44.105147900510893" lon="5.373797505207759">
    <ele>799.2</ele>
  </rtept>
  <rtept lat="44.105137186972662" lon="5.374009108382974">
    <ele>799.2</ele>
  </rtept>
  <rtept lat="44.105174908907827" lon="5.374234189332753">
    <ele>798.5</ele>
  </rtept>
  <rtept lat="44.10523069076789" lon="5.374342125520246">
    <ele>798.1</ele>
  </rtept>
  <rtept lat="44.105275202755173" lon="5.374380643053571">
    <ele>797.9</ele>
  </rtept>
  <rtept lat="44.10538" lon="5.37443">
    <ele>797.7</ele>
  </rtept>
  <rtept lat="44.105489999999897" lon="5.37442">
    <ele>797.3</ele>
  </rtept>
  <rtept lat="44.105619999999881" lon="5.37446">
    <ele>796.7</ele>
  </rtept>
  <rtept lat="44.10571" lon="5.37453">
    <ele>796.2</ele>
  </rtept>
  <rtept lat="44.10577" lon="5.37461">
    <ele>796.3</ele>
  </rtept>
  <rtept lat="44.10589" lon="5.37495">
    <ele>799.2</ele>
  </rtept>
  <rtept lat="44.105939999999883" lon="5.37502">
    <ele>800.4</ele>
  </rtept>
  <rtept lat="44.10613" lon="5.37515">
    <ele>803.7</ele>
  </rtept>
  <rtept lat="44.106259999999885" lon="5.37521">
    <ele>805.2</ele>
  </rtept>
  <rtept lat="44.106609999999897" lon="5.3755">
    <ele>811.8</ele>
  </rtept>
  <rtept lat="44.10682" lon="5.37559">
    <ele>814.8</ele>
  </rtept>
  <rtept lat="44.10696" lon="5.37562">
    <ele>816.3</ele>
  </rtept>
  <rtept lat="44.10743" lon="5.37577">
    <ele>822.4</ele>
  </rtept>
  <rtept lat="44.10803" lon="5.37603">
    <ele>830.0</ele>
  </rtept>
  <rtept lat="44.10847" lon="5.37643">
    <ele>835.2</ele>
  </rtept>
  <rtept lat="44.10853" lon="5.37649">
    <ele>835.9</ele>
  </rtept>
  <rtept lat="44.108559999999891" lon="5.37658">
    <ele>836.4</ele>
  </rtept>
  <rtept lat="44.10859" lon="5.37662">
    <ele>836.7</ele>
  </rtept>
  <rtept lat="44.10864" lon="5.37664">
    <ele>837.2</ele>
  </rtept>
  <rtept lat="44.10888" lon="5.37654">
    <ele>839.4</ele>
  </rtept>
  <rtept lat="44.10923" lon="5.37653">
    <ele>841.5</ele>
  </rtept>
  <rtept lat="44.109309999999887" lon="5.37648">
    <ele>842.0</ele>
  </rtept>
  <rtept lat="44.1096" lon="5.37645">
    <ele>844.1</ele>
  </rtept>
  <rtept lat="44.10972" lon="5.37639">
    <ele>845.0</ele>
  </rtept>
  <rtept lat="44.10997" lon="5.37631">
    <ele>847.7</ele>
  </rtept>
  <rtept lat="44.11018" lon="5.37619">
    <ele>849.1</ele>
  </rtept>
  <rtept lat="44.1103" lon="5.3761">
    <ele>850.2</ele>
  </rtept>
  <rtept lat="44.11035" lon="5.37598">
    <ele>851.0</ele>
  </rtept>
  <rtept lat="44.11041" lon="5.37571">
    <ele>852.0</ele>
  </rtept>
  <rtept lat="44.11046" lon="5.3756">
    <ele>852.3</ele>
  </rtept>
  <rtept lat="44.11092" lon="5.37522">
    <ele>856.4</ele>
  </rtept>
  <rtept lat="44.110999999999898" lon="5.37517">
    <ele>856.8</ele>
  </rtept>
  <rtept lat="44.111329999999896" lon="5.37514">
    <ele>858.3</ele>
  </rtept>
  <rtept lat="44.11175" lon="5.37504">
    <ele>859.7</ele>
  </rtept>
  <rtept lat="44.11218" lon="5.37511">
    <ele>862.2</ele>
  </rtept>
  <rtept lat="44.11242" lon="5.37511">
    <ele>863.5</ele>
  </rtept>
  <rtept lat="44.11255" lon="5.37506">
    <ele>864.4</ele>
  </rtept>
  <rtept lat="44.11298" lon="5.37484">
    <ele>868.3</ele>
  </rtept>
  <rtept lat="44.113019999999899" lon="5.37479">
    <ele>868.7</ele>
  </rtept>
  <rtept lat="44.1131" lon="5.3748">
    <ele>869.4</ele>
  </rtept>
  <rtept lat="44.11323" lon="5.37479">
    <ele>870.7</ele>
  </rtept>
  <rtept lat="44.11327" lon="5.37479">
    <ele>871.1</ele>
  </rtept>
  <rtept lat="44.113349999999897" lon="5.37477">
    <ele>872.0</ele>
  </rtept>
  <rtept lat="44.11335" lon="5.37483">
    <ele>871.8</ele>
  </rtept>
  <rtept lat="44.113349999999897" lon="5.37507">
    <ele>871.2</ele>
  </rtept>
  <rtept lat="44.113329999999898" lon="5.37529">
    <ele>870.9</ele>
  </rtept>
  <rtept lat="44.11321" lon="5.37574">
    <ele>868.4</ele>
  </rtept>
  <rtept lat="44.11294" lon="5.37636">
    <ele>865.2</ele>
  </rtept>
  <rtept lat="44.11265" lon="5.37689">
    <ele>865.3</ele>
  </rtept>
  <rtept lat="44.11228" lon="5.37765">
    <ele>863.6</ele>
  </rtept>
  <rtept lat="44.11219" lon="5.37795">
    <ele>862.8</ele>
  </rtept>
  <rtept lat="44.111779999999889" lon="5.37856">
    <ele>859.8</ele>
  </rtept>
  <rtept lat="44.11158" lon="5.37892">
    <ele>858.4</ele>
  </rtept>
  <rtept lat="44.11112" lon="5.38017">
    <ele>854.5</ele>
  </rtept>
  <rtept lat="44.11063" lon="5.38136">
    <ele>847.6</ele>
  </rtept>
  <rtept lat="44.1105" lon="5.38175">
    <ele>845.2</ele>
  </rtept>
  <rtept lat="44.11037" lon="5.38226">
    <ele>842.0</ele>
  </rtept>
  <rtept lat="44.110259999999897" lon="5.38261">
    <ele>841.2</ele>
  </rtept>
  <rtept lat="44.109659999999892" lon="5.38417">
    <ele>838.6</ele>
  </rtept>
  <rtept lat="44.10931" lon="5.38524">
    <ele>837.5</ele>
  </rtept>
  <rtept lat="44.108699999999899" lon="5.38625">
    <ele>834.8</ele>
  </rtept>
  <rtept lat="44.10855" lon="5.38657">
    <ele>833.3</ele>
  </rtept>
  <rtept lat="44.10841" lon="5.38674">
    <ele>832.5</ele>
  </rtept>
  <rtept lat="44.108238613451086" lon="5.387350761710443">
    <ele>831.5</ele>
  </rtept>
  <rtept lat="44.107797679186078" lon="5.38805659172707">
    <ele>827.5</ele>
  </rtept>
  <rtept lat="44.107451598737605" lon="5.388482114230925">
    <ele>825.6</ele>
  </rtept>
  <rtept lat="44.10715140294009" lon="5.388782442218475">
    <ele>815.7</ele>
  </rtept>
  <rtept lat="44.106742070353995" lon="5.389102003592299">
    <ele>811.9</ele>
  </rtept>
  <rtept lat="44.106399999999894" lon="5.38926">
    <ele>801.0</ele>
  </rtept>
  <rtept lat="44.106379999999895" lon="5.38931">
    <ele>800.4</ele>
  </rtept>
  <rtept lat="44.106099999999898" lon="5.38952">
    <ele>795.9</ele>
  </rtept>
  <rtept lat="44.10585" lon="5.38965">
    <ele>792.4</ele>
  </rtept>
  <rtept lat="44.10557" lon="5.38967">
    <ele>789.1</ele>
  </rtept>
  <rtept lat="44.10529" lon="5.38978">
    <ele>786.9</ele>
  </rtept>
  <rtept lat="44.105029999999893" lon="5.38976">
    <ele>784.0</ele>
  </rtept>
  <rtept lat="44.10492" lon="5.38977">
    <ele>783.2</ele>
  </rtept>
  <rtept lat="44.10468" lon="5.38987">
    <ele>782.9</ele>
  </rtept>
  <rtept lat="44.10457" lon="5.38994">
    <ele>781.9</ele>
  </rtept>
  <rtept lat="44.10454" lon="5.38995">
    <ele>781.4</ele>
  </rtept>
  <rtept lat="44.10428" lon="5.39019">
    <ele>780.0</ele>
  </rtept>
  <rtept lat="44.1039" lon="5.39067">
    <ele>774.7</ele>
  </rtept>
  <rtept lat="44.103679999999883" lon="5.39122">
    <ele>772.9</ele>
  </rtept>
  <rtept lat="44.10357" lon="5.39141">
    <ele>770.6</ele>
  </rtept>
  <rtept lat="44.10331" lon="5.3918">
    <ele>768.6</ele>
  </rtept>
  <rtept lat="44.10307" lon="5.39213">
    <ele>766.6</ele>
  </rtept>
  <rtept lat="44.10291" lon="5.39231">
    <ele>765.4</ele>
  </rtept>
  <rtept lat="44.10232" lon="5.39307">
    <ele>758.7</ele>
  </rtept>
  <rtept lat="44.10219" lon="5.39325">
    <ele>757.2</ele>
  </rtept>
  <rtept lat="44.10213" lon="5.39338">
    <ele>756.4</ele>
  </rtept>
  <rtept lat="44.101819999999897" lon="5.394">
    <ele>752.0</ele>
  </rtept>
  <rtept lat="44.10171" lon="5.39432">
    <ele>750.2</ele>
  </rtept>
  <rtept lat="44.101579999999899" lon="5.39459">
    <ele>749.0</ele>
  </rtept>
  <rtept lat="44.10153" lon="5.39476">
    <ele>747.9</ele>
  </rtept>
  <rtept lat="44.101529999999897" lon="5.39494">
    <ele>747.2</ele>
  </rtept>
  <rtept lat="44.10152" lon="5.39508">
    <ele>746.7</ele>
  </rtept>
  <rtept lat="44.101469999999892" lon="5.39523">
    <ele>745.8</ele>
  </rtept>
  <rtept lat="44.10132" lon="5.3955">
    <ele>744.5</ele>
  </rtept>
  <rtept lat="44.100989999999896" lon="5.39669">
    <ele>737.4</ele>
  </rtept>
  <rtept lat="44.100949999999884" lon="5.39683">
    <ele>736.2</ele>
  </rtept>
  <rtept lat="44.10094" lon="5.39688">
    <ele>735.8</ele>
  </rtept>
  <rtept lat="44.1009" lon="5.397">
    <ele>735.0</ele>
  </rtept>
  <rtept lat="44.100859999999898" lon="5.39712">
    <ele>734.5</ele>
  </rtept>
  <rtept lat="44.10081" lon="5.3973">
    <ele>733.6</ele>
  </rtept>
  <rtept lat="44.10065" lon="5.39781">
    <ele>732.0</ele>
  </rtept>
  <rtept lat="44.1003" lon="5.3992">
    <ele>726.7</ele>
  </rtept>
  <rtept lat="44.1002" lon="5.39954">
    <ele>724.6</ele>
  </rtept>
  <rtept lat="44.10016" lon="5.39966">
    <ele>723.9</ele>
  </rtept>
  <rtept lat="44.09995" lon="5.40026">
    <ele>721.3</ele>
  </rtept>
  <rtept lat="44.09986" lon="5.40061">
    <ele>720.8</ele>
  </rtept>
  <rtept lat="44.09975" lon="5.40142">
    <ele>719.6</ele>
  </rtept>
  <rtept lat="44.09971" lon="5.40163">
    <ele>718.3</ele>
  </rtept>
  <rtept lat="44.099389999999886" lon="5.40237">
    <ele>714.2</ele>
  </rtept>
  <rtept lat="44.09935" lon="5.40253">
    <ele>713.4</ele>
  </rtept>
  <rtept lat="44.099349999999895" lon="5.40264">
    <ele>712.2</ele>
  </rtept>
  <rtept lat="44.09927" lon="5.40274">
    <ele>711.7</ele>
  </rtept>
  <rtept lat="44.09919" lon="5.40287">
    <ele>711.2</ele>
  </rtept>
  <rtept lat="44.09896" lon="5.40333">
    <ele>709.5</ele>
  </rtept>
  <rtept lat="44.098799999999891" lon="5.40357">
    <ele>708.9</ele>
  </rtept>
  <rtept lat="44.09728" lon="5.40567">
    <ele>693.4</ele>
  </rtept>
  <rtept lat="44.09723" lon="5.4058">
    <ele>693.9</ele>
  </rtept>
  <rtept lat="44.097209999999897" lon="5.40587">
    <ele>693.9</ele>
  </rtept>
  <rtept lat="44.097189999999898" lon="5.40599">
    <ele>693.8</ele>
  </rtept>
  <rtept lat="44.09719" lon="5.40609">
    <ele>693.9</ele>
  </rtept>
  <rtept lat="44.09723" lon="5.40632">
    <ele>694.0</ele>
  </rtept>
  <rtept lat="44.09726" lon="5.40641">
    <ele>694.1</ele>
  </rtept>
  <rtept lat="44.09723" lon="5.40643">
    <ele>694.6</ele>
  </rtept>
  <rtept lat="44.09719" lon="5.40643">
    <ele>694.7</ele>
  </rtept>
  <rtept lat="44.09715" lon="5.40642">
    <ele>694.7</ele>
  </rtept>
  <rtept lat="44.09714" lon="5.40633">
    <ele>694.2</ele>
  </rtept>
  <rtept lat="44.097119999999897" lon="5.40621">
    <ele>693.9</ele>
  </rtept>
  <rtept lat="44.09714" lon="5.40633">
    <ele>694.2</ele>
  </rtept>
  <rtept lat="44.09715" lon="5.40642">
    <ele>694.7</ele>
  </rtept>
  <rtept lat="44.09713" lon="5.40644">
    <ele>695.1</ele>
  </rtept>
  <rtept lat="44.09703" lon="5.40649">
    <ele>696.4</ele>
  </rtept>
  <rtept lat="44.09666" lon="5.40653">
    <ele>700.1</ele>
  </rtept>
  <rtept lat="44.09616" lon="5.4065">
    <ele>703.0</ele>
  </rtept>
  <rtept lat="44.09543" lon="5.40665">
    <ele>708.1</ele>
  </rtept>
  <rtept lat="44.09517" lon="5.40663">
    <ele>707.9</ele>
  </rtept>
  <rtept lat="44.09402" lon="5.40682">
    <ele>714.3</ele>
  </rtept>
  <rtept lat="44.09384" lon="5.40683">
    <ele>715.3</ele>
  </rtept>
  <rtept lat="44.09375" lon="5.40683">
    <ele>715.9</ele>
  </rtept>
  <rtept lat="44.09356" lon="5.40684">
    <ele>717.4</ele>
  </rtept>
  <rtept lat="44.09312" lon="5.40689">
    <ele>721.5</ele>
  </rtept>
  <rtept lat="44.09275" lon="5.40682">
    <ele>724.7</ele>
  </rtept>
  <rtept lat="44.092529999999883" lon="5.40681">
    <ele>728.1</ele>
  </rtept>
  <rtept lat="44.09236" lon="5.40676">
    <ele>729.4</ele>
  </rtept>
  <rtept lat="44.09233" lon="5.40676">
    <ele>729.8</ele>
  </rtept>
  <rtept lat="44.092309999999898" lon="5.40679">
    <ele>731.1</ele>
  </rtept>
  <rtept lat="44.09236" lon="5.40682">
    <ele>731.2</ele>
  </rtept>
  <rtept lat="44.09229" lon="5.40687">
    <ele>734.1</ele>
  </rtept>
  <rtept lat="44.09188" lon="5.40695">
    <ele>738.4</ele>
  </rtept>
  <rtept lat="44.09176" lon="5.40708">
    <ele>741.9</ele>
  </rtept>
  <rtept lat="44.09169" lon="5.40712">
    <ele>742.8</ele>
  </rtept>
  <rtept lat="44.09161" lon="5.40715">
    <ele>743.9</ele>
  </rtept>
  <rtept lat="44.09136" lon="5.40726">
    <ele>748.8</ele>
  </rtept>
  <rtept lat="44.09134" lon="5.40727">
    <ele>749.0</ele>
  </rtept>
  <rtept lat="44.09136" lon="5.40728">
    <ele>749.1</ele>
  </rtept>
  <rtept lat="44.09145" lon="5.40733">
    <ele>749.7</ele>
  </rtept>
  <rtept lat="44.091439999999899" lon="5.40753">
    <ele>753.9</ele>
  </rtept>
  <rtept lat="44.091429999999889" lon="5.40758">
    <ele>754.7</ele>
  </rtept>
  <rtept lat="44.09143" lon="5.40763">
    <ele>755.6</ele>
  </rtept>
  <rtept lat="44.091449999999888" lon="5.40765">
    <ele>756.0</ele>
  </rtept>
  <rtept lat="44.0915" lon="5.40774">
    <ele>757.8</ele>
  </rtept>
  <rtept lat="44.09151" lon="5.4078">
    <ele>758.6</ele>
  </rtept>
  <rtept lat="44.091549999999899" lon="5.40797">
    <ele>759.6</ele>
  </rtept>
  <rtept lat="44.09156" lon="5.40797">
    <ele>759.6</ele>
  </rtept>
  <rtept lat="44.091569999999898" lon="5.408">
    <ele>759.7</ele>
  </rtept>
  <rtept lat="44.091569999999891" lon="5.40804">
    <ele>759.9</ele>
  </rtept>
  <rtept lat="44.09167" lon="5.40801">
    <ele>759.8</ele>
  </rtept>
  <rtept lat="44.09169" lon="5.408">
    <ele>759.9</ele>
  </rtept>
  <rtept lat="44.09171" lon="5.40801">
    <ele>760.0</ele>
  </rtept>
  <rtept lat="44.091729999999899" lon="5.40804">
    <ele>760.2</ele>
  </rtept>
  <rtept lat="44.09174" lon="5.40808">
    <ele>760.4</ele>
  </rtept>
  <rtept lat="44.09177" lon="5.40811">
    <ele>760.8</ele>
  </rtept>
  <rtept lat="44.09182" lon="5.4081">
    <ele>760.9</ele>
  </rtept>
  <rtept lat="44.0919" lon="5.4081">
    <ele>761.2</ele>
  </rtept>
  <rtept lat="44.09197" lon="5.40809">
    <ele>761.2</ele>
  </rtept>
  <rtept lat="44.092089999999899" lon="5.40809">
    <ele>761.2</ele>
  </rtept>
  <rtept lat="44.092129999999898" lon="5.40817">
    <ele>761.8</ele>
  </rtept>
  <rtept lat="44.092149999999897" lon="5.40822">
    <ele>762.2</ele>
  </rtept>
  <rtept lat="44.09223" lon="5.40833">
    <ele>762.9</ele>
  </rtept>
  <rtept lat="44.09227" lon="5.40831">
    <ele>762.7</ele>
  </rtept>
  <rtept lat="44.09267" lon="5.40827">
    <ele>761.6</ele>
  </rtept>
</rte>
</gpx>
