<?xml version="1.0" encoding="UTF-8" standalone="no" ?>
<gpx xmlns="http://www.topografix.com/GPX/1/1" xmlns:xsi="http://www.w3.org/2001/XMLSchema-instance" xsi:schemaLocation="http://www.topografix.com/GPX/1/1 http://www.topografix.com/GPX/1/1/gpx.xsd" version="1.1" creator="VisuGPX">
  <metadata>
    <name>Destination Trail Sault Rouge</name>
  </metadata>
  <trk>
    <trkseg>
      <trkpt lat="44.09264" lon="5.40828">
        <ele>761.7</ele>
      </trkpt>
      <trkpt lat="44.09227" lon="5.40831">
        <ele>762.7</ele>
      </trkpt>
      <trkpt lat="44.09223" lon="5.40833">
        <ele>762.9</ele>
      </trkpt>
      <trkpt lat="44.09215" lon="5.40822">
        <ele>762.2</ele>
      </trkpt>
      <trkpt lat="44.09213" lon="5.40817">
        <ele>761.8</ele>
      </trkpt>
      <trkpt lat="44.09209" lon="5.40809">
        <ele>761.2</ele>
      </trkpt>
      <trkpt lat="44.09197" lon="5.40809">
        <ele>761.2</ele>
      </trkpt>
      <trkpt lat="44.0919" lon="5.4081">
        <ele>761.2</ele>
      </trkpt>
      <trkpt lat="44.09182" lon="5.4081">
        <ele>760.9</ele>
      </trkpt>
      <trkpt lat="44.09177" lon="5.40811">
        <ele>760.8</ele>
      </trkpt>
      <trkpt lat="44.09174" lon="5.40808">
        <ele>760.4</ele>
      </trkpt>
      <trkpt lat="44.09173" lon="5.40804">
        <ele>760.2</ele>
      </trkpt>
      <trkpt lat="44.09171" lon="5.40801">
        <ele>760</ele>
      </trkpt>
      <trkpt lat="44.09169" lon="5.408">
        <ele>759.9</ele>
      </trkpt>
      <trkpt lat="44.09167" lon="5.40801">
        <ele>759.8</ele>
      </trkpt>
      <trkpt lat="44.09157" lon="5.40804">
        <ele>759.9</ele>
      </trkpt>
      <trkpt lat="44.09155" lon="5.40804">
        <ele>759.9</ele>
      </trkpt>
      <trkpt lat="44.09155" lon="5.40815">
        <ele>760.8</ele>
      </trkpt>
      <trkpt lat="44.09156" lon="5.40822">
        <ele>761.4</ele>
      </trkpt>
      <trkpt lat="44.09153" lon="5.40823">
        <ele>761.6</ele>
      </trkpt>
      <trkpt lat="44.09142" lon="5.40821">
        <ele>761.6</ele>
      </trkpt>
      <trkpt lat="44.09139" lon="5.40835">
        <ele>763</ele>
      </trkpt>
      <trkpt lat="44.09133" lon="5.40851">
        <ele>762.5</ele>
      </trkpt>
      <trkpt lat="44.09133" lon="5.40854">
        <ele>762.5</ele>
      </trkpt>
      <trkpt lat="44.09131" lon="5.40854">
        <ele>762.4</ele>
      </trkpt>
      <trkpt lat="44.0913" lon="5.40858">
        <ele>762.3</ele>
      </trkpt>
      <trkpt lat="44.09127" lon="5.40885">
        <ele>761.4</ele>
      </trkpt>
      <trkpt lat="44.09127" lon="5.40903">
        <ele>761.3</ele>
      </trkpt>
      <trkpt lat="44.09126" lon="5.40905">
        <ele>761.1</ele>
      </trkpt>
      <trkpt lat="44.09125" lon="5.40905">
        <ele>761</ele>
      </trkpt>
      <trkpt lat="44.09108" lon="5.409">
        <ele>758.5</ele>
      </trkpt>
      <trkpt lat="44.09102" lon="5.40897">
        <ele>757.7</ele>
      </trkpt>
      <trkpt lat="44.091" lon="5.40895">
        <ele>757.5</ele>
      </trkpt>
      <trkpt lat="44.09098" lon="5.40892">
        <ele>757.4</ele>
      </trkpt>
      <trkpt lat="44.09098" lon="5.40898">
        <ele>757.1</ele>
      </trkpt>
      <trkpt lat="44.09101" lon="5.40915">
        <ele>756.9</ele>
      </trkpt>
      <trkpt lat="44.09103" lon="5.40931">
        <ele>757.1</ele>
      </trkpt>
      <trkpt lat="44.09103" lon="5.40936">
        <ele>757</ele>
      </trkpt>
      <trkpt lat="44.09101" lon="5.40941">
        <ele>756.5</ele>
      </trkpt>
      <trkpt lat="44.09096" lon="5.40942">
        <ele>755.2</ele>
      </trkpt>
      <trkpt lat="44.09087" lon="5.40943">
        <ele>753</ele>
      </trkpt>
      <trkpt lat="44.09082" lon="5.40943">
        <ele>751.8</ele>
      </trkpt>
      <trkpt lat="44.09078" lon="5.40941">
        <ele>751.2</ele>
      </trkpt>
      <trkpt lat="44.09057" lon="5.40917">
        <ele>743.6</ele>
      </trkpt>
      <trkpt lat="44.09052" lon="5.40914">
        <ele>742.6</ele>
      </trkpt>
      <trkpt lat="44.09043" lon="5.40916">
        <ele>739</ele>
      		<extensions>
      		  <visugpx:TrkExtension xmlns:visugpx="https://www.visugpx.com/editgpx/">
      		    <visugpx:node>1</visugpx:node>
      		  </visugpx:TrkExtension>
      		</extensions>
      </trkpt>
      <trkpt lat="44.08986" lon="5.40925">
        <ele>726.9</ele>
      </trkpt>
      <trkpt lat="44.08967" lon="5.40932">
        <ele>723.2</ele>
      </trkpt>
      <trkpt lat="44.0895" lon="5.40939">
        <ele>719.5</ele>
      </trkpt>
      <trkpt lat="44.0889" lon="5.40965">
        <ele>710.2</ele>
      </trkpt>
      <trkpt lat="44.08882" lon="5.40965">
        <ele>708.8</ele>
      </trkpt>
      <trkpt lat="44.08876" lon="5.40963">
        <ele>707.5</ele>
      </trkpt>
      <trkpt lat="44.0887" lon="5.40957">
        <ele>705.8</ele>
      </trkpt>
      <trkpt lat="44.08837" lon="5.40954">
        <ele>701.1</ele>
      </trkpt>
      <trkpt lat="44.08828" lon="5.40951">
        <ele>700</ele>
      </trkpt>
      <trkpt lat="44.08819" lon="5.40945">
        <ele>699</ele>
      </trkpt>
      <trkpt lat="44.08816" lon="5.40945">
        <ele>698.8</ele>
      </trkpt>
      <trkpt lat="44.08816" lon="5.4094">
        <ele>698.8</ele>
      		<extensions>
      		  <visugpx:TrkExtension xmlns:visugpx="https://www.visugpx.com/editgpx/">
      		    <visugpx:node>2</visugpx:node>
      		  </visugpx:TrkExtension>
      		</extensions>
      </trkpt>
      <trkpt lat="44.08816" lon="5.40939">
        <ele>698.8</ele>
      </trkpt>
      <trkpt lat="44.08837" lon="5.40884">
        <ele>698.2</ele>
      </trkpt>
      <trkpt lat="44.08861" lon="5.40836">
        <ele>697</ele>
      </trkpt>
      <trkpt lat="44.08881" lon="5.4078">
        <ele>697.6</ele>
      </trkpt>
      <trkpt lat="44.08914" lon="5.40705">
        <ele>696.1</ele>
      		<extensions>
      		  <visugpx:TrkExtension xmlns:visugpx="https://www.visugpx.com/editgpx/">
      		    <visugpx:node>3</visugpx:node>
      		  </visugpx:TrkExtension>
      		</extensions>
      </trkpt>
      <trkpt lat="44.08922" lon="5.40689">
        <ele>696</ele>
      </trkpt>
      <trkpt lat="44.08936" lon="5.4068">
        <ele>696.2</ele>
      </trkpt>
      <trkpt lat="44.0894" lon="5.40672">
        <ele>696</ele>
      </trkpt>
      <trkpt lat="44.08944" lon="5.40643">
        <ele>695.1</ele>
      </trkpt>
      <trkpt lat="44.08952" lon="5.40584">
        <ele>695</ele>
      </trkpt>
      <trkpt lat="44.08954" lon="5.40545">
        <ele>694</ele>
      </trkpt>
      <trkpt lat="44.08949" lon="5.40485">
        <ele>693.2</ele>
      </trkpt>
      <trkpt lat="44.08948" lon="5.40424">
        <ele>692.4</ele>
      </trkpt>
      <trkpt lat="44.08952" lon="5.40397">
        <ele>692.3</ele>
      </trkpt>
      <trkpt lat="44.08952" lon="5.40368">
        <ele>692.3</ele>
      </trkpt>
      <trkpt lat="44.08953" lon="5.40343">
        <ele>692.1</ele>
      </trkpt>
      <trkpt lat="44.08955" lon="5.40346">
        <ele>692.2</ele>
      		<extensions>
      		  <visugpx:TrkExtension xmlns:visugpx="https://www.visugpx.com/editgpx/">
      		    <visugpx:node>4</visugpx:node>
      		  </visugpx:TrkExtension>
      		</extensions>
      </trkpt>
      <trkpt lat="44.08953" lon="5.40343">
        <ele>692.1</ele>
      </trkpt>
      <trkpt lat="44.08941" lon="5.40328">
        <ele>691.8</ele>
      </trkpt>
      <trkpt lat="44.08931" lon="5.40319">
        <ele>691.7</ele>
      </trkpt>
      <trkpt lat="44.08917" lon="5.40301">
        <ele>691.8</ele>
      </trkpt>
      <trkpt lat="44.08857" lon="5.40226">
        <ele>693.2</ele>
      </trkpt>
      <trkpt lat="44.0881" lon="5.40176">
        <ele>694.6</ele>
      </trkpt>
      <trkpt lat="44.08786" lon="5.40155">
        <ele>695.3</ele>
      </trkpt>
      <trkpt lat="44.08766" lon="5.40142">
        <ele>696.4</ele>
      </trkpt>
      <trkpt lat="44.08677" lon="5.40098">
        <ele>700.7</ele>
      </trkpt>
      <trkpt lat="44.08668" lon="5.40096">
        <ele>701.4</ele>
      </trkpt>
      <trkpt lat="44.08661" lon="5.40096">
        <ele>701.6</ele>
      </trkpt>
      <trkpt lat="44.08659" lon="5.40087">
        <ele>701.9</ele>
      		<extensions>
      		  <visugpx:TrkExtension xmlns:visugpx="https://www.visugpx.com/editgpx/">
      		    <visugpx:node>5</visugpx:node>
      		  </visugpx:TrkExtension>
      		</extensions>
      </trkpt>
      <trkpt lat="44.08659" lon="5.40086">
        <ele>701.9</ele>
      </trkpt>
      <trkpt lat="44.08656" lon="5.40078">
        <ele>701.8</ele>
      </trkpt>
      <trkpt lat="44.08653" lon="5.40067">
        <ele>701.7</ele>
      </trkpt>
      <trkpt lat="44.0865" lon="5.40068">
        <ele>701.9</ele>
      </trkpt>
      <trkpt lat="44.08621" lon="5.40076">
        <ele>702.7</ele>
      </trkpt>
      <trkpt lat="44.086" lon="5.40085">
        <ele>703.4</ele>
      </trkpt>
      <trkpt lat="44.08517" lon="5.40136">
        <ele>705.4</ele>
      </trkpt>
      <trkpt lat="44.08485" lon="5.40167">
        <ele>706.5</ele>
      </trkpt>
      <trkpt lat="44.08449" lon="5.40206">
        <ele>707.4</ele>
      </trkpt>
      <trkpt lat="44.08433" lon="5.40219">
        <ele>707.9</ele>
      </trkpt>
      <trkpt lat="44.08413" lon="5.40229">
        <ele>709.1</ele>
      </trkpt>
      <trkpt lat="44.08408" lon="5.40233">
        <ele>709.3</ele>
      </trkpt>
      <trkpt lat="44.08362" lon="5.40199">
        <ele>709.2</ele>
      </trkpt>
      <trkpt lat="44.08312" lon="5.40161">
        <ele>707.8</ele>
      </trkpt>
      <trkpt lat="44.08308" lon="5.40157">
        <ele>707.7</ele>
      </trkpt>
      <trkpt lat="44.08305" lon="5.40156">
        <ele>707.6</ele>
      </trkpt>
      <trkpt lat="44.08291" lon="5.40153">
        <ele>707.3</ele>
      </trkpt>
      <trkpt lat="44.08288" lon="5.40153">
        <ele>707.2</ele>
      		<extensions>
      		  <visugpx:TrkExtension xmlns:visugpx="https://www.visugpx.com/editgpx/">
      		    <visugpx:node>6</visugpx:node>
      		  </visugpx:TrkExtension>
      		</extensions>
      </trkpt>
      <trkpt lat="44.08281" lon="5.40153">
        <ele>707.1</ele>
      </trkpt>
      <trkpt lat="44.08218" lon="5.40165">
        <ele>706.7</ele>
      </trkpt>
      <trkpt lat="44.082" lon="5.40166">
        <ele>706.2</ele>
      </trkpt>
      <trkpt lat="44.08182" lon="5.40166">
        <ele>706</ele>
      </trkpt>
      <trkpt lat="44.08159" lon="5.40162">
        <ele>705.7</ele>
      </trkpt>
      <trkpt lat="44.08129" lon="5.40155">
        <ele>705.2</ele>
      </trkpt>
      <trkpt lat="44.08059" lon="5.40133">
        <ele>704.6</ele>
      </trkpt>
      <trkpt lat="44.07955" lon="5.40091">
        <ele>702.7</ele>
      </trkpt>
      <trkpt lat="44.07935" lon="5.4009">
        <ele>702.2</ele>
      </trkpt>
      <trkpt lat="44.07928" lon="5.40091">
        <ele>702.1</ele>
      		<extensions>
      		  <visugpx:TrkExtension xmlns:visugpx="https://www.visugpx.com/editgpx/">
      		    <visugpx:node>7</visugpx:node>
      		  </visugpx:TrkExtension>
      		</extensions>
      </trkpt>
      <trkpt lat="44.07895" lon="5.40099">
        <ele>700.8</ele>
      </trkpt>
      <trkpt lat="44.07832" lon="5.4011">
        <ele>696.1</ele>
      </trkpt>
      <trkpt lat="44.07809" lon="5.40123">
        <ele>695.2</ele>
      </trkpt>
      <trkpt lat="44.0779" lon="5.40139">
        <ele>692.9</ele>
      </trkpt>
      <trkpt lat="44.07754" lon="5.40161">
        <ele>691.8</ele>
      </trkpt>
      <trkpt lat="44.07684" lon="5.40212">
        <ele>692.9</ele>
      </trkpt>
      <trkpt lat="44.07536" lon="5.4031">
        <ele>701</ele>
      </trkpt>
      <trkpt lat="44.07486" lon="5.40337">
        <ele>707.4</ele>
      </trkpt>
      <trkpt lat="44.07465" lon="5.40344">
        <ele>709.6</ele>
      </trkpt>
      <trkpt lat="44.07444" lon="5.40348">
        <ele>710.2</ele>
      </trkpt>
      <trkpt lat="44.07425" lon="5.40349">
        <ele>711.1</ele>
      </trkpt>
      <trkpt lat="44.07395" lon="5.40347">
        <ele>712.1</ele>
      </trkpt>
      <trkpt lat="44.07382" lon="5.40348">
        <ele>712.4</ele>
      </trkpt>
      <trkpt lat="44.07376" lon="5.40353">
        <ele>713.1</ele>
      </trkpt>
      <trkpt lat="44.07342" lon="5.40348">
        <ele>711.3</ele>
      </trkpt>
      <trkpt lat="44.07309" lon="5.40341">
        <ele>711</ele>
      </trkpt>
      <trkpt lat="44.07269" lon="5.40325">
        <ele>711.4</ele>
      </trkpt>
      <trkpt lat="44.07259" lon="5.40321">
        <ele>711.6</ele>
      </trkpt>
      <trkpt lat="44.0724" lon="5.40316">
        <ele>713.3</ele>
      </trkpt>
      <trkpt lat="44.07094" lon="5.40283">
        <ele>713.2</ele>
      </trkpt>
      <trkpt lat="44.07031" lon="5.40273">
        <ele>708.5</ele>
      </trkpt>
      <trkpt lat="44.06994" lon="5.40257">
        <ele>707.7</ele>
      		<extensions>
      		  <visugpx:TrkExtension xmlns:visugpx="https://www.visugpx.com/editgpx/">
      		    <visugpx:node>8</visugpx:node>
      		  </visugpx:TrkExtension>
      		</extensions>
      </trkpt>
      <trkpt lat="44.06963" lon="5.40239">
        <ele>707.7</ele>
      </trkpt>
      <trkpt lat="44.06935" lon="5.40216">
        <ele>710.3</ele>
      </trkpt>
      <trkpt lat="44.06898" lon="5.40175">
        <ele>713.6</ele>
      </trkpt>
      <trkpt lat="44.06869" lon="5.40157">
        <ele>716.4</ele>
      </trkpt>
      <trkpt lat="44.06847" lon="5.40147">
        <ele>717.8</ele>
      </trkpt>
      <trkpt lat="44.06814" lon="5.40141">
        <ele>719.8</ele>
      </trkpt>
      <trkpt lat="44.06762" lon="5.40142">
        <ele>721.2</ele>
      </trkpt>
      <trkpt lat="44.06746" lon="5.40139">
        <ele>721.7</ele>
      </trkpt>
      <trkpt lat="44.06711" lon="5.40115">
        <ele>724</ele>
      </trkpt>
      <trkpt lat="44.06697" lon="5.40109">
        <ele>725.9</ele>
      </trkpt>
      <trkpt lat="44.06684" lon="5.40108">
        <ele>727</ele>
      </trkpt>
      <trkpt lat="44.06674" lon="5.4011">
        <ele>728.2</ele>
      </trkpt>
      <trkpt lat="44.06667" lon="5.4011">
        <ele>728.7</ele>
      </trkpt>
      <trkpt lat="44.06641" lon="5.40107">
        <ele>729</ele>
      </trkpt>
      <trkpt lat="44.06622" lon="5.40103">
        <ele>729.5</ele>
      </trkpt>
      <trkpt lat="44.06554" lon="5.40078">
        <ele>732.8</ele>
      </trkpt>
      <trkpt lat="44.06538" lon="5.40075">
        <ele>731.9</ele>
      </trkpt>
      <trkpt lat="44.06536" lon="5.40075">
        <ele>731.9</ele>
      		<extensions>
      		  <visugpx:TrkExtension xmlns:visugpx="https://www.visugpx.com/editgpx/">
      		    <visugpx:node>9</visugpx:node>
      		  </visugpx:TrkExtension>
      		</extensions>
      </trkpt>
      <trkpt lat="44.06524" lon="5.40078">
        <ele>731.5</ele>
      </trkpt>
      <trkpt lat="44.06514" lon="5.40085">
        <ele>730.3</ele>
      </trkpt>
      <trkpt lat="44.06486" lon="5.40113">
        <ele>728.4</ele>
      </trkpt>
      <trkpt lat="44.06464" lon="5.40127">
        <ele>727.9</ele>
      </trkpt>
      <trkpt lat="44.06455" lon="5.4013">
        <ele>728</ele>
      </trkpt>
      <trkpt lat="44.06445" lon="5.40129">
        <ele>726.8</ele>
      </trkpt>
      <trkpt lat="44.06433" lon="5.40124">
        <ele>725.9</ele>
      </trkpt>
      <trkpt lat="44.06422" lon="5.40118">
        <ele>725.5</ele>
      </trkpt>
      <trkpt lat="44.06374" lon="5.40082">
        <ele>727.6</ele>
      </trkpt>
      <trkpt lat="44.06351" lon="5.40065">
        <ele>730.3</ele>
      </trkpt>
      <trkpt lat="44.06302" lon="5.40047">
        <ele>736.1</ele>
      </trkpt>
      <trkpt lat="44.06263" lon="5.40028">
        <ele>740.2</ele>
      </trkpt>
      <trkpt lat="44.06235" lon="5.40013">
        <ele>744.4</ele>
      		<extensions>
      		  <visugpx:TrkExtension xmlns:visugpx="https://www.visugpx.com/editgpx/">
      		    <visugpx:node>10</visugpx:node>
      		  </visugpx:TrkExtension>
      		</extensions>
      </trkpt>
      <trkpt lat="44.06231" lon="5.40011">
        <ele>745.1</ele>
      </trkpt>
      <trkpt lat="44.06276" lon="5.40088">
        <ele>747.9</ele>
      </trkpt>
      <trkpt lat="44.06282" lon="5.401">
        <ele>747.7</ele>
      </trkpt>
      <trkpt lat="44.06284" lon="5.40108">
        <ele>748.1</ele>
      </trkpt>
      <trkpt lat="44.06284" lon="5.40121">
        <ele>750.2</ele>
      </trkpt>
      <trkpt lat="44.06281" lon="5.40128">
        <ele>752.6</ele>
      </trkpt>
      <trkpt lat="44.06236" lon="5.40054">
        <ele>752.7</ele>
      </trkpt>
      <trkpt lat="44.06205" lon="5.40016">
        <ele>754.7</ele>
      </trkpt>
      <trkpt lat="44.06159" lon="5.39966">
        <ele>754.1</ele>
      </trkpt>
      <trkpt lat="44.06105" lon="5.39914">
        <ele>756.6</ele>
      </trkpt>
      <trkpt lat="44.05984" lon="5.39828">
        <ele>760.9</ele>
      </trkpt>
      <trkpt lat="44.05852" lon="5.39755">
        <ele>765.7</ele>
      </trkpt>
      <trkpt lat="44.05824" lon="5.39734">
        <ele>764.5</ele>
      </trkpt>
      <trkpt lat="44.05772" lon="5.39681">
        <ele>765.1</ele>
      </trkpt>
      <trkpt lat="44.05757" lon="5.3967">
        <ele>767.2</ele>
      </trkpt>
      <trkpt lat="44.05721" lon="5.39652">
        <ele>768.7</ele>
      </trkpt>
      <trkpt lat="44.05713" lon="5.39646">
        <ele>766.2</ele>
      </trkpt>
      <trkpt lat="44.0571" lon="5.3964">
        <ele>764</ele>
      </trkpt>
      <trkpt lat="44.05709" lon="5.39639">
        <ele>763.6</ele>
      		<extensions>
      		  <visugpx:TrkExtension xmlns:visugpx="https://www.visugpx.com/editgpx/">
      		    <visugpx:node>11</visugpx:node>
      		  </visugpx:TrkExtension>
      		</extensions>
      </trkpt>
      <trkpt lat="44.0571" lon="5.3964">
        <ele>764</ele>
      </trkpt>
      <trkpt lat="44.05713" lon="5.39646">
        <ele>766.2</ele>
      </trkpt>
      <trkpt lat="44.05707" lon="5.3965">
        <ele>767</ele>
      </trkpt>
      <trkpt lat="44.05668" lon="5.39665">
        <ele>768.5</ele>
      </trkpt>
      <trkpt lat="44.05642" lon="5.39683">
        <ele>777.2</ele>
      </trkpt>
      <trkpt lat="44.05624" lon="5.39692">
        <ele>779.2</ele>
      </trkpt>
      <trkpt lat="44.05617" lon="5.39691">
        <ele>779.9</ele>
      </trkpt>
      <trkpt lat="44.05612" lon="5.39687">
        <ele>781</ele>
      </trkpt>
      <trkpt lat="44.05609" lon="5.39687">
        <ele>781.6</ele>
      		<extensions>
      		  <visugpx:TrkExtension xmlns:visugpx="https://www.visugpx.com/editgpx/">
      		    <visugpx:node>12</visugpx:node>
      		  </visugpx:TrkExtension>
      		</extensions>
      </trkpt>
      <trkpt lat="44.05596" lon="5.3969">
        <ele>784.1</ele>
      </trkpt>
      <trkpt lat="44.05591" lon="5.39693">
        <ele>784.6</ele>
      </trkpt>
      <trkpt lat="44.0556" lon="5.39687">
        <ele>791.8</ele>
      </trkpt>
      <trkpt lat="44.05547" lon="5.39686">
        <ele>794.8</ele>
      </trkpt>
      <trkpt lat="44.05508" lon="5.397">
        <ele>801.3</ele>
      </trkpt>
      <trkpt lat="44.05494" lon="5.39703">
        <ele>803.5</ele>
      </trkpt>
      <trkpt lat="44.05482" lon="5.39703">
        <ele>804.5</ele>
      </trkpt>
      <trkpt lat="44.05448" lon="5.39703">
        <ele>805.6</ele>
      </trkpt>
      <trkpt lat="44.0543" lon="5.39701">
        <ele>806</ele>
      </trkpt>
      <trkpt lat="44.05378" lon="5.39685">
        <ele>808.9</ele>
      </trkpt>
      <trkpt lat="44.05329" lon="5.39681">
        <ele>810.4</ele>
      </trkpt>
      <trkpt lat="44.05173" lon="5.39625">
        <ele>812.9</ele>
      </trkpt>
      <trkpt lat="44.05066" lon="5.39615">
        <ele>807.7</ele>
      </trkpt>
      <trkpt lat="44.05057" lon="5.39608">
        <ele>806.6</ele>
      </trkpt>
      <trkpt lat="44.05039" lon="5.39581">
        <ele>804.5</ele>
      </trkpt>
      <trkpt lat="44.05029" lon="5.39571">
        <ele>804.5</ele>
      </trkpt>
      <trkpt lat="44.05021" lon="5.39568">
        <ele>804.5</ele>
      </trkpt>
      <trkpt lat="44.04981" lon="5.39565">
        <ele>805.4</ele>
      </trkpt>
      <trkpt lat="44.04939" lon="5.39565">
        <ele>806.3</ele>
      </trkpt>
      <trkpt lat="44.04914" lon="5.39568">
        <ele>806</ele>
      </trkpt>
      <trkpt lat="44.04884" lon="5.39564">
        <ele>805.5</ele>
      </trkpt>
      <trkpt lat="44.0484" lon="5.39561">
        <ele>804</ele>
      </trkpt>
      <trkpt lat="44.0476" lon="5.39564">
        <ele>800.8</ele>
      </trkpt>
      <trkpt lat="44.04758" lon="5.39565">
        <ele>800.6</ele>
      		<extensions>
      		  <visugpx:TrkExtension xmlns:visugpx="https://www.visugpx.com/editgpx/">
      		    <visugpx:node>13</visugpx:node>
      		  </visugpx:TrkExtension>
      		</extensions>
      </trkpt>
      <trkpt lat="44.04743" lon="5.39568">
        <ele>799.4</ele>
      </trkpt>
      <trkpt lat="44.04743" lon="5.39604">
        <ele>799.3</ele>
      </trkpt>
      <trkpt lat="44.0474" lon="5.3962">
        <ele>799.7</ele>
      </trkpt>
      <trkpt lat="44.04736" lon="5.39633">
        <ele>800.2</ele>
      </trkpt>
      <trkpt lat="44.04732" lon="5.39646">
        <ele>800.9</ele>
      </trkpt>
      <trkpt lat="44.04725" lon="5.39657">
        <ele>801.9</ele>
      </trkpt>
      <trkpt lat="44.04718" lon="5.39666">
        <ele>802.8</ele>
      </trkpt>
      <trkpt lat="44.04708" lon="5.39674">
        <ele>803</ele>
      </trkpt>
      <trkpt lat="44.04687" lon="5.39683">
        <ele>803.3</ele>
      </trkpt>
      <trkpt lat="44.04676" lon="5.39684">
        <ele>803.7</ele>
      </trkpt>
      <trkpt lat="44.04681" lon="5.39707">
        <ele>805.8</ele>
      </trkpt>
      <trkpt lat="44.04682" lon="5.39709">
        <ele>806</ele>
      		<extensions>
      		  <visugpx:TrkExtension xmlns:visugpx="https://www.visugpx.com/editgpx/">
      		    <visugpx:node>14</visugpx:node>
      		  </visugpx:TrkExtension>
      		</extensions>
      </trkpt>
      <trkpt lat="44.04695" lon="5.39749">
        <ele>811.8</ele>
      </trkpt>
      <trkpt lat="44.04708" lon="5.39767">
        <ele>815.6</ele>
      </trkpt>
      <trkpt lat="44.0474" lon="5.39788">
        <ele>820</ele>
      </trkpt>
      <trkpt lat="44.04799" lon="5.39805">
        <ele>827.2</ele>
      </trkpt>
      <trkpt lat="44.04833" lon="5.39822">
        <ele>832.5</ele>
      </trkpt>
      <trkpt lat="44.04872" lon="5.39847">
        <ele>838.3</ele>
      </trkpt>
      <trkpt lat="44.04878" lon="5.39854">
        <ele>839.8</ele>
      </trkpt>
      <trkpt lat="44.04882" lon="5.39861">
        <ele>841.2</ele>
      </trkpt>
      <trkpt lat="44.04901" lon="5.3988">
        <ele>846.8</ele>
      </trkpt>
      <trkpt lat="44.04929" lon="5.39893">
        <ele>849.1</ele>
      </trkpt>
      <trkpt lat="44.04942" lon="5.39902">
        <ele>851.4</ele>
      </trkpt>
      <trkpt lat="44.04951" lon="5.39903">
        <ele>851.5</ele>
      </trkpt>
      <trkpt lat="44.04971" lon="5.39922">
        <ele>859.2</ele>
      </trkpt>
      <trkpt lat="44.04979" lon="5.39927">
        <ele>860.6</ele>
      </trkpt>
      <trkpt lat="44.0499" lon="5.39943">
        <ele>866.1</ele>
      </trkpt>
      <trkpt lat="44.04995" lon="5.39946">
        <ele>866.9</ele>
      </trkpt>
      <trkpt lat="44.05005" lon="5.39959">
        <ele>870.8</ele>
      </trkpt>
      <trkpt lat="44.05011" lon="5.39963">
        <ele>871.8</ele>
      </trkpt>
      <trkpt lat="44.05019" lon="5.39971">
        <ele>874.2</ele>
      </trkpt>
      <trkpt lat="44.05032" lon="5.39982">
        <ele>876.8</ele>
      </trkpt>
      <trkpt lat="44.05035" lon="5.3999">
        <ele>879.1</ele>
      </trkpt>
      <trkpt lat="44.0504" lon="5.39995">
        <ele>880.1</ele>
      </trkpt>
      <trkpt lat="44.05049" lon="5.4">
        <ele>880.7</ele>
      </trkpt>
      <trkpt lat="44.05056" lon="5.40009">
        <ele>882.6</ele>
      </trkpt>
      <trkpt lat="44.05063" lon="5.40012">
        <ele>882.8</ele>
      </trkpt>
      <trkpt lat="44.05078" lon="5.40026">
        <ele>885.1</ele>
      </trkpt>
      <trkpt lat="44.05084" lon="5.40033">
        <ele>886</ele>
      </trkpt>
      <trkpt lat="44.05089" lon="5.40043">
        <ele>887.5</ele>
      </trkpt>
      <trkpt lat="44.05089" lon="5.40061">
        <ele>891.5</ele>
      </trkpt>
      <trkpt lat="44.05096" lon="5.40075">
        <ele>893.4</ele>
      </trkpt>
      <trkpt lat="44.05101" lon="5.40091">
        <ele>895.6</ele>
      </trkpt>
      <trkpt lat="44.05102" lon="5.40102">
        <ele>897.3</ele>
      </trkpt>
      <trkpt lat="44.05105" lon="5.40105">
        <ele>897.2</ele>
      </trkpt>
      <trkpt lat="44.05106" lon="5.40121">
        <ele>899.6</ele>
      </trkpt>
      <trkpt lat="44.05115" lon="5.4013">
        <ele>898.9</ele>
      </trkpt>
      <trkpt lat="44.05125" lon="5.4015">
        <ele>899.2</ele>
      </trkpt>
      <trkpt lat="44.05127" lon="5.4016">
        <ele>899.7</ele>
      </trkpt>
      <trkpt lat="44.05134" lon="5.40179">
        <ele>899.4</ele>
      </trkpt>
      <trkpt lat="44.05136" lon="5.40185">
        <ele>899.2</ele>
      </trkpt>
      <trkpt lat="44.05135" lon="5.40192">
        <ele>900.1</ele>
      </trkpt>
      <trkpt lat="44.05131" lon="5.40213">
        <ele>902.4</ele>
      </trkpt>
      <trkpt lat="44.05126" lon="5.40222">
        <ele>904.6</ele>
      </trkpt>
      <trkpt lat="44.05124" lon="5.40236">
        <ele>906.4</ele>
      </trkpt>
      <trkpt lat="44.05116" lon="5.4025">
        <ele>910.2</ele>
      </trkpt>
      <trkpt lat="44.05107" lon="5.40303">
        <ele>915.9</ele>
      </trkpt>
      <trkpt lat="44.05102" lon="5.40324">
        <ele>918.9</ele>
      </trkpt>
      <trkpt lat="44.05097" lon="5.40331">
        <ele>921.5</ele>
      </trkpt>
      <trkpt lat="44.05095" lon="5.40327">
        <ele>922.3</ele>
      </trkpt>
      <trkpt lat="44.05091" lon="5.40303">
        <ele>923.4</ele>
      </trkpt>
      <trkpt lat="44.05088" lon="5.40299">
        <ele>924.8</ele>
      </trkpt>
      <trkpt lat="44.05086" lon="5.40299">
        <ele>925.8</ele>
      </trkpt>
      <trkpt lat="44.05082" lon="5.40312">
        <ele>927.9</ele>
      </trkpt>
      <trkpt lat="44.05077" lon="5.40326">
        <ele>930.6</ele>
      </trkpt>
      <trkpt lat="44.05068" lon="5.40339">
        <ele>934.3</ele>
      </trkpt>
      <trkpt lat="44.05059" lon="5.40358">
        <ele>936.8</ele>
      </trkpt>
      <trkpt lat="44.0505" lon="5.40374">
        <ele>938.6</ele>
      </trkpt>
      <trkpt lat="44.05043" lon="5.40382">
        <ele>940</ele>
      </trkpt>
      <trkpt lat="44.05034" lon="5.40388">
        <ele>942.1</ele>
      </trkpt>
      <trkpt lat="44.04976" lon="5.40406">
        <ele>955.1</ele>
      </trkpt>
      <trkpt lat="44.04951" lon="5.40407">
        <ele>961.1</ele>
      </trkpt>
      <trkpt lat="44.04945" lon="5.40403">
        <ele>963.3</ele>
      </trkpt>
      <trkpt lat="44.04938" lon="5.40401">
        <ele>965.7</ele>
      </trkpt>
      <trkpt lat="44.04875" lon="5.40438">
        <ele>977.2</ele>
      		<extensions>
      		  <visugpx:TrkExtension xmlns:visugpx="https://www.visugpx.com/editgpx/">
      		    <visugpx:node>15</visugpx:node>
      		  </visugpx:TrkExtension>
      		</extensions>
      </trkpt>
      <trkpt lat="44.04856" lon="5.40456">
        <ele>980.8</ele>
      </trkpt>
      <trkpt lat="44.04845" lon="5.40483">
        <ele>984.5</ele>
      </trkpt>
      <trkpt lat="44.04837" lon="5.40497">
        <ele>986.6</ele>
      </trkpt>
      <trkpt lat="44.04817" lon="5.40508">
        <ele>991.2</ele>
      </trkpt>
      <trkpt lat="44.04795" lon="5.40507">
        <ele>995.6</ele>
      </trkpt>
      <trkpt lat="44.04762" lon="5.40527">
        <ele>1003.1</ele>
      </trkpt>
      <trkpt lat="44.04744" lon="5.40521">
        <ele>1005.8</ele>
      </trkpt>
      <trkpt lat="44.04705" lon="5.40513">
        <ele>1013.1</ele>
      </trkpt>
      <trkpt lat="44.04689" lon="5.40501">
        <ele>1016.5</ele>
      </trkpt>
      <trkpt lat="44.04649" lon="5.4051">
        <ele>1018.8</ele>
      </trkpt>
      <trkpt lat="44.04627" lon="5.40509">
        <ele>1019.1</ele>
      </trkpt>
      <trkpt lat="44.04601" lon="5.40504">
        <ele>1018.9</ele>
      </trkpt>
      <trkpt lat="44.04581" lon="5.40497">
        <ele>1019.1</ele>
      </trkpt>
      <trkpt lat="44.04566" lon="5.405">
        <ele>1019</ele>
      </trkpt>
      <trkpt lat="44.04555" lon="5.40494">
        <ele>1019.2</ele>
      </trkpt>
      <trkpt lat="44.04562" lon="5.4051">
        <ele>1018.6</ele>
      </trkpt>
      <trkpt lat="44.04562" lon="5.40511">
        <ele>1018.6</ele>
      		<extensions>
      		  <visugpx:TrkExtension xmlns:visugpx="https://www.visugpx.com/editgpx/">
      		    <visugpx:node>16</visugpx:node>
      		  </visugpx:TrkExtension>
      		</extensions>
      </trkpt>
      <trkpt lat="44.04562" lon="5.4051">
        <ele>1018.6</ele>
      </trkpt>
      <trkpt lat="44.04555" lon="5.40494">
        <ele>1019.2</ele>
      </trkpt>
      <trkpt lat="44.04548" lon="5.40486">
        <ele>1019.8</ele>
      </trkpt>
      <trkpt lat="44.0454" lon="5.40479">
        <ele>1020.3</ele>
      </trkpt>
      <trkpt lat="44.0452" lon="5.40445">
        <ele>1020.3</ele>
      </trkpt>
      <trkpt lat="44.04495" lon="5.40422">
        <ele>1019.7</ele>
      </trkpt>
      <trkpt lat="44.04474" lon="5.40408">
        <ele>1019.9</ele>
      </trkpt>
      <trkpt lat="44.04463" lon="5.40393">
        <ele>1018.9</ele>
      </trkpt>
      <trkpt lat="44.04421" lon="5.40352">
        <ele>1013.4</ele>
      </trkpt>
      <trkpt lat="44.04411" lon="5.40342">
        <ele>1012.7</ele>
      </trkpt>
      <trkpt lat="44.04404" lon="5.40332">
        <ele>1010.3</ele>
      </trkpt>
      <trkpt lat="44.044" lon="5.40328">
        <ele>1008.9</ele>
      </trkpt>
      <trkpt lat="44.04394" lon="5.40326">
        <ele>1008.7</ele>
      </trkpt>
      <trkpt lat="44.04376" lon="5.40314">
        <ele>1003.6</ele>
      </trkpt>
      <trkpt lat="44.04351" lon="5.40299">
        <ele>994.4</ele>
      </trkpt>
      <trkpt lat="44.0434" lon="5.40298">
        <ele>992.3</ele>
      </trkpt>
      <trkpt lat="44.04329" lon="5.40294">
        <ele>989.5</ele>
      </trkpt>
      <trkpt lat="44.04316" lon="5.40286">
        <ele>985.7</ele>
      </trkpt>
      <trkpt lat="44.04256" lon="5.40257">
        <ele>970.4</ele>
      </trkpt>
      <trkpt lat="44.04236" lon="5.4025">
        <ele>966</ele>
      </trkpt>
      <trkpt lat="44.04222" lon="5.40241">
        <ele>962.1</ele>
      </trkpt>
      <trkpt lat="44.04217" lon="5.40238">
        <ele>960.7</ele>
      </trkpt>
      <trkpt lat="44.04214" lon="5.4023">
        <ele>957.9</ele>
      </trkpt>
      <trkpt lat="44.04202" lon="5.40222">
        <ele>954.5</ele>
      </trkpt>
      <trkpt lat="44.042" lon="5.4021">
        <ele>950.4</ele>
      </trkpt>
      <trkpt lat="44.04203" lon="5.40204">
        <ele>948.5</ele>
      </trkpt>
      <trkpt lat="44.04204" lon="5.402">
        <ele>947.2</ele>
      </trkpt>
      <trkpt lat="44.04196" lon="5.40187">
        <ele>942.4</ele>
      </trkpt>
      <trkpt lat="44.04181" lon="5.40183">
        <ele>939.7</ele>
      </trkpt>
      <trkpt lat="44.0418" lon="5.40178">
        <ele>937.7</ele>
      </trkpt>
      <trkpt lat="44.04186" lon="5.4017">
        <ele>935.3</ele>
      </trkpt>
      <trkpt lat="44.04185" lon="5.40166">
        <ele>933.7</ele>
      </trkpt>
      <trkpt lat="44.04176" lon="5.40159">
        <ele>929.8</ele>
      </trkpt>
      <trkpt lat="44.04157" lon="5.4015">
        <ele>925.1</ele>
      </trkpt>
      <trkpt lat="44.04143" lon="5.4014">
        <ele>920.6</ele>
      </trkpt>
      <trkpt lat="44.0414" lon="5.40135">
        <ele>918.6</ele>
      </trkpt>
      <trkpt lat="44.04125" lon="5.40126">
        <ele>915.6</ele>
      </trkpt>
      <trkpt lat="44.04101" lon="5.40102">
        <ele>908.7</ele>
      </trkpt>
      <trkpt lat="44.04099" lon="5.40079">
        <ele>901.1</ele>
      </trkpt>
      <trkpt lat="44.04091" lon="5.40057">
        <ele>894.9</ele>
      </trkpt>
      <trkpt lat="44.04086" lon="5.40045">
        <ele>890.9</ele>
      </trkpt>
      <trkpt lat="44.04036" lon="5.39996">
        <ele>878.9</ele>
      </trkpt>
      <trkpt lat="44.04026" lon="5.39976">
        <ele>872.8</ele>
      </trkpt>
      <trkpt lat="44.04001" lon="5.39936">
        <ele>863</ele>
      </trkpt>
      <trkpt lat="44.03992" lon="5.3991">
        <ele>857</ele>
      </trkpt>
      <trkpt lat="44.03983" lon="5.39892">
        <ele>854.5</ele>
      </trkpt>
      <trkpt lat="44.03982" lon="5.39879">
        <ele>852.5</ele>
      </trkpt>
      <trkpt lat="44.0399" lon="5.39839">
        <ele>847.2</ele>
      </trkpt>
      <trkpt lat="44.03988" lon="5.39816">
        <ele>845.3</ele>
      </trkpt>
      <trkpt lat="44.03991" lon="5.39805">
        <ele>844.3</ele>
      </trkpt>
      <trkpt lat="44.03996" lon="5.39791">
        <ele>843.1</ele>
      </trkpt>
      <trkpt lat="44.04" lon="5.39762">
        <ele>839.2</ele>
      </trkpt>
      <trkpt lat="44.04003" lon="5.39728">
        <ele>833.5</ele>
      </trkpt>
      <trkpt lat="44.03998" lon="5.39729">
        <ele>834.1</ele>
      		<extensions>
      		  <visugpx:TrkExtension xmlns:visugpx="https://www.visugpx.com/editgpx/">
      		    <visugpx:node>17</visugpx:node>
      		  </visugpx:TrkExtension>
      		</extensions>
      </trkpt>
      <trkpt lat="44.04003" lon="5.39728">
        <ele>833.5</ele>
      </trkpt>
      <trkpt lat="44.04036" lon="5.39726">
        <ele>829.6</ele>
      </trkpt>
      <trkpt lat="44.04043" lon="5.39721">
        <ele>828.2</ele>
      </trkpt>
      <trkpt lat="44.04045" lon="5.39716">
        <ele>827.2</ele>
      </trkpt>
      <trkpt lat="44.04046" lon="5.39712">
        <ele>826.4</ele>
      </trkpt>
      <trkpt lat="44.04043" lon="5.39651">
        <ele>822.3</ele>
      </trkpt>
      <trkpt lat="44.04058" lon="5.39564">
        <ele>821.3</ele>
      </trkpt>
      <trkpt lat="44.04059" lon="5.3956">
        <ele>821.1</ele>
      </trkpt>
      <trkpt lat="44.04061" lon="5.39561">
        <ele>821.1</ele>
      		<extensions>
      		  <visugpx:TrkExtension xmlns:visugpx="https://www.visugpx.com/editgpx/">
      		    <visugpx:node>18</visugpx:node>
      		  </visugpx:TrkExtension>
      		</extensions>
      </trkpt>
      <trkpt lat="44.04059" lon="5.3956">
        <ele>821.1</ele>
      </trkpt>
      <trkpt lat="44.0406" lon="5.39557">
        <ele>821</ele>
      </trkpt>
      <trkpt lat="44.04074" lon="5.39498">
        <ele>824.5</ele>
      </trkpt>
      <trkpt lat="44.04075" lon="5.39493">
        <ele>824.9</ele>
      </trkpt>
      <trkpt lat="44.04073" lon="5.39491">
        <ele>824.9</ele>
      </trkpt>
      <trkpt lat="44.04074" lon="5.39478">
        <ele>825.9</ele>
      		<extensions>
      		  <visugpx:TrkExtension xmlns:visugpx="https://www.visugpx.com/editgpx/">
      		    <visugpx:node>19</visugpx:node>
      		  </visugpx:TrkExtension>
      		</extensions>
      </trkpt>
      <trkpt lat="44.04073" lon="5.39491">
        <ele>824.9</ele>
      </trkpt>
      <trkpt lat="44.0407" lon="5.39489">
        <ele>824.8</ele>
      </trkpt>
      <trkpt lat="44.0402" lon="5.39466">
        <ele>824.2</ele>
      </trkpt>
      <trkpt lat="44.03982" lon="5.39435">
        <ele>824.6</ele>
      </trkpt>
      <trkpt lat="44.03967" lon="5.39424">
        <ele>824.5</ele>
      </trkpt>
      <trkpt lat="44.03875" lon="5.3938">
        <ele>820.8</ele>
      </trkpt>
      <trkpt lat="44.03861" lon="5.39364">
        <ele>820</ele>
      </trkpt>
      <trkpt lat="44.03838" lon="5.39331">
        <ele>817.4</ele>
      </trkpt>
      <trkpt lat="44.03836" lon="5.39328">
        <ele>817.1</ele>
      		<extensions>
      		  <visugpx:TrkExtension xmlns:visugpx="https://www.visugpx.com/editgpx/">
      		    <visugpx:node>20</visugpx:node>
      		  </visugpx:TrkExtension>
      		</extensions>
      </trkpt>
      <trkpt lat="44.03835" lon="5.39327">
        <ele>817</ele>
      </trkpt>
      <trkpt lat="44.03835" lon="5.39314">
        <ele>816.5</ele>
      </trkpt>
      <trkpt lat="44.03832" lon="5.39314">
        <ele>816.3</ele>
      </trkpt>
      <trkpt lat="44.03729" lon="5.39297">
        <ele>820.1</ele>
      </trkpt>
      <trkpt lat="44.03705" lon="5.39291">
        <ele>821.1</ele>
      </trkpt>
      <trkpt lat="44.03675" lon="5.39278">
        <ele>822.7</ele>
      </trkpt>
      <trkpt lat="44.03616" lon="5.39251">
        <ele>825.8</ele>
      </trkpt>
      <trkpt lat="44.03608" lon="5.39268">
        <ele>824.7</ele>
      </trkpt>
      <trkpt lat="44.03591" lon="5.39307">
        <ele>823.4</ele>
      </trkpt>
      <trkpt lat="44.03568" lon="5.39356">
        <ele>824.1</ele>
      </trkpt>
      <trkpt lat="44.03561" lon="5.39358">
        <ele>824.5</ele>
      		<extensions>
      		  <visugpx:TrkExtension xmlns:visugpx="https://www.visugpx.com/editgpx/">
      		    <visugpx:node>21</visugpx:node>
      		  </visugpx:TrkExtension>
      		</extensions>
      </trkpt>
      <trkpt lat="44.0356" lon="5.39358">
        <ele>824.6</ele>
      </trkpt>
      <trkpt lat="44.03543" lon="5.39362">
        <ele>825.4</ele>
      </trkpt>
      <trkpt lat="44.03513" lon="5.39363">
        <ele>826.5</ele>
      </trkpt>
      <trkpt lat="44.0348" lon="5.39369">
        <ele>827.7</ele>
      </trkpt>
      <trkpt lat="44.03463" lon="5.39369">
        <ele>828.3</ele>
      </trkpt>
      <trkpt lat="44.03395" lon="5.39382">
        <ele>831.4</ele>
      </trkpt>
      <trkpt lat="44.03369" lon="5.39396">
        <ele>832.7</ele>
      </trkpt>
      <trkpt lat="44.03336" lon="5.39409">
        <ele>834.6</ele>
      </trkpt>
      <trkpt lat="44.03283" lon="5.39434">
        <ele>836.8</ele>
      </trkpt>
      <trkpt lat="44.03223" lon="5.39468">
        <ele>840.8</ele>
      </trkpt>
      <trkpt lat="44.03208" lon="5.39473">
        <ele>841.5</ele>
      </trkpt>
      <trkpt lat="44.03203" lon="5.39472">
        <ele>841.7</ele>
      </trkpt>
      <trkpt lat="44.03199" lon="5.3948">
        <ele>842.1</ele>
      </trkpt>
      <trkpt lat="44.03193" lon="5.39488">
        <ele>842.6</ele>
      		<extensions>
      		  <visugpx:TrkExtension xmlns:visugpx="https://www.visugpx.com/editgpx/">
      		    <visugpx:node>22</visugpx:node>
      		  </visugpx:TrkExtension>
      		</extensions>
      </trkpt>
      <trkpt lat="44.03192" lon="5.39489">
        <ele>842.7</ele>
      </trkpt>
      <trkpt lat="44.0317" lon="5.39509">
        <ele>844.2</ele>
      </trkpt>
      <trkpt lat="44.03141" lon="5.39539">
        <ele>846.7</ele>
      </trkpt>
      <trkpt lat="44.03091" lon="5.39597">
        <ele>853.4</ele>
      </trkpt>
      <trkpt lat="44.03045" lon="5.39641">
        <ele>857.1</ele>
      </trkpt>
      <trkpt lat="44.03004" lon="5.39688">
        <ele>861.2</ele>
      </trkpt>
      <trkpt lat="44.03001" lon="5.39692">
        <ele>861.1</ele>
      </trkpt>
      <trkpt lat="44.02998" lon="5.39693">
        <ele>861.5</ele>
      </trkpt>
      <trkpt lat="44.02987" lon="5.39698">
        <ele>863.4</ele>
      </trkpt>
      <trkpt lat="44.02984" lon="5.39701">
        <ele>863.9</ele>
      </trkpt>
      <trkpt lat="44.02973" lon="5.39729">
        <ele>863.1</ele>
      </trkpt>
      <trkpt lat="44.02972" lon="5.39737">
        <ele>863.1</ele>
      </trkpt>
      <trkpt lat="44.02973" lon="5.39746">
        <ele>863.2</ele>
      </trkpt>
      <trkpt lat="44.03013" lon="5.39853">
        <ele>870.7</ele>
      </trkpt>
      <trkpt lat="44.03031" lon="5.39917">
        <ele>872.1</ele>
      </trkpt>
      <trkpt lat="44.03057" lon="5.39978">
        <ele>876.1</ele>
      </trkpt>
      <trkpt lat="44.03063" lon="5.4">
        <ele>879.5</ele>
      </trkpt>
      <trkpt lat="44.03072" lon="5.4005">
        <ele>880.8</ele>
      </trkpt>
      <trkpt lat="44.03078" lon="5.40068">
        <ele>880.7</ele>
      </trkpt>
      <trkpt lat="44.03079" lon="5.40082">
        <ele>880.5</ele>
      </trkpt>
      <trkpt lat="44.03067" lon="5.40208">
        <ele>891.1</ele>
      		<extensions>
      		  <visugpx:TrkExtension xmlns:visugpx="https://www.visugpx.com/editgpx/">
      		    <visugpx:node>23</visugpx:node>
      		  </visugpx:TrkExtension>
      		</extensions>
      </trkpt>
      <trkpt lat="44.03066" lon="5.40213">
        <ele>891.5</ele>
      </trkpt>
      <trkpt lat="44.03066" lon="5.40244">
        <ele>893</ele>
      </trkpt>
      <trkpt lat="44.03069" lon="5.40273">
        <ele>894.3</ele>
      </trkpt>
      <trkpt lat="44.03083" lon="5.40352">
        <ele>898.6</ele>
      </trkpt>
      <trkpt lat="44.03087" lon="5.40364">
        <ele>901.3</ele>
      </trkpt>
      <trkpt lat="44.03093" lon="5.40374">
        <ele>904</ele>
      </trkpt>
      <trkpt lat="44.03108" lon="5.40386">
        <ele>902.9</ele>
      </trkpt>
      <trkpt lat="44.03171" lon="5.40458">
        <ele>912.6</ele>
      </trkpt>
      <trkpt lat="44.03207" lon="5.4053">
        <ele>919.3</ele>
      </trkpt>
      <trkpt lat="44.03288" lon="5.40666">
        <ele>924.1</ele>
      </trkpt>
      <trkpt lat="44.03298" lon="5.40678">
        <ele>925</ele>
      </trkpt>
      <trkpt lat="44.03309" lon="5.40688">
        <ele>925.5</ele>
      </trkpt>
      <trkpt lat="44.03349" lon="5.40706">
        <ele>927.7</ele>
      </trkpt>
      <trkpt lat="44.03378" lon="5.40722">
        <ele>929.6</ele>
      </trkpt>
      <trkpt lat="44.0339" lon="5.40731">
        <ele>929.2</ele>
      </trkpt>
      <trkpt lat="44.03405" lon="5.40734">
        <ele>929.6</ele>
      </trkpt>
      <trkpt lat="44.03416" lon="5.40739">
        <ele>930.6</ele>
      </trkpt>
      <trkpt lat="44.03428" lon="5.40749">
        <ele>931.3</ele>
      </trkpt>
      <trkpt lat="44.03455" lon="5.40776">
        <ele>934.5</ele>
      </trkpt>
      <trkpt lat="44.03469" lon="5.40784">
        <ele>935</ele>
      </trkpt>
      <trkpt lat="44.03486" lon="5.40801">
        <ele>937.6</ele>
      </trkpt>
      <trkpt lat="44.03531" lon="5.40827">
        <ele>939.8</ele>
      </trkpt>
      <trkpt lat="44.03592" lon="5.4089">
        <ele>944.7</ele>
      </trkpt>
      <trkpt lat="44.03631" lon="5.40924">
        <ele>947.5</ele>
      </trkpt>
      <trkpt lat="44.03642" lon="5.40937">
        <ele>948</ele>
      </trkpt>
      <trkpt lat="44.03653" lon="5.40957">
        <ele>949.2</ele>
      </trkpt>
      <trkpt lat="44.03688" lon="5.41024">
        <ele>953</ele>
      </trkpt>
      <trkpt lat="44.03698" lon="5.41057">
        <ele>955.3</ele>
      </trkpt>
      <trkpt lat="44.03702" lon="5.41079">
        <ele>956.4</ele>
      </trkpt>
      <trkpt lat="44.03704" lon="5.41127">
        <ele>958.3</ele>
      </trkpt>
      <trkpt lat="44.03702" lon="5.41161">
        <ele>960.3</ele>
      </trkpt>
      <trkpt lat="44.03693" lon="5.41236">
        <ele>963.5</ele>
      </trkpt>
      <trkpt lat="44.03674" lon="5.41303">
        <ele>967.4</ele>
      </trkpt>
      <trkpt lat="44.03674" lon="5.41345">
        <ele>969</ele>
      </trkpt>
      <trkpt lat="44.03676" lon="5.41372">
        <ele>970.6</ele>
      </trkpt>
      <trkpt lat="44.0368" lon="5.41392">
        <ele>972</ele>
      </trkpt>
      <trkpt lat="44.03687" lon="5.41417">
        <ele>973.4</ele>
      </trkpt>
      <trkpt lat="44.03698" lon="5.41444">
        <ele>974.3</ele>
      </trkpt>
      <trkpt lat="44.03729" lon="5.41501">
        <ele>977.7</ele>
      </trkpt>
      <trkpt lat="44.03741" lon="5.41533">
        <ele>979.9</ele>
      </trkpt>
      <trkpt lat="44.03742" lon="5.41545">
        <ele>980.2</ele>
      </trkpt>
      <trkpt lat="44.03742" lon="5.41557">
        <ele>980.7</ele>
      </trkpt>
      <trkpt lat="44.03739" lon="5.41567">
        <ele>981.1</ele>
      </trkpt>
      <trkpt lat="44.0372" lon="5.41606">
        <ele>983.8</ele>
      </trkpt>
      <trkpt lat="44.03716" lon="5.41618">
        <ele>984.2</ele>
      </trkpt>
      <trkpt lat="44.03716" lon="5.41642">
        <ele>983.9</ele>
      </trkpt>
      <trkpt lat="44.03713" lon="5.41651">
        <ele>985.2</ele>
      </trkpt>
      <trkpt lat="44.03714" lon="5.41665">
        <ele>985.6</ele>
      </trkpt>
      <trkpt lat="44.03714" lon="5.4168">
        <ele>986.5</ele>
      </trkpt>
      <trkpt lat="44.03717" lon="5.41695">
        <ele>986.5</ele>
      </trkpt>
      <trkpt lat="44.03718" lon="5.41708">
        <ele>987.2</ele>
      </trkpt>
      <trkpt lat="44.03718" lon="5.41722">
        <ele>988.2</ele>
      </trkpt>
      <trkpt lat="44.03711" lon="5.41751">
        <ele>990.3</ele>
      </trkpt>
      <trkpt lat="44.03697" lon="5.41795">
        <ele>993.3</ele>
      </trkpt>
      <trkpt lat="44.03696" lon="5.41804">
        <ele>993.1</ele>
      		<extensions>
      		  <visugpx:TrkExtension xmlns:visugpx="https://www.visugpx.com/editgpx/">
      		    <visugpx:node>24</visugpx:node>
      		  </visugpx:TrkExtension>
      		</extensions>
      </trkpt>
      <trkpt lat="44.03695" lon="5.41812">
        <ele>993.5</ele>
      </trkpt>
      <trkpt lat="44.037" lon="5.41812">
        <ele>993.8</ele>
      </trkpt>
      <trkpt lat="44.03716" lon="5.41813">
        <ele>994.7</ele>
      </trkpt>
      <trkpt lat="44.03725" lon="5.41808">
        <ele>995</ele>
      </trkpt>
      <trkpt lat="44.03743" lon="5.41793">
        <ele>996.6</ele>
      </trkpt>
      <trkpt lat="44.03757" lon="5.41774">
        <ele>996.1</ele>
      </trkpt>
      <trkpt lat="44.03764" lon="5.41773">
        <ele>996.8</ele>
      </trkpt>
      <trkpt lat="44.0377" lon="5.4177">
        <ele>997.3</ele>
      </trkpt>
      <trkpt lat="44.03792" lon="5.41753">
        <ele>998.9</ele>
      </trkpt>
      <trkpt lat="44.03826" lon="5.41719">
        <ele>999.1</ele>
      </trkpt>
      <trkpt lat="44.0383" lon="5.41716">
        <ele>999.1</ele>
      </trkpt>
      <trkpt lat="44.03835" lon="5.41714">
        <ele>999.2</ele>
      </trkpt>
      <trkpt lat="44.03869" lon="5.41704">
        <ele>1000.6</ele>
      </trkpt>
      <trkpt lat="44.03887" lon="5.41701">
        <ele>1001.6</ele>
      </trkpt>
      <trkpt lat="44.03928" lon="5.41699">
        <ele>1004.3</ele>
      </trkpt>
      <trkpt lat="44.04067" lon="5.41695">
        <ele>1014.9</ele>
      </trkpt>
      <trkpt lat="44.04139" lon="5.41693">
        <ele>1018.7</ele>
      </trkpt>
      <trkpt lat="44.04166" lon="5.41691">
        <ele>1019.5</ele>
      </trkpt>
      <trkpt lat="44.04183" lon="5.41703">
        <ele>1021.4</ele>
      </trkpt>
      <trkpt lat="44.04201" lon="5.41722">
        <ele>1025.2</ele>
      </trkpt>
      <trkpt lat="44.04232" lon="5.41763">
        <ele>1032.6</ele>
      </trkpt>
      <trkpt lat="44.04235" lon="5.41774">
        <ele>1034.4</ele>
      </trkpt>
      <trkpt lat="44.04251" lon="5.41795">
        <ele>1037.3</ele>
      </trkpt>
      <trkpt lat="44.0426" lon="5.41815">
        <ele>1039.5</ele>
      </trkpt>
      <trkpt lat="44.0427" lon="5.41841">
        <ele>1041.4</ele>
      </trkpt>
      <trkpt lat="44.04291" lon="5.41877">
        <ele>1041.5</ele>
      </trkpt>
      <trkpt lat="44.04294" lon="5.41885">
        <ele>1041.4</ele>
      </trkpt>
      <trkpt lat="44.04291" lon="5.41892">
        <ele>1041.5</ele>
      </trkpt>
      <trkpt lat="44.04292" lon="5.41894">
        <ele>1041.4</ele>
      		<extensions>
      		  <visugpx:TrkExtension xmlns:visugpx="https://www.visugpx.com/editgpx/">
      		    <visugpx:node>25</visugpx:node>
      		  </visugpx:TrkExtension>
      		</extensions>
      </trkpt>
      <trkpt lat="44.04291" lon="5.41892">
        <ele>1041.5</ele>
      </trkpt>
      <trkpt lat="44.04294" lon="5.41885">
        <ele>1041.4</ele>
      </trkpt>
      <trkpt lat="44.04357" lon="5.41794">
        <ele>1039.6</ele>
      </trkpt>
      <trkpt lat="44.0438" lon="5.41764">
        <ele>1038.8</ele>
      </trkpt>
      <trkpt lat="44.04485" lon="5.41683">
        <ele>1035.1</ele>
      </trkpt>
      <trkpt lat="44.04542" lon="5.41646">
        <ele>1033</ele>
      </trkpt>
      <trkpt lat="44.04565" lon="5.41634">
        <ele>1032.5</ele>
      </trkpt>
      <trkpt lat="44.0471" lon="5.41543">
        <ele>1031</ele>
      </trkpt>
      <trkpt lat="44.04763" lon="5.41514">
        <ele>1031.2</ele>
      </trkpt>
      <trkpt lat="44.04855" lon="5.41465">
        <ele>1033.2</ele>
      </trkpt>
      <trkpt lat="44.04859" lon="5.41478">
        <ele>1032.8</ele>
      		<extensions>
      		  <visugpx:TrkExtension xmlns:visugpx="https://www.visugpx.com/editgpx/">
      		    <visugpx:node>26</visugpx:node>
      		  </visugpx:TrkExtension>
      		</extensions>
      </trkpt>
      <trkpt lat="44.04879" lon="5.41539">
        <ele>1028.3</ele>
      </trkpt>
      <trkpt lat="44.04884" lon="5.41545">
        <ele>1027.4</ele>
      </trkpt>
      <trkpt lat="44.04901" lon="5.41552">
        <ele>1026</ele>
      </trkpt>
      <trkpt lat="44.04914" lon="5.41562">
        <ele>1024.2</ele>
      </trkpt>
      <trkpt lat="44.04939" lon="5.41576">
        <ele>1020.7</ele>
      </trkpt>
      <trkpt lat="44.04956" lon="5.41583">
        <ele>1018.2</ele>
      </trkpt>
      <trkpt lat="44.04987" lon="5.41603">
        <ele>1011.9</ele>
      </trkpt>
      <trkpt lat="44.04993" lon="5.41609">
        <ele>1010.1</ele>
      </trkpt>
      <trkpt lat="44.05001" lon="5.41621">
        <ele>1007.3</ele>
      </trkpt>
      <trkpt lat="44.05025" lon="5.4164">
        <ele>1005.6</ele>
      </trkpt>
      <trkpt lat="44.05035" lon="5.41662">
        <ele>1005.2</ele>
      </trkpt>
      <trkpt lat="44.05051" lon="5.41707">
        <ele>1005.6</ele>
      </trkpt>
      <trkpt lat="44.05054" lon="5.41732">
        <ele>1003.4</ele>
      </trkpt>
      <trkpt lat="44.05055" lon="5.41751">
        <ele>1001.7</ele>
      </trkpt>
      <trkpt lat="44.05053" lon="5.41762">
        <ele>999.8</ele>
      </trkpt>
      <trkpt lat="44.05048" lon="5.41843">
        <ele>989.5</ele>
      </trkpt>
      <trkpt lat="44.05037" lon="5.41888">
        <ele>981.7</ele>
      </trkpt>
      <trkpt lat="44.05036" lon="5.4191">
        <ele>978.2</ele>
      </trkpt>
      <trkpt lat="44.05029" lon="5.41958">
        <ele>970</ele>
      </trkpt>
      <trkpt lat="44.05029" lon="5.42011">
        <ele>963.9</ele>
      </trkpt>
      <trkpt lat="44.05027" lon="5.42049">
        <ele>957.7</ele>
      </trkpt>
      <trkpt lat="44.05025" lon="5.42056">
        <ele>956.2</ele>
      </trkpt>
      <trkpt lat="44.05019" lon="5.42066">
        <ele>953.2</ele>
      </trkpt>
      <trkpt lat="44.05016" lon="5.42072">
        <ele>951.6</ele>
      </trkpt>
      <trkpt lat="44.0501" lon="5.42155">
        <ele>938.7</ele>
      </trkpt>
      <trkpt lat="44.05011" lon="5.42167">
        <ele>937.5</ele>
      </trkpt>
      <trkpt lat="44.05012" lon="5.42175">
        <ele>936.5</ele>
      </trkpt>
      <trkpt lat="44.05027" lon="5.42206">
        <ele>935.8</ele>
      </trkpt>
      <trkpt lat="44.05043" lon="5.42245">
        <ele>933.5</ele>
      </trkpt>
      <trkpt lat="44.05046" lon="5.42257">
        <ele>933</ele>
      </trkpt>
      <trkpt lat="44.05047" lon="5.42264">
        <ele>932.4</ele>
      </trkpt>
      <trkpt lat="44.05043" lon="5.42257">
        <ele>931.7</ele>
      </trkpt>
      <trkpt lat="44.05019" lon="5.42243">
        <ele>925.4</ele>
      </trkpt>
      <trkpt lat="44.04999" lon="5.42244">
        <ele>920.8</ele>
      </trkpt>
      <trkpt lat="44.04992" lon="5.42248">
        <ele>921.3</ele>
      </trkpt>
      <trkpt lat="44.04988" lon="5.42252">
        <ele>921.6</ele>
      </trkpt>
      <trkpt lat="44.04992" lon="5.42273">
        <ele>919.6</ele>
      </trkpt>
      <trkpt lat="44.04993" lon="5.423">
        <ele>918</ele>
      </trkpt>
      <trkpt lat="44.04998" lon="5.4232">
        <ele>915.3</ele>
      </trkpt>
      <trkpt lat="44.05005" lon="5.42377">
        <ele>911.4</ele>
      </trkpt>
      <trkpt lat="44.05025" lon="5.42509">
        <ele>900.4</ele>
      </trkpt>
      <trkpt lat="44.05032" lon="5.42524">
        <ele>898.9</ele>
      </trkpt>
      <trkpt lat="44.05054" lon="5.42551">
        <ele>895.4</ele>
      </trkpt>
      <trkpt lat="44.05072" lon="5.42565">
        <ele>895.2</ele>
      </trkpt>
      <trkpt lat="44.05107" lon="5.426">
        <ele>891.9</ele>
      </trkpt>
      <trkpt lat="44.05168" lon="5.42668">
        <ele>885.3</ele>
      </trkpt>
      <trkpt lat="44.05194" lon="5.42707">
        <ele>882.2</ele>
      </trkpt>
      <trkpt lat="44.05244" lon="5.42806">
        <ele>875.6</ele>
      </trkpt>
      <trkpt lat="44.05271" lon="5.42864">
        <ele>873.4</ele>
      </trkpt>
      <trkpt lat="44.0529" lon="5.42911">
        <ele>870.9</ele>
      </trkpt>
      <trkpt lat="44.0531" lon="5.42981">
        <ele>864.8</ele>
      </trkpt>
      <trkpt lat="44.05331" lon="5.4309">
        <ele>857.4</ele>
      </trkpt>
      <trkpt lat="44.05333" lon="5.43097">
        <ele>856.6</ele>
      		<extensions>
      		  <visugpx:TrkExtension xmlns:visugpx="https://www.visugpx.com/editgpx/">
      		    <visugpx:node>27</visugpx:node>
      		  </visugpx:TrkExtension>
      		</extensions>
      </trkpt>
      <trkpt lat="44.05334" lon="5.43106">
        <ele>855.8</ele>
      </trkpt>
      <trkpt lat="44.05334" lon="5.43137">
        <ele>853.3</ele>
      </trkpt>
      <trkpt lat="44.05336" lon="5.43153">
        <ele>852.6</ele>
      </trkpt>
      <trkpt lat="44.05347" lon="5.43189">
        <ele>851.4</ele>
      </trkpt>
      <trkpt lat="44.05348" lon="5.43203">
        <ele>850</ele>
      </trkpt>
      <trkpt lat="44.05345" lon="5.43217">
        <ele>848.2</ele>
      </trkpt>
      <trkpt lat="44.05345" lon="5.43226">
        <ele>847.3</ele>
      </trkpt>
      <trkpt lat="44.0535" lon="5.43238">
        <ele>846.3</ele>
      </trkpt>
      <trkpt lat="44.05357" lon="5.43247">
        <ele>845.4</ele>
      </trkpt>
      <trkpt lat="44.05387" lon="5.43259">
        <ele>843.1</ele>
      </trkpt>
      <trkpt lat="44.05405" lon="5.43263">
        <ele>842.7</ele>
      </trkpt>
      <trkpt lat="44.05454" lon="5.43266">
        <ele>841.7</ele>
      </trkpt>
      <trkpt lat="44.05481" lon="5.43244">
        <ele>839.7</ele>
      </trkpt>
      <trkpt lat="44.05495" lon="5.43241">
        <ele>839.7</ele>
      </trkpt>
      <trkpt lat="44.05508" lon="5.43235">
        <ele>839.9</ele>
      </trkpt>
      <trkpt lat="44.05515" lon="5.43227">
        <ele>839.5</ele>
      </trkpt>
      <trkpt lat="44.05524" lon="5.43211">
        <ele>838.6</ele>
      </trkpt>
      <trkpt lat="44.05529" lon="5.43185">
        <ele>837.8</ele>
      </trkpt>
      <trkpt lat="44.05533" lon="5.43179">
        <ele>838.2</ele>
      </trkpt>
      <trkpt lat="44.05548" lon="5.43167">
        <ele>836.9</ele>
      </trkpt>
      <trkpt lat="44.05563" lon="5.43152">
        <ele>836.9</ele>
      </trkpt>
      <trkpt lat="44.05582" lon="5.43124">
        <ele>835.1</ele>
      </trkpt>
      <trkpt lat="44.05604" lon="5.4308">
        <ele>833.5</ele>
      </trkpt>
      <trkpt lat="44.05613" lon="5.43071">
        <ele>833.2</ele>
      </trkpt>
      <trkpt lat="44.05628" lon="5.43062">
        <ele>832.6</ele>
      </trkpt>
      <trkpt lat="44.05722" lon="5.43053">
        <ele>828</ele>
      </trkpt>
      <trkpt lat="44.05731" lon="5.43048">
        <ele>827.7</ele>
      </trkpt>
      <trkpt lat="44.05742" lon="5.43034">
        <ele>827.3</ele>
      </trkpt>
      <trkpt lat="44.05752" lon="5.43026">
        <ele>827.2</ele>
      </trkpt>
      <trkpt lat="44.05775" lon="5.43017">
        <ele>826.3</ele>
      </trkpt>
      <trkpt lat="44.05856" lon="5.42967">
        <ele>823.4</ele>
      </trkpt>
      <trkpt lat="44.05869" lon="5.42955">
        <ele>824.2</ele>
      </trkpt>
      <trkpt lat="44.05877" lon="5.42952">
        <ele>823.3</ele>
      </trkpt>
      <trkpt lat="44.05888" lon="5.42951">
        <ele>821.6</ele>
      </trkpt>
      <trkpt lat="44.05901" lon="5.42953">
        <ele>821.9</ele>
      </trkpt>
      <trkpt lat="44.05913" lon="5.42949">
        <ele>821.6</ele>
      </trkpt>
      <trkpt lat="44.0592" lon="5.42949">
        <ele>822.1</ele>
      </trkpt>
      <trkpt lat="44.05929" lon="5.42953">
        <ele>823.3</ele>
      </trkpt>
      <trkpt lat="44.05944" lon="5.42969">
        <ele>820</ele>
      </trkpt>
      <trkpt lat="44.05953" lon="5.42976">
        <ele>819.7</ele>
      </trkpt>
      <trkpt lat="44.05961" lon="5.42978">
        <ele>819.8</ele>
      </trkpt>
      <trkpt lat="44.05968" lon="5.42976">
        <ele>819.4</ele>
      </trkpt>
      <trkpt lat="44.05988" lon="5.42966">
        <ele>819.1</ele>
      </trkpt>
      <trkpt lat="44.05993" lon="5.42966">
        <ele>818.6</ele>
      </trkpt>
      <trkpt lat="44.0601" lon="5.42979">
        <ele>818.1</ele>
      </trkpt>
      <trkpt lat="44.06029" lon="5.43004">
        <ele>816.6</ele>
      </trkpt>
      <trkpt lat="44.06041" lon="5.43017">
        <ele>816.8</ele>
      </trkpt>
      <trkpt lat="44.06054" lon="5.43024">
        <ele>815</ele>
      </trkpt>
      <trkpt lat="44.06062" lon="5.43025">
        <ele>814.8</ele>
      </trkpt>
      <trkpt lat="44.06072" lon="5.43024">
        <ele>814.7</ele>
      </trkpt>
      <trkpt lat="44.06085" lon="5.4302">
        <ele>814.6</ele>
      </trkpt>
      <trkpt lat="44.06108" lon="5.43005">
        <ele>813.1</ele>
      </trkpt>
      <trkpt lat="44.0612" lon="5.43003">
        <ele>813.1</ele>
      </trkpt>
      <trkpt lat="44.06139" lon="5.42992">
        <ele>813</ele>
      </trkpt>
      <trkpt lat="44.06172" lon="5.42981">
        <ele>813.5</ele>
      </trkpt>
      <trkpt lat="44.06177" lon="5.42976">
        <ele>813</ele>
      </trkpt>
      <trkpt lat="44.06188" lon="5.4296">
        <ele>812</ele>
      </trkpt>
      <trkpt lat="44.06198" lon="5.42941">
        <ele>809.9</ele>
      </trkpt>
      <trkpt lat="44.06251" lon="5.42877">
        <ele>807.1</ele>
      </trkpt>
      <trkpt lat="44.0628" lon="5.42846">
        <ele>806.5</ele>
      </trkpt>
      <trkpt lat="44.06288" lon="5.42842">
        <ele>806.3</ele>
      </trkpt>
      <trkpt lat="44.0631" lon="5.42842">
        <ele>805.5</ele>
      </trkpt>
      <trkpt lat="44.06331" lon="5.42839">
        <ele>804.7</ele>
      </trkpt>
      <trkpt lat="44.06344" lon="5.4284">
        <ele>804.5</ele>
      </trkpt>
      <trkpt lat="44.06365" lon="5.4284">
        <ele>804.2</ele>
      </trkpt>
      <trkpt lat="44.06403" lon="5.42816">
        <ele>802.6</ele>
      </trkpt>
      <trkpt lat="44.06441" lon="5.42776">
        <ele>800.2</ele>
      </trkpt>
      <trkpt lat="44.06464" lon="5.42755">
        <ele>800.3</ele>
      </trkpt>
      <trkpt lat="44.06477" lon="5.42736">
        <ele>799.3</ele>
      </trkpt>
      <trkpt lat="44.06502" lon="5.42703">
        <ele>797.5</ele>
      </trkpt>
      <trkpt lat="44.06515" lon="5.42678">
        <ele>797.9</ele>
      </trkpt>
      <trkpt lat="44.0654" lon="5.42655">
        <ele>797.1</ele>
      </trkpt>
      <trkpt lat="44.06563" lon="5.42641">
        <ele>796.2</ele>
      </trkpt>
      <trkpt lat="44.0657" lon="5.42633">
        <ele>796.1</ele>
      </trkpt>
      <trkpt lat="44.06596" lon="5.42596">
        <ele>794.5</ele>
      </trkpt>
      <trkpt lat="44.06608" lon="5.42569">
        <ele>793.1</ele>
      </trkpt>
      <trkpt lat="44.06624" lon="5.42542">
        <ele>794.1</ele>
      </trkpt>
      <trkpt lat="44.06644" lon="5.42526">
        <ele>791.9</ele>
      </trkpt>
      <trkpt lat="44.06713" lon="5.42458">
        <ele>790.3</ele>
      </trkpt>
      <trkpt lat="44.06715" lon="5.42455">
        <ele>790.1</ele>
      </trkpt>
      <trkpt lat="44.06719" lon="5.42448">
        <ele>789.1</ele>
      </trkpt>
      <trkpt lat="44.06732" lon="5.4243">
        <ele>789.3</ele>
      </trkpt>
      <trkpt lat="44.06742" lon="5.42413">
        <ele>788.7</ele>
      </trkpt>
      <trkpt lat="44.0675" lon="5.4239">
        <ele>787</ele>
      </trkpt>
      <trkpt lat="44.06783" lon="5.42358">
        <ele>786.4</ele>
      </trkpt>
      <trkpt lat="44.0679" lon="5.42353">
        <ele>786.7</ele>
      </trkpt>
      <trkpt lat="44.06804" lon="5.42349">
        <ele>785.2</ele>
      </trkpt>
      <trkpt lat="44.06829" lon="5.42332">
        <ele>784.3</ele>
      </trkpt>
      <trkpt lat="44.0685" lon="5.42331">
        <ele>783.5</ele>
      </trkpt>
      <trkpt lat="44.06859" lon="5.42326">
        <ele>783.1</ele>
      </trkpt>
      <trkpt lat="44.06884" lon="5.42306">
        <ele>782.3</ele>
      </trkpt>
      <trkpt lat="44.06911" lon="5.42275">
        <ele>781.3</ele>
      </trkpt>
      <trkpt lat="44.06976" lon="5.42212">
        <ele>781.1</ele>
      </trkpt>
      <trkpt lat="44.06985" lon="5.42206">
        <ele>781</ele>
      </trkpt>
      <trkpt lat="44.07008" lon="5.42202">
        <ele>778.3</ele>
      </trkpt>
      <trkpt lat="44.07042" lon="5.42173">
        <ele>777.6</ele>
      </trkpt>
      <trkpt lat="44.07061" lon="5.42162">
        <ele>776.8</ele>
      </trkpt>
      <trkpt lat="44.07084" lon="5.42143">
        <ele>776</ele>
      </trkpt>
      <trkpt lat="44.07102" lon="5.42124">
        <ele>776.6</ele>
      </trkpt>
      <trkpt lat="44.07162" lon="5.4207">
        <ele>773.9</ele>
      </trkpt>
      <trkpt lat="44.07172" lon="5.42065">
        <ele>773.1</ele>
      </trkpt>
      <trkpt lat="44.07196" lon="5.42063">
        <ele>772</ele>
      </trkpt>
      <trkpt lat="44.07212" lon="5.42058">
        <ele>771.5</ele>
      </trkpt>
      <trkpt lat="44.07234" lon="5.42053">
        <ele>771.3</ele>
      </trkpt>
      <trkpt lat="44.07246" lon="5.42049">
        <ele>771.2</ele>
      </trkpt>
      <trkpt lat="44.07273" lon="5.4203">
        <ele>770.4</ele>
      </trkpt>
      <trkpt lat="44.07366" lon="5.41957">
        <ele>768.6</ele>
      </trkpt>
      <trkpt lat="44.07463" lon="5.41889">
        <ele>766</ele>
      </trkpt>
      <trkpt lat="44.07506" lon="5.41863">
        <ele>765.2</ele>
      </trkpt>
      <trkpt lat="44.07569" lon="5.41835">
        <ele>766.5</ele>
      </trkpt>
      <trkpt lat="44.07583" lon="5.41825">
        <ele>766.5</ele>
      </trkpt>
      <trkpt lat="44.07598" lon="5.41812">
        <ele>767.7</ele>
      </trkpt>
      <trkpt lat="44.07606" lon="5.41802">
        <ele>767.7</ele>
      </trkpt>
      <trkpt lat="44.07631" lon="5.41758">
        <ele>766.4</ele>
      </trkpt>
      <trkpt lat="44.07653" lon="5.41747">
        <ele>767.6</ele>
      </trkpt>
      <trkpt lat="44.07672" lon="5.41744">
        <ele>768.9</ele>
      </trkpt>
      <trkpt lat="44.07682" lon="5.41738">
        <ele>769.2</ele>
      </trkpt>
      <trkpt lat="44.07726" lon="5.41694">
        <ele>771.7</ele>
      </trkpt>
      <trkpt lat="44.07769" lon="5.41675">
        <ele>774.2</ele>
      </trkpt>
      <trkpt lat="44.0787" lon="5.41662">
        <ele>780.5</ele>
      </trkpt>
      <trkpt lat="44.07923" lon="5.41643">
        <ele>783.4</ele>
      </trkpt>
      <trkpt lat="44.08101" lon="5.41563">
        <ele>789.6</ele>
      </trkpt>
      <trkpt lat="44.08135" lon="5.41549">
        <ele>790.6</ele>
      </trkpt>
      <trkpt lat="44.08142" lon="5.4154">
        <ele>790.6</ele>
      </trkpt>
      <trkpt lat="44.08148" lon="5.41541">
        <ele>790.8</ele>
      </trkpt>
      <trkpt lat="44.08157" lon="5.41541">
        <ele>791.1</ele>
      </trkpt>
      <trkpt lat="44.08254" lon="5.4152">
        <ele>789.9</ele>
      </trkpt>
      <trkpt lat="44.08264" lon="5.41526">
        <ele>789.5</ele>
      </trkpt>
      <trkpt lat="44.08277" lon="5.41518">
        <ele>789.4</ele>
      </trkpt>
      <trkpt lat="44.08298" lon="5.41506">
        <ele>788.3</ele>
      </trkpt>
      <trkpt lat="44.08488" lon="5.41424">
        <ele>770.1</ele>
      </trkpt>
      <trkpt lat="44.08465" lon="5.41461">
        <ele>772.3</ele>
      		<extensions>
      		  <visugpx:TrkExtension xmlns:visugpx="https://www.visugpx.com/editgpx/">
      		    <visugpx:node>28</visugpx:node>
      		  </visugpx:TrkExtension>
      		</extensions>
      </trkpt>
      <trkpt lat="44.08488" lon="5.41424">
        <ele>770.1</ele>
      </trkpt>
      <trkpt lat="44.08514" lon="5.41412">
        <ele>767</ele>
      </trkpt>
      <trkpt lat="44.08533" lon="5.41402">
        <ele>764.5</ele>
      </trkpt>
      <trkpt lat="44.08555" lon="5.41388">
        <ele>762</ele>
      </trkpt>
      <trkpt lat="44.08583" lon="5.41347">
        <ele>755.5</ele>
      </trkpt>
      <trkpt lat="44.08599" lon="5.41274">
        <ele>746</ele>
      </trkpt>
      <trkpt lat="44.08609" lon="5.41241">
        <ele>740.3</ele>
      </trkpt>
      <trkpt lat="44.08624" lon="5.41176">
        <ele>731.8</ele>
      </trkpt>
      <trkpt lat="44.08634" lon="5.41153">
        <ele>728.4</ele>
      </trkpt>
      <trkpt lat="44.08676" lon="5.41096">
        <ele>720.2</ele>
      </trkpt>
      <trkpt lat="44.08695" lon="5.41074">
        <ele>715.8</ele>
      </trkpt>
      <trkpt lat="44.08706" lon="5.41051">
        <ele>714.7</ele>
      </trkpt>
      <trkpt lat="44.08713" lon="5.41044">
        <ele>713.2</ele>
      </trkpt>
      <trkpt lat="44.08734" lon="5.41033">
        <ele>708.1</ele>
      </trkpt>
      <trkpt lat="44.08746" lon="5.41024">
        <ele>705.7</ele>
      </trkpt>
      <trkpt lat="44.08776" lon="5.40996">
        <ele>700.1</ele>
      </trkpt>
      <trkpt lat="44.088" lon="5.40961">
        <ele>699.1</ele>
      </trkpt>
      <trkpt lat="44.08811" lon="5.40951">
        <ele>698.5</ele>
      </trkpt>
      <trkpt lat="44.08816" lon="5.40945">
        <ele>698.8</ele>
      </trkpt>
      <trkpt lat="44.08819" lon="5.40945">
        <ele>699</ele>
      </trkpt>
      <trkpt lat="44.08828" lon="5.40951">
        <ele>700</ele>
      </trkpt>
      <trkpt lat="44.08837" lon="5.40954">
        <ele>701.1</ele>
      </trkpt>
      <trkpt lat="44.0887" lon="5.40957">
        <ele>705.8</ele>
      </trkpt>
      <trkpt lat="44.08876" lon="5.40963">
        <ele>707.5</ele>
      </trkpt>
      <trkpt lat="44.08882" lon="5.40965">
        <ele>708.8</ele>
      </trkpt>
      <trkpt lat="44.0889" lon="5.40965">
        <ele>710.2</ele>
      </trkpt>
      <trkpt lat="44.0895" lon="5.40939">
        <ele>719.5</ele>
      </trkpt>
      <trkpt lat="44.08967" lon="5.40932">
        <ele>723.2</ele>
      </trkpt>
      <trkpt lat="44.08986" lon="5.40925">
        <ele>726.9</ele>
      </trkpt>
      <trkpt lat="44.09052" lon="5.40914">
        <ele>742.6</ele>
      </trkpt>
      <trkpt lat="44.09057" lon="5.40917">
        <ele>743.6</ele>
      </trkpt>
      <trkpt lat="44.09078" lon="5.40941">
        <ele>751.2</ele>
      </trkpt>
      <trkpt lat="44.09082" lon="5.40943">
        <ele>751.8</ele>
      </trkpt>
      <trkpt lat="44.09087" lon="5.40943">
        <ele>753</ele>
      </trkpt>
      <trkpt lat="44.09096" lon="5.40942">
        <ele>755.2</ele>
      </trkpt>
      <trkpt lat="44.09101" lon="5.40941">
        <ele>756.5</ele>
      </trkpt>
      <trkpt lat="44.09103" lon="5.40936">
        <ele>757</ele>
      </trkpt>
      <trkpt lat="44.09103" lon="5.40931">
        <ele>757.1</ele>
      </trkpt>
      <trkpt lat="44.09101" lon="5.40915">
        <ele>756.9</ele>
      </trkpt>
      <trkpt lat="44.09098" lon="5.40898">
        <ele>757.1</ele>
      </trkpt>
      <trkpt lat="44.09098" lon="5.40892">
        <ele>757.4</ele>
      </trkpt>
      <trkpt lat="44.091" lon="5.40895">
        <ele>757.5</ele>
      </trkpt>
      <trkpt lat="44.09102" lon="5.40897">
        <ele>757.7</ele>
      </trkpt>
      <trkpt lat="44.09108" lon="5.409">
        <ele>758.5</ele>
      </trkpt>
      <trkpt lat="44.09125" lon="5.40905">
        <ele>761</ele>
      </trkpt>
      <trkpt lat="44.09126" lon="5.40905">
        <ele>761.1</ele>
      </trkpt>
      <trkpt lat="44.09127" lon="5.40903">
        <ele>761.3</ele>
      </trkpt>
      <trkpt lat="44.09127" lon="5.40885">
        <ele>761.4</ele>
      </trkpt>
      <trkpt lat="44.0913" lon="5.40858">
        <ele>762.3</ele>
      </trkpt>
      <trkpt lat="44.09131" lon="5.40854">
        <ele>762.4</ele>
      </trkpt>
      <trkpt lat="44.09133" lon="5.40854">
        <ele>762.5</ele>
      </trkpt>
      <trkpt lat="44.09133" lon="5.40851">
        <ele>762.5</ele>
      </trkpt>
      <trkpt lat="44.09139" lon="5.40835">
        <ele>763</ele>
      </trkpt>
      <trkpt lat="44.09142" lon="5.40821">
        <ele>761.6</ele>
      </trkpt>
      <trkpt lat="44.09153" lon="5.40823">
        <ele>761.6</ele>
      </trkpt>
      <trkpt lat="44.09156" lon="5.40822">
        <ele>761.4</ele>
      </trkpt>
      <trkpt lat="44.09155" lon="5.40815">
        <ele>760.8</ele>
      </trkpt>
      <trkpt lat="44.09155" lon="5.40804">
        <ele>759.9</ele>
      </trkpt>
      <trkpt lat="44.09157" lon="5.40804">
        <ele>759.9</ele>
      </trkpt>
      <trkpt lat="44.09167" lon="5.40801">
        <ele>759.8</ele>
      </trkpt>
      <trkpt lat="44.09169" lon="5.408">
        <ele>759.9</ele>
      </trkpt>
      <trkpt lat="44.09171" lon="5.40801">
        <ele>760</ele>
      </trkpt>
      <trkpt lat="44.09173" lon="5.40804">
        <ele>760.2</ele>
      </trkpt>
      <trkpt lat="44.09174" lon="5.40808">
        <ele>760.4</ele>
      </trkpt>
      <trkpt lat="44.09177" lon="5.40811">
        <ele>760.8</ele>
      </trkpt>
      <trkpt lat="44.09182" lon="5.4081">
        <ele>760.9</ele>
      </trkpt>
      <trkpt lat="44.0919" lon="5.4081">
        <ele>761.2</ele>
      </trkpt>
      <trkpt lat="44.09197" lon="5.40809">
        <ele>761.2</ele>
      </trkpt>
      <trkpt lat="44.09209" lon="5.40809">
        <ele>761.2</ele>
      </trkpt>
      <trkpt lat="44.09213" lon="5.40817">
        <ele>761.8</ele>
      </trkpt>
      <trkpt lat="44.09215" lon="5.40822">
        <ele>762.2</ele>
      </trkpt>
      <trkpt lat="44.09223" lon="5.40833">
        <ele>762.9</ele>
      </trkpt>
      <trkpt lat="44.09227" lon="5.40831">
        <ele>762.7</ele>
      </trkpt>
      <trkpt lat="44.09277" lon="5.40825">
        <ele>761.4</ele>
      </trkpt>
      <trkpt lat="44.09311" lon="5.40823">
        <ele>761</ele>
      		<extensions>
      		  <visugpx:TrkExtension xmlns:visugpx="https://www.visugpx.com/editgpx/">
      		    <visugpx:node>29</visugpx:node>
      		  </visugpx:TrkExtension>
      		</extensions>
      </trkpt>
    </trkseg>
  </trk>
</gpx>