<?xml version="1.0" encoding="UTF-8"?>
<gpx creator="StravaGPX" version="1.1" xmlns="http://www.topografix.com/GPX/1/1" xmlns:xsi="http://www.w3.org/2001/XMLSchema-instance" xsi:schemaLocation="http://www.topografix.com/GPX/1/1 http://www.topografix.com/GPX/1/1/gpx.xsd">
 <metadata>
  <name>TRAIL DU PATY 25K</name>
  <author>
   <name>Vincent Buisson | RunPassionFr</name>
   <link href="https://www.strava.com/athletes/6649008"/>
  </author>
  <copyright author="OpenStreetMap contributors">
   <year>2020</year>
   <license>https://www.openstreetmap.org/copyright</license>
  </copyright>
  <link href="https://www.strava.com/routes/3477303021406430814"/>
 </metadata>
 <trk>
  <name>TRAIL DU PATY 25K</name>
  <link href="https://www.strava.com/routes/3477303021406430814"/>
  <type>trail_running</type>
  <trkseg>
   <trkpt lat="44.13456" lon="5.11544">
    <ele>301.86</ele>
   </trkpt>
   <trkpt lat="44.1349" lon="5.115670000000001">
    <ele>302.29</ele>
   </trkpt>
   <trkpt lat="44.135000000000005" lon="5.1157200000000005">
    <ele>302.59000000000003</ele>
   </trkpt>
   <trkpt lat="44.13544" lon="5.1158">
    <ele>304.85</ele>
   </trkpt>
   <trkpt lat="44.135670000000005" lon="5.1157900000000005">
    <ele>306.27000000000004</ele>
   </trkpt>
   <trkpt lat="44.135960000000004" lon="5.11571">
    <ele>309.23</ele>
   </trkpt>
   <trkpt lat="44.136050000000004" lon="5.1157200000000005">
    <ele>310.99000000000007</ele>
   </trkpt>
   <trkpt lat="44.13611" lon="5.115690000000001">
    <ele>310.99000000000007</ele>
   </trkpt>
   <trkpt lat="44.13613" lon="5.115640000000001">
    <ele>313.61</ele>
   </trkpt>
   <trkpt lat="44.136120000000005" lon="5.1155800000000005">
    <ele>313.61</ele>
   </trkpt>
   <trkpt lat="44.135920000000006" lon="5.11516">
    <ele>316.97</ele>
   </trkpt>
   <trkpt lat="44.13584" lon="5.11491">
    <ele>318.49000000000007</ele>
   </trkpt>
   <trkpt lat="44.13584" lon="5.1147100000000005">
    <ele>319.82000000000005</ele>
   </trkpt>
   <trkpt lat="44.135960000000004" lon="5.1149700000000005">
    <ele>319.21999999999997</ele>
   </trkpt>
   <trkpt lat="44.13606" lon="5.11514">
    <ele>318.71999999999997</ele>
   </trkpt>
   <trkpt lat="44.136280000000006" lon="5.11545">
    <ele>316.93000000000006</ele>
   </trkpt>
   <trkpt lat="44.13637000000001" lon="5.11554">
    <ele>316.62</ele>
   </trkpt>
   <trkpt lat="44.13647" lon="5.11561">
    <ele>316.37000000000006</ele>
   </trkpt>
   <trkpt lat="44.13693000000001" lon="5.11577">
    <ele>316.14000000000004</ele>
   </trkpt>
   <trkpt lat="44.137260000000005" lon="5.115970000000001">
    <ele>315.43000000000006</ele>
   </trkpt>
   <trkpt lat="44.13805000000001" lon="5.1162600000000005">
    <ele>316.3</ele>
   </trkpt>
   <trkpt lat="44.138560000000005" lon="5.11657">
    <ele>318.02000000000004</ele>
   </trkpt>
   <trkpt lat="44.13879" lon="5.116770000000001">
    <ele>318.58000000000004</ele>
   </trkpt>
   <trkpt lat="44.13902" lon="5.116910000000001">
    <ele>319.06</ele>
   </trkpt>
   <trkpt lat="44.139160000000004" lon="5.117030000000001">
    <ele>319.23</ele>
   </trkpt>
   <trkpt lat="44.13951" lon="5.11744">
    <ele>320.91</ele>
   </trkpt>
   <trkpt lat="44.13969" lon="5.11761">
    <ele>321.78000000000003</ele>
   </trkpt>
   <trkpt lat="44.139810000000004" lon="5.11767">
    <ele>322.86</ele>
   </trkpt>
   <trkpt lat="44.140060000000005" lon="5.117730000000001">
    <ele>325.08000000000004</ele>
   </trkpt>
   <trkpt lat="44.14014" lon="5.11779">
    <ele>326.09000000000003</ele>
   </trkpt>
   <trkpt lat="44.140730000000005" lon="5.11852">
    <ele>326.81000000000006</ele>
   </trkpt>
   <trkpt lat="44.140820000000005" lon="5.1187000000000005">
    <ele>327.06</ele>
   </trkpt>
   <trkpt lat="44.14088" lon="5.119000000000001">
    <ele>327.6</ele>
   </trkpt>
   <trkpt lat="44.140930000000004" lon="5.11894">
    <ele>328.66</ele>
   </trkpt>
   <trkpt lat="44.140950000000004" lon="5.1187000000000005">
    <ele>331.12</ele>
   </trkpt>
   <trkpt lat="44.141000000000005" lon="5.118600000000001">
    <ele>333.13000000000005</ele>
   </trkpt>
   <trkpt lat="44.141070000000006" lon="5.118550000000001">
    <ele>333.77</ele>
   </trkpt>
   <trkpt lat="44.14148" lon="5.11849">
    <ele>337.59</ele>
   </trkpt>
   <trkpt lat="44.14161000000001" lon="5.118410000000001">
    <ele>338.15</ele>
   </trkpt>
   <trkpt lat="44.141780000000004" lon="5.118390000000001">
    <ele>340.13000000000005</ele>
   </trkpt>
   <trkpt lat="44.14181000000001" lon="5.11836">
    <ele>340.13000000000005</ele>
   </trkpt>
   <trkpt lat="44.14182" lon="5.11835">
    <ele>340.13000000000005</ele>
   </trkpt>
   <trkpt lat="44.141830000000006" lon="5.11829">
    <ele>340.6</ele>
   </trkpt>
   <trkpt lat="44.1418" lon="5.11824">
    <ele>340.6</ele>
   </trkpt>
   <trkpt lat="44.141670000000005" lon="5.11812">
    <ele>342.1</ele>
   </trkpt>
   <trkpt lat="44.141510000000004" lon="5.117850000000001">
    <ele>345.24000000000007</ele>
   </trkpt>
   <trkpt lat="44.141420000000004" lon="5.11775">
    <ele>346.26</ele>
   </trkpt>
   <trkpt lat="44.14094" lon="5.117640000000001">
    <ele>353.56000000000006</ele>
   </trkpt>
   <trkpt lat="44.14085" lon="5.117500000000001">
    <ele>355.1</ele>
   </trkpt>
   <trkpt lat="44.140820000000005" lon="5.117260000000001">
    <ele>359.07000000000005</ele>
   </trkpt>
   <trkpt lat="44.14081" lon="5.1170100000000005">
    <ele>362.39000000000004</ele>
   </trkpt>
   <trkpt lat="44.14085" lon="5.11646">
    <ele>368.34000000000003</ele>
   </trkpt>
   <trkpt lat="44.14068" lon="5.11646">
    <ele>366.76000000000005</ele>
   </trkpt>
   <trkpt lat="44.1405" lon="5.11653">
    <ele>364.94000000000005</ele>
   </trkpt>
   <trkpt lat="44.14040000000001" lon="5.11653">
    <ele>364.14</ele>
   </trkpt>
   <trkpt lat="44.140330000000006" lon="5.1165">
    <ele>363.59000000000003</ele>
   </trkpt>
   <trkpt lat="44.140040000000006" lon="5.11608">
    <ele>360.87</ele>
   </trkpt>
   <trkpt lat="44.13991" lon="5.11594">
    <ele>359.98</ele>
   </trkpt>
   <trkpt lat="44.139405000278494" lon="5.115659997569977">
    <ele>357.38</ele>
   </trkpt>
   <trkpt lat="44.13890000000001" lon="5.11538">
    <ele>355.35</ele>
   </trkpt>
   <trkpt lat="44.138450000000006" lon="5.115060000000001">
    <ele>354.28000000000003</ele>
   </trkpt>
   <trkpt lat="44.138310000000004" lon="5.11493">
    <ele>354.16</ele>
   </trkpt>
   <trkpt lat="44.13808" lon="5.114610000000001">
    <ele>354.00000000000006</ele>
   </trkpt>
   <trkpt lat="44.13794" lon="5.114350000000001">
    <ele>353.09000000000003</ele>
   </trkpt>
   <trkpt lat="44.13774" lon="5.113770000000001">
    <ele>352.5</ele>
   </trkpt>
   <trkpt lat="44.1375" lon="5.1134">
    <ele>351.86</ele>
   </trkpt>
   <trkpt lat="44.13731000000001" lon="5.11298">
    <ele>350.72</ele>
   </trkpt>
   <trkpt lat="44.137010000000004" lon="5.112480000000001">
    <ele>349.66</ele>
   </trkpt>
   <trkpt lat="44.136750000000006" lon="5.112310000000001">
    <ele>348.96999999999997</ele>
   </trkpt>
   <trkpt lat="44.13645" lon="5.11202">
    <ele>347.66</ele>
   </trkpt>
   <trkpt lat="44.13602" lon="5.111750000000001">
    <ele>345.92</ele>
   </trkpt>
   <trkpt lat="44.135870000000004" lon="5.11171">
    <ele>344.66</ele>
   </trkpt>
   <trkpt lat="44.13575" lon="5.111700000000001">
    <ele>343.63000000000005</ele>
   </trkpt>
   <trkpt lat="44.13555" lon="5.11172">
    <ele>342.85</ele>
   </trkpt>
   <trkpt lat="44.13533" lon="5.111820000000001">
    <ele>342.62</ele>
   </trkpt>
   <trkpt lat="44.135220000000004" lon="5.11186">
    <ele>342.7</ele>
   </trkpt>
   <trkpt lat="44.135070000000006" lon="5.111820000000001">
    <ele>342.87</ele>
   </trkpt>
   <trkpt lat="44.134820000000005" lon="5.11162">
    <ele>342.73</ele>
   </trkpt>
   <trkpt lat="44.134460000000004" lon="5.111700000000001">
    <ele>342.15</ele>
   </trkpt>
   <trkpt lat="44.134220000000006" lon="5.111680000000001">
    <ele>342.31</ele>
   </trkpt>
   <trkpt lat="44.133990000000004" lon="5.11162">
    <ele>341.7</ele>
   </trkpt>
   <trkpt lat="44.13344" lon="5.111350000000001">
    <ele>337.04</ele>
   </trkpt>
   <trkpt lat="44.133320000000005" lon="5.111350000000001">
    <ele>335.44</ele>
   </trkpt>
   <trkpt lat="44.132760000000005" lon="5.11143">
    <ele>331.69000000000005</ele>
   </trkpt>
   <trkpt lat="44.132560000000005" lon="5.111090000000001">
    <ele>326.27</ele>
   </trkpt>
   <trkpt lat="44.13239" lon="5.1109800000000005">
    <ele>325.03000000000003</ele>
   </trkpt>
   <trkpt lat="44.132110000000004" lon="5.11096">
    <ele>322.12</ele>
   </trkpt>
   <trkpt lat="44.13192" lon="5.1108400000000005">
    <ele>319.70000000000005</ele>
   </trkpt>
   <trkpt lat="44.131820000000005" lon="5.11075">
    <ele>316.77000000000004</ele>
   </trkpt>
   <trkpt lat="44.13167000000001" lon="5.11021">
    <ele>315.23</ele>
   </trkpt>
   <trkpt lat="44.13156" lon="5.10995">
    <ele>313.90000000000003</ele>
   </trkpt>
   <trkpt lat="44.13139" lon="5.10972">
    <ele>312.0</ele>
   </trkpt>
   <trkpt lat="44.131310000000006" lon="5.10958">
    <ele>309.91</ele>
   </trkpt>
   <trkpt lat="44.131280000000004" lon="5.10942">
    <ele>308.71000000000004</ele>
   </trkpt>
   <trkpt lat="44.13132" lon="5.109100000000001">
    <ele>306.61000000000007</ele>
   </trkpt>
   <trkpt lat="44.131400000000006" lon="5.1089400000000005">
    <ele>305.81</ele>
   </trkpt>
   <trkpt lat="44.131400000000006" lon="5.10871">
    <ele>303.8</ele>
   </trkpt>
   <trkpt lat="44.130970000000005" lon="5.10778">
    <ele>293.87</ele>
   </trkpt>
   <trkpt lat="44.13089" lon="5.10751">
    <ele>290.76</ele>
   </trkpt>
   <trkpt lat="44.13089" lon="5.107410000000001">
    <ele>290.76</ele>
   </trkpt>
   <trkpt lat="44.13098" lon="5.10726">
    <ele>289.22</ele>
   </trkpt>
   <trkpt lat="44.13102000000001" lon="5.107150000000001">
    <ele>288.40999999999997</ele>
   </trkpt>
   <trkpt lat="44.131" lon="5.106940000000001">
    <ele>287.71000000000004</ele>
   </trkpt>
   <trkpt lat="44.130970000000005" lon="5.10686">
    <ele>287.42</ele>
   </trkpt>
   <trkpt lat="44.13076" lon="5.106680000000001">
    <ele>285.94</ele>
   </trkpt>
   <trkpt lat="44.13046000000001" lon="5.106380000000001">
    <ele>280.44</ele>
   </trkpt>
   <trkpt lat="44.13031" lon="5.106190000000001">
    <ele>277.64</ele>
   </trkpt>
   <trkpt lat="44.13024" lon="5.1059600000000005">
    <ele>276.2</ele>
   </trkpt>
   <trkpt lat="44.130300000000005" lon="5.10578">
    <ele>275.1</ele>
   </trkpt>
   <trkpt lat="44.13045" lon="5.10552">
    <ele>273.85</ele>
   </trkpt>
   <trkpt lat="44.13045" lon="5.10543">
    <ele>273.37</ele>
   </trkpt>
   <trkpt lat="44.12991" lon="5.104900000000001">
    <ele>263.21</ele>
   </trkpt>
   <trkpt lat="44.129870000000004" lon="5.104780000000001">
    <ele>262.68</ele>
   </trkpt>
   <trkpt lat="44.12995" lon="5.104500000000001">
    <ele>260.47</ele>
   </trkpt>
   <trkpt lat="44.129920000000006" lon="5.104360000000001">
    <ele>259.49</ele>
   </trkpt>
   <trkpt lat="44.12979000000001" lon="5.1039900000000005">
    <ele>255.70000000000005</ele>
   </trkpt>
   <trkpt lat="44.12962" lon="5.103540000000001">
    <ele>249.87</ele>
   </trkpt>
   <trkpt lat="44.129580000000004" lon="5.1033800000000005">
    <ele>249.87</ele>
   </trkpt>
   <trkpt lat="44.12951" lon="5.10334">
    <ele>248.01</ele>
   </trkpt>
   <trkpt lat="44.12952000000001" lon="5.10334">
    <ele>247.70000000000002</ele>
   </trkpt>
   <trkpt lat="44.129490000000004" lon="5.10334">
    <ele>247.45000000000002</ele>
   </trkpt>
   <trkpt lat="44.129470000000005" lon="5.103370000000001">
    <ele>247.00000000000003</ele>
   </trkpt>
   <trkpt lat="44.1295" lon="5.103680000000001">
    <ele>246.83</ele>
   </trkpt>
   <trkpt lat="44.129450000000006" lon="5.104">
    <ele>247.98000000000002</ele>
   </trkpt>
   <trkpt lat="44.12935" lon="5.1039900000000005">
    <ele>244.82</ele>
   </trkpt>
   <trkpt lat="44.12923000000001" lon="5.104030000000001">
    <ele>243.08</ele>
   </trkpt>
   <trkpt lat="44.129090000000005" lon="5.103980000000001">
    <ele>240.42000000000002</ele>
   </trkpt>
   <trkpt lat="44.12905000000001" lon="5.1039900000000005">
    <ele>240.42000000000002</ele>
   </trkpt>
   <trkpt lat="44.128960000000006" lon="5.104220000000001">
    <ele>239.13</ele>
   </trkpt>
   <trkpt lat="44.1289" lon="5.1043">
    <ele>238.71000000000004</ele>
   </trkpt>
   <trkpt lat="44.128840000000004" lon="5.104570000000001">
    <ele>238.06000000000003</ele>
   </trkpt>
   <trkpt lat="44.128820000000005" lon="5.10486">
    <ele>238.51000000000002</ele>
   </trkpt>
   <trkpt lat="44.12877" lon="5.10493">
    <ele>238.51000000000002</ele>
   </trkpt>
   <trkpt lat="44.12872" lon="5.105090000000001">
    <ele>238.25</ele>
   </trkpt>
   <trkpt lat="44.128690000000006" lon="5.1051400000000005">
    <ele>238.01000000000002</ele>
   </trkpt>
   <trkpt lat="44.12866" lon="5.1051400000000005">
    <ele>238.01000000000002</ele>
   </trkpt>
   <trkpt lat="44.12856" lon="5.1049500000000005">
    <ele>236.64000000000001</ele>
   </trkpt>
   <trkpt lat="44.128510000000006" lon="5.10494">
    <ele>236.64000000000001</ele>
   </trkpt>
   <trkpt lat="44.128080000000004" lon="5.105230000000001">
    <ele>234.33</ele>
   </trkpt>
   <trkpt lat="44.12803" lon="5.105230000000001">
    <ele>234.27</ele>
   </trkpt>
   <trkpt lat="44.12798" lon="5.105200000000001">
    <ele>234.3</ele>
   </trkpt>
   <trkpt lat="44.127930000000006" lon="5.1051400000000005">
    <ele>234.72</ele>
   </trkpt>
   <trkpt lat="44.12789" lon="5.105130000000001">
    <ele>235.12</ele>
   </trkpt>
   <trkpt lat="44.12785" lon="5.105180000000001">
    <ele>235.63</ele>
   </trkpt>
   <trkpt lat="44.12782000000001" lon="5.10527">
    <ele>235.63</ele>
   </trkpt>
   <trkpt lat="44.127810000000004" lon="5.105370000000001">
    <ele>237.36</ele>
   </trkpt>
   <trkpt lat="44.12782000000001" lon="5.1055600000000005">
    <ele>238.68000000000004</ele>
   </trkpt>
   <trkpt lat="44.12767" lon="5.105720000000001">
    <ele>242.52</ele>
   </trkpt>
   <trkpt lat="44.127660000000006" lon="5.105790000000001">
    <ele>243.43</ele>
   </trkpt>
   <trkpt lat="44.127680000000005" lon="5.105930000000001">
    <ele>244.95000000000002</ele>
   </trkpt>
   <trkpt lat="44.12763" lon="5.10613">
    <ele>247.46</ele>
   </trkpt>
   <trkpt lat="44.12765" lon="5.106190000000001">
    <ele>247.46</ele>
   </trkpt>
   <trkpt lat="44.12763" lon="5.106260000000001">
    <ele>248.76</ele>
   </trkpt>
   <trkpt lat="44.12754" lon="5.10637">
    <ele>250.98000000000002</ele>
   </trkpt>
   <trkpt lat="44.12745" lon="5.106540000000001">
    <ele>252.76000000000005</ele>
   </trkpt>
   <trkpt lat="44.127340000000004" lon="5.10665">
    <ele>254.22</ele>
   </trkpt>
   <trkpt lat="44.127300000000005" lon="5.106730000000001">
    <ele>254.63000000000002</ele>
   </trkpt>
   <trkpt lat="44.127300000000005" lon="5.10702">
    <ele>253.38</ele>
   </trkpt>
   <trkpt lat="44.127280000000006" lon="5.107080000000001">
    <ele>253.38</ele>
   </trkpt>
   <trkpt lat="44.12713" lon="5.10719">
    <ele>249.58</ele>
   </trkpt>
   <trkpt lat="44.126940000000005" lon="5.10777">
    <ele>240.57</ele>
   </trkpt>
   <trkpt lat="44.12677" lon="5.107710000000001">
    <ele>238.8</ele>
   </trkpt>
   <trkpt lat="44.126670000000004" lon="5.1077">
    <ele>237.55</ele>
   </trkpt>
   <trkpt lat="44.126310000000004" lon="5.107740000000001">
    <ele>234.57000000000002</ele>
   </trkpt>
   <trkpt lat="44.12601" lon="5.1077200000000005">
    <ele>233.51000000000002</ele>
   </trkpt>
   <trkpt lat="44.12568" lon="5.107600000000001">
    <ele>232.77000000000004</ele>
   </trkpt>
   <trkpt lat="44.12519" lon="5.1084000000000005">
    <ele>230.81</ele>
   </trkpt>
   <trkpt lat="44.125330000000005" lon="5.10845">
    <ele>230.62</ele>
   </trkpt>
   <trkpt lat="44.125400000000006" lon="5.1085">
    <ele>230.66000000000003</ele>
   </trkpt>
   <trkpt lat="44.1255" lon="5.10888">
    <ele>231.79000000000002</ele>
   </trkpt>
   <trkpt lat="44.125640000000004" lon="5.10927">
    <ele>232.96000000000004</ele>
   </trkpt>
   <trkpt lat="44.125910000000005" lon="5.10946">
    <ele>236.72</ele>
   </trkpt>
   <trkpt lat="44.125980000000006" lon="5.10956">
    <ele>237.24</ele>
   </trkpt>
   <trkpt lat="44.126050000000006" lon="5.10979">
    <ele>240.11</ele>
   </trkpt>
   <trkpt lat="44.126070000000006" lon="5.109800000000001">
    <ele>240.11</ele>
   </trkpt>
   <trkpt lat="44.12595" lon="5.109940000000001">
    <ele>241.31000000000003</ele>
   </trkpt>
   <trkpt lat="44.125890000000005" lon="5.10996">
    <ele>241.83</ele>
   </trkpt>
   <trkpt lat="44.12581" lon="5.1100200000000005">
    <ele>243.58</ele>
   </trkpt>
   <trkpt lat="44.125780000000006" lon="5.11007">
    <ele>244.84000000000003</ele>
   </trkpt>
   <trkpt lat="44.125690000000006" lon="5.110130000000001">
    <ele>247.69000000000003</ele>
   </trkpt>
   <trkpt lat="44.12557" lon="5.110110000000001">
    <ele>251.03000000000003</ele>
   </trkpt>
   <trkpt lat="44.1255" lon="5.11014">
    <ele>252.21000000000004</ele>
   </trkpt>
   <trkpt lat="44.125460000000004" lon="5.110200000000001">
    <ele>252.53000000000003</ele>
   </trkpt>
   <trkpt lat="44.12496" lon="5.110650000000001">
    <ele>253.96</ele>
   </trkpt>
   <trkpt lat="44.124930000000006" lon="5.11066">
    <ele>254.15000000000003</ele>
   </trkpt>
   <trkpt lat="44.12445" lon="5.11117">
    <ele>256.35</ele>
   </trkpt>
   <trkpt lat="44.124390000000005" lon="5.11122">
    <ele>257.24</ele>
   </trkpt>
   <trkpt lat="44.124370000000006" lon="5.11122">
    <ele>257.24</ele>
   </trkpt>
   <trkpt lat="44.12436" lon="5.1112400000000004">
    <ele>257.96000000000004</ele>
   </trkpt>
   <trkpt lat="44.124430000000004" lon="5.11146">
    <ele>260.84000000000003</ele>
   </trkpt>
   <trkpt lat="44.1244" lon="5.11155">
    <ele>262.76000000000005</ele>
   </trkpt>
   <trkpt lat="44.12431" lon="5.11171">
    <ele>262.71</ele>
   </trkpt>
   <trkpt lat="44.12422" lon="5.111800000000001">
    <ele>262.73</ele>
   </trkpt>
   <trkpt lat="44.124230000000004" lon="5.111840000000001">
    <ele>262.73</ele>
   </trkpt>
   <trkpt lat="44.124210000000005" lon="5.11193">
    <ele>264.06</ele>
   </trkpt>
   <trkpt lat="44.124" lon="5.11228">
    <ele>266.02000000000004</ele>
   </trkpt>
   <trkpt lat="44.12397000000001" lon="5.112360000000001">
    <ele>267.81000000000006</ele>
   </trkpt>
   <trkpt lat="44.123900000000006" lon="5.112690000000001">
    <ele>269.17</ele>
   </trkpt>
   <trkpt lat="44.123900000000006" lon="5.11294">
    <ele>272.41</ele>
   </trkpt>
   <trkpt lat="44.12393" lon="5.1131">
    <ele>273.82</ele>
   </trkpt>
   <trkpt lat="44.123990000000006" lon="5.113230000000001">
    <ele>275.33000000000004</ele>
   </trkpt>
   <trkpt lat="44.124080000000006" lon="5.11336">
    <ele>277.73</ele>
   </trkpt>
   <trkpt lat="44.124320000000004" lon="5.11352">
    <ele>284.6</ele>
   </trkpt>
   <trkpt lat="44.124550000000006" lon="5.11359">
    <ele>288.07000000000005</ele>
   </trkpt>
   <trkpt lat="44.12482000000001" lon="5.11378">
    <ele>293.89000000000004</ele>
   </trkpt>
   <trkpt lat="44.12507" lon="5.1137500000000005">
    <ele>296.65000000000003</ele>
   </trkpt>
   <trkpt lat="44.12539" lon="5.1140300000000005">
    <ele>303.34</ele>
   </trkpt>
   <trkpt lat="44.12568" lon="5.1142">
    <ele>308.25</ele>
   </trkpt>
   <trkpt lat="44.12592" lon="5.11533">
    <ele>321.02000000000004</ele>
   </trkpt>
   <trkpt lat="44.12599" lon="5.115410000000001">
    <ele>323.20000000000005</ele>
   </trkpt>
   <trkpt lat="44.12599" lon="5.11568">
    <ele>324.41</ele>
   </trkpt>
   <trkpt lat="44.12603" lon="5.11591">
    <ele>327.64000000000004</ele>
   </trkpt>
   <trkpt lat="44.12644" lon="5.11615">
    <ele>330.06</ele>
   </trkpt>
   <trkpt lat="44.126540000000006" lon="5.116250000000001">
    <ele>331.04</ele>
   </trkpt>
   <trkpt lat="44.12662" lon="5.116370000000001">
    <ele>332.73</ele>
   </trkpt>
   <trkpt lat="44.12671" lon="5.11669">
    <ele>335.96000000000004</ele>
   </trkpt>
   <trkpt lat="44.12682" lon="5.116910000000001">
    <ele>338.25000000000006</ele>
   </trkpt>
   <trkpt lat="44.12686" lon="5.117030000000001">
    <ele>340.17</ele>
   </trkpt>
   <trkpt lat="44.12689" lon="5.11725">
    <ele>341.33000000000004</ele>
   </trkpt>
   <trkpt lat="44.126870000000004" lon="5.117400000000001">
    <ele>341.33000000000004</ele>
   </trkpt>
   <trkpt lat="44.12689" lon="5.117520000000001">
    <ele>342.26</ele>
   </trkpt>
   <trkpt lat="44.127" lon="5.117730000000001">
    <ele>342.6</ele>
   </trkpt>
   <trkpt lat="44.127230000000004" lon="5.11788">
    <ele>341.93</ele>
   </trkpt>
   <trkpt lat="44.127370000000006" lon="5.1181">
    <ele>340.98</ele>
   </trkpt>
   <trkpt lat="44.127480000000006" lon="5.118320000000001">
    <ele>340.55</ele>
   </trkpt>
   <trkpt lat="44.12755000000001" lon="5.1184">
    <ele>340.55</ele>
   </trkpt>
   <trkpt lat="44.127590000000005" lon="5.11856">
    <ele>339.9200000000001</ele>
   </trkpt>
   <trkpt lat="44.127660000000006" lon="5.1186300000000005">
    <ele>339.9200000000001</ele>
   </trkpt>
   <trkpt lat="44.12773000000001" lon="5.11878">
    <ele>339.55</ele>
   </trkpt>
   <trkpt lat="44.12794" lon="5.118790000000001">
    <ele>339.14000000000004</ele>
   </trkpt>
   <trkpt lat="44.12798" lon="5.118880000000001">
    <ele>339.23</ele>
   </trkpt>
   <trkpt lat="44.12801" lon="5.1190500000000005">
    <ele>339.33000000000004</ele>
   </trkpt>
   <trkpt lat="44.128" lon="5.119350000000001">
    <ele>340.0</ele>
   </trkpt>
   <trkpt lat="44.128040000000006" lon="5.11974">
    <ele>340.58000000000004</ele>
   </trkpt>
   <trkpt lat="44.12807" lon="5.11981">
    <ele>340.76</ele>
   </trkpt>
   <trkpt lat="44.12816" lon="5.11988">
    <ele>341.22</ele>
   </trkpt>
   <trkpt lat="44.128220000000006" lon="5.119870000000001">
    <ele>341.81</ele>
   </trkpt>
   <trkpt lat="44.128260000000004" lon="5.119820000000001">
    <ele>341.81</ele>
   </trkpt>
   <trkpt lat="44.128330000000005" lon="5.119820000000001">
    <ele>342.49</ele>
   </trkpt>
   <trkpt lat="44.128420000000006" lon="5.11986">
    <ele>343.64</ele>
   </trkpt>
   <trkpt lat="44.12852" lon="5.1204">
    <ele>345.7</ele>
   </trkpt>
   <trkpt lat="44.1285" lon="5.120550000000001">
    <ele>345.7</ele>
   </trkpt>
   <trkpt lat="44.128640000000004" lon="5.1206700000000005">
    <ele>346.52000000000004</ele>
   </trkpt>
   <trkpt lat="44.12877" lon="5.12086">
    <ele>347.74000000000007</ele>
   </trkpt>
   <trkpt lat="44.12881" lon="5.12126">
    <ele>348.28000000000003</ele>
   </trkpt>
   <trkpt lat="44.12877" lon="5.121510000000001">
    <ele>348.24000000000007</ele>
   </trkpt>
   <trkpt lat="44.12881" lon="5.12166">
    <ele>348.43</ele>
   </trkpt>
   <trkpt lat="44.129070000000006" lon="5.12201">
    <ele>349.68000000000006</ele>
   </trkpt>
   <trkpt lat="44.129160000000006" lon="5.12208">
    <ele>350.16</ele>
   </trkpt>
   <trkpt lat="44.12923000000001" lon="5.1220300000000005">
    <ele>350.40000000000003</ele>
   </trkpt>
   <trkpt lat="44.12933" lon="5.122050000000001">
    <ele>350.95000000000005</ele>
   </trkpt>
   <trkpt lat="44.12944" lon="5.12199">
    <ele>351.96000000000004</ele>
   </trkpt>
   <trkpt lat="44.12977" lon="5.121720000000001">
    <ele>355.26</ele>
   </trkpt>
   <trkpt lat="44.129850000000005" lon="5.12155">
    <ele>356.17</ele>
   </trkpt>
   <trkpt lat="44.12991" lon="5.121530000000001">
    <ele>357.15000000000003</ele>
   </trkpt>
   <trkpt lat="44.12999000000001" lon="5.12154">
    <ele>357.85</ele>
   </trkpt>
   <trkpt lat="44.1304" lon="5.12129">
    <ele>361.38000000000005</ele>
   </trkpt>
   <trkpt lat="44.130590000000005" lon="5.1212800000000005">
    <ele>363.98</ele>
   </trkpt>
   <trkpt lat="44.13091" lon="5.121440000000001">
    <ele>367.53000000000003</ele>
   </trkpt>
   <trkpt lat="44.13107" lon="5.121460000000001">
    <ele>368.97</ele>
   </trkpt>
   <trkpt lat="44.13125" lon="5.1214">
    <ele>369.55</ele>
   </trkpt>
   <trkpt lat="44.13143" lon="5.121300000000001">
    <ele>370.76000000000005</ele>
   </trkpt>
   <trkpt lat="44.13163" lon="5.12108">
    <ele>372.78000000000003</ele>
   </trkpt>
   <trkpt lat="44.1317" lon="5.121040000000001">
    <ele>373.08000000000004</ele>
   </trkpt>
   <trkpt lat="44.131750000000004" lon="5.121060000000001">
    <ele>373.41</ele>
   </trkpt>
   <trkpt lat="44.13185000000001" lon="5.12103">
    <ele>374.42</ele>
   </trkpt>
   <trkpt lat="44.131930000000004" lon="5.121040000000001">
    <ele>374.71000000000004</ele>
   </trkpt>
   <trkpt lat="44.13204" lon="5.121130000000001">
    <ele>375.49000000000007</ele>
   </trkpt>
   <trkpt lat="44.13208" lon="5.121110000000001">
    <ele>375.82000000000005</ele>
   </trkpt>
   <trkpt lat="44.13212" lon="5.1211400000000005">
    <ele>376.24</ele>
   </trkpt>
   <trkpt lat="44.132180000000005" lon="5.121130000000001">
    <ele>377.42</ele>
   </trkpt>
   <trkpt lat="44.132220000000004" lon="5.121110000000001">
    <ele>377.42</ele>
   </trkpt>
   <trkpt lat="44.13232000000001" lon="5.12096">
    <ele>379.89</ele>
   </trkpt>
   <trkpt lat="44.13244" lon="5.12063">
    <ele>382.82000000000005</ele>
   </trkpt>
   <trkpt lat="44.132490000000004" lon="5.12063">
    <ele>383.42</ele>
   </trkpt>
   <trkpt lat="44.13257" lon="5.1207">
    <ele>385.43000000000006</ele>
   </trkpt>
   <trkpt lat="44.132630000000006" lon="5.120690000000001">
    <ele>385.43000000000006</ele>
   </trkpt>
   <trkpt lat="44.13273" lon="5.120520000000001">
    <ele>388.11</ele>
   </trkpt>
   <trkpt lat="44.132780000000004" lon="5.12047">
    <ele>388.11</ele>
   </trkpt>
   <trkpt lat="44.132960000000004" lon="5.12049">
    <ele>390.25000000000006</ele>
   </trkpt>
   <trkpt lat="44.13293" lon="5.120760000000001">
    <ele>391.76000000000005</ele>
   </trkpt>
   <trkpt lat="44.13291" lon="5.1208">
    <ele>391.97</ele>
   </trkpt>
   <trkpt lat="44.132760000000005" lon="5.120850000000001">
    <ele>391.18</ele>
   </trkpt>
   <trkpt lat="44.13270000000001" lon="5.12093">
    <ele>390.66</ele>
   </trkpt>
   <trkpt lat="44.132670000000005" lon="5.1211400000000005">
    <ele>389.44</ele>
   </trkpt>
   <trkpt lat="44.13261000000001" lon="5.121180000000001">
    <ele>385.25000000000006</ele>
   </trkpt>
   <trkpt lat="44.132540000000006" lon="5.121160000000001">
    <ele>385.25000000000006</ele>
   </trkpt>
   <trkpt lat="44.1323" lon="5.121230000000001">
    <ele>379.98</ele>
   </trkpt>
   <trkpt lat="44.1321" lon="5.12133">
    <ele>377.39</ele>
   </trkpt>
   <trkpt lat="44.13206" lon="5.12138">
    <ele>377.39</ele>
   </trkpt>
   <trkpt lat="44.13205000000001" lon="5.12145">
    <ele>374.89000000000004</ele>
   </trkpt>
   <trkpt lat="44.132020000000004" lon="5.12148">
    <ele>374.89000000000004</ele>
   </trkpt>
   <trkpt lat="44.13197" lon="5.12148">
    <ele>374.00000000000006</ele>
   </trkpt>
   <trkpt lat="44.131930000000004" lon="5.121510000000001">
    <ele>374.00000000000006</ele>
   </trkpt>
   <trkpt lat="44.131800000000005" lon="5.121720000000001">
    <ele>362.34000000000003</ele>
   </trkpt>
   <trkpt lat="44.131640000000004" lon="5.12183">
    <ele>362.34000000000003</ele>
   </trkpt>
   <trkpt lat="44.131600000000006" lon="5.12201">
    <ele>361.42</ele>
   </trkpt>
   <trkpt lat="44.131510000000006" lon="5.12204">
    <ele>359.75</ele>
   </trkpt>
   <trkpt lat="44.13148" lon="5.122070000000001">
    <ele>359.01000000000005</ele>
   </trkpt>
   <trkpt lat="44.13127" lon="5.12237">
    <ele>355.65000000000003</ele>
   </trkpt>
   <trkpt lat="44.13114" lon="5.122450000000001">
    <ele>352.15000000000003</ele>
   </trkpt>
   <trkpt lat="44.13096" lon="5.12251">
    <ele>349.25</ele>
   </trkpt>
   <trkpt lat="44.130900000000004" lon="5.122590000000001">
    <ele>348.64</ele>
   </trkpt>
   <trkpt lat="44.13078" lon="5.1227">
    <ele>345.69000000000005</ele>
   </trkpt>
   <trkpt lat="44.130630000000004" lon="5.122800000000001">
    <ele>344.31</ele>
   </trkpt>
   <trkpt lat="44.13051" lon="5.122940000000001">
    <ele>341.76</ele>
   </trkpt>
   <trkpt lat="44.13022" lon="5.12298">
    <ele>337.27</ele>
   </trkpt>
   <trkpt lat="44.130140000000004" lon="5.123030000000001">
    <ele>334.94</ele>
   </trkpt>
   <trkpt lat="44.13004" lon="5.12302">
    <ele>333.5</ele>
   </trkpt>
   <trkpt lat="44.12984" lon="5.1231100000000005">
    <ele>329.98</ele>
   </trkpt>
   <trkpt lat="44.12975" lon="5.12338">
    <ele>326.54</ele>
   </trkpt>
   <trkpt lat="44.12935" lon="5.12377">
    <ele>319.57</ele>
   </trkpt>
   <trkpt lat="44.12879" lon="5.12389">
    <ele>315.67</ele>
   </trkpt>
   <trkpt lat="44.12852" lon="5.12398">
    <ele>314.46000000000004</ele>
   </trkpt>
   <trkpt lat="44.128260000000004" lon="5.1241200000000005">
    <ele>311.70000000000005</ele>
   </trkpt>
   <trkpt lat="44.12803" lon="5.12413">
    <ele>310.70000000000005</ele>
   </trkpt>
   <trkpt lat="44.12774" lon="5.12429">
    <ele>306.91</ele>
   </trkpt>
   <trkpt lat="44.12755000000001" lon="5.12431">
    <ele>305.18</ele>
   </trkpt>
   <trkpt lat="44.12747" lon="5.124300000000001">
    <ele>304.75</ele>
   </trkpt>
   <trkpt lat="44.12733" lon="5.124210000000001">
    <ele>304.47</ele>
   </trkpt>
   <trkpt lat="44.12713" lon="5.12399">
    <ele>303.77000000000004</ele>
   </trkpt>
   <trkpt lat="44.127030000000005" lon="5.1237900000000005">
    <ele>303.63</ele>
   </trkpt>
   <trkpt lat="44.12697000000001" lon="5.12384">
    <ele>303.63</ele>
   </trkpt>
   <trkpt lat="44.12664" lon="5.12432">
    <ele>292.49</ele>
   </trkpt>
   <trkpt lat="44.126810000000006" lon="5.124440000000001">
    <ele>291.99</ele>
   </trkpt>
   <trkpt lat="44.12717000000001" lon="5.1246100000000006">
    <ele>292.71000000000004</ele>
   </trkpt>
   <trkpt lat="44.127230000000004" lon="5.12466">
    <ele>293.2</ele>
   </trkpt>
   <trkpt lat="44.127750000000006" lon="5.12469">
    <ele>294.92</ele>
   </trkpt>
   <trkpt lat="44.1278" lon="5.1247300000000005">
    <ele>294.92</ele>
   </trkpt>
   <trkpt lat="44.12783" lon="5.124840000000001">
    <ele>294.99</ele>
   </trkpt>
   <trkpt lat="44.12783" lon="5.1249400000000005">
    <ele>295.1</ele>
   </trkpt>
   <trkpt lat="44.127810000000004" lon="5.125050000000001">
    <ele>295.48</ele>
   </trkpt>
   <trkpt lat="44.12774" lon="5.125170000000001">
    <ele>296.03000000000003</ele>
   </trkpt>
   <trkpt lat="44.127720000000004" lon="5.12527">
    <ele>297.27000000000004</ele>
   </trkpt>
   <trkpt lat="44.12776" lon="5.12532">
    <ele>297.27000000000004</ele>
   </trkpt>
   <trkpt lat="44.12765" lon="5.125360000000001">
    <ele>297.61</ele>
   </trkpt>
   <trkpt lat="44.12763" lon="5.125430000000001">
    <ele>297.61</ele>
   </trkpt>
   <trkpt lat="44.12764000000001" lon="5.12549">
    <ele>298.18</ele>
   </trkpt>
   <trkpt lat="44.12785" lon="5.125800000000001">
    <ele>299.29</ele>
   </trkpt>
   <trkpt lat="44.12805" lon="5.126180000000001">
    <ele>299.88000000000005</ele>
   </trkpt>
   <trkpt lat="44.128220000000006" lon="5.1264">
    <ele>300.86</ele>
   </trkpt>
   <trkpt lat="44.12839" lon="5.12666">
    <ele>301.15000000000003</ele>
   </trkpt>
   <trkpt lat="44.128550000000004" lon="5.12697">
    <ele>299.9</ele>
   </trkpt>
   <trkpt lat="44.128690000000006" lon="5.12753">
    <ele>300.83000000000004</ele>
   </trkpt>
   <trkpt lat="44.12877" lon="5.12804">
    <ele>303.18</ele>
   </trkpt>
   <trkpt lat="44.12876000000001" lon="5.128360000000001">
    <ele>304.54</ele>
   </trkpt>
   <trkpt lat="44.128710000000005" lon="5.12887">
    <ele>307.20000000000005</ele>
   </trkpt>
   <trkpt lat="44.12872" lon="5.129060000000001">
    <ele>307.96</ele>
   </trkpt>
   <trkpt lat="44.128780000000006" lon="5.12924">
    <ele>309.70000000000005</ele>
   </trkpt>
   <trkpt lat="44.128910000000005" lon="5.12941">
    <ele>310.88000000000005</ele>
   </trkpt>
   <trkpt lat="44.129090000000005" lon="5.12978">
    <ele>311.95</ele>
   </trkpt>
   <trkpt lat="44.12921" lon="5.12988">
    <ele>311.9</ele>
   </trkpt>
   <trkpt lat="44.129450000000006" lon="5.13025">
    <ele>314.63</ele>
   </trkpt>
   <trkpt lat="44.12966" lon="5.13048">
    <ele>316.25</ele>
   </trkpt>
   <trkpt lat="44.129780000000004" lon="5.130680000000001">
    <ele>316.54</ele>
   </trkpt>
   <trkpt lat="44.12991" lon="5.1308300000000004">
    <ele>317.16</ele>
   </trkpt>
   <trkpt lat="44.130370000000006" lon="5.13121">
    <ele>322.26000000000005</ele>
   </trkpt>
   <trkpt lat="44.130570000000006" lon="5.1313200000000005">
    <ele>324.06</ele>
   </trkpt>
   <trkpt lat="44.13071" lon="5.13133">
    <ele>325.20000000000005</ele>
   </trkpt>
   <trkpt lat="44.13083" lon="5.1313">
    <ele>326.04</ele>
   </trkpt>
   <trkpt lat="44.130950000000006" lon="5.131220000000001">
    <ele>327.87000000000006</ele>
   </trkpt>
   <trkpt lat="44.13103" lon="5.1311100000000005">
    <ele>328.51</ele>
   </trkpt>
   <trkpt lat="44.131060000000005" lon="5.13103">
    <ele>328.65000000000003</ele>
   </trkpt>
   <trkpt lat="44.131130000000006" lon="5.13103">
    <ele>328.6</ele>
   </trkpt>
   <trkpt lat="44.131260000000005" lon="5.13109">
    <ele>328.87000000000006</ele>
   </trkpt>
   <trkpt lat="44.13132" lon="5.13117">
    <ele>329.36</ele>
   </trkpt>
   <trkpt lat="44.131330000000005" lon="5.13124">
    <ele>329.36</ele>
   </trkpt>
   <trkpt lat="44.13127" lon="5.13145">
    <ele>330.3</ele>
   </trkpt>
   <trkpt lat="44.131280000000004" lon="5.131500000000001">
    <ele>330.65</ele>
   </trkpt>
   <trkpt lat="44.13147" lon="5.1315100000000005">
    <ele>333.39</ele>
   </trkpt>
   <trkpt lat="44.13161" lon="5.13159">
    <ele>333.77</ele>
   </trkpt>
   <trkpt lat="44.13172" lon="5.13161">
    <ele>334.36</ele>
   </trkpt>
   <trkpt lat="44.131820000000005" lon="5.1316500000000005">
    <ele>334.81000000000006</ele>
   </trkpt>
   <trkpt lat="44.132020000000004" lon="5.13182">
    <ele>336.08000000000004</ele>
   </trkpt>
   <trkpt lat="44.132130000000004" lon="5.13189">
    <ele>336.82</ele>
   </trkpt>
   <trkpt lat="44.13224" lon="5.13192">
    <ele>338.07000000000005</ele>
   </trkpt>
   <trkpt lat="44.13235" lon="5.131900000000001">
    <ele>339.22</ele>
   </trkpt>
   <trkpt lat="44.13248" lon="5.13196">
    <ele>341.23</ele>
   </trkpt>
   <trkpt lat="44.13288" lon="5.13224">
    <ele>345.36000000000007</ele>
   </trkpt>
   <trkpt lat="44.13298" lon="5.13234">
    <ele>345.79</ele>
   </trkpt>
   <trkpt lat="44.133100000000006" lon="5.132510000000001">
    <ele>345.95000000000005</ele>
   </trkpt>
   <trkpt lat="44.13333" lon="5.13274">
    <ele>346.04</ele>
   </trkpt>
   <trkpt lat="44.13378" lon="5.1333400000000005">
    <ele>349.46999999999997</ele>
   </trkpt>
   <trkpt lat="44.134150000000005" lon="5.133710000000001">
    <ele>350.73</ele>
   </trkpt>
   <trkpt lat="44.134240000000005" lon="5.1337600000000005">
    <ele>350.73</ele>
   </trkpt>
   <trkpt lat="44.13439" lon="5.13379">
    <ele>350.81</ele>
   </trkpt>
   <trkpt lat="44.13467000000001" lon="5.1337">
    <ele>351.67</ele>
   </trkpt>
   <trkpt lat="44.134730000000005" lon="5.13374">
    <ele>351.87</ele>
   </trkpt>
   <trkpt lat="44.13474" lon="5.13381">
    <ele>351.87</ele>
   </trkpt>
   <trkpt lat="44.134640000000005" lon="5.133940000000001">
    <ele>352.22</ele>
   </trkpt>
   <trkpt lat="44.13458000000001" lon="5.13408">
    <ele>352.31</ele>
   </trkpt>
   <trkpt lat="44.134570000000004" lon="5.13417">
    <ele>352.61</ele>
   </trkpt>
   <trkpt lat="44.134600000000006" lon="5.13428">
    <ele>352.81</ele>
   </trkpt>
   <trkpt lat="44.134730000000005" lon="5.134510000000001">
    <ele>353.92</ele>
   </trkpt>
   <trkpt lat="44.134930000000004" lon="5.134930000000001">
    <ele>354.7</ele>
   </trkpt>
   <trkpt lat="44.13503" lon="5.13504">
    <ele>354.79</ele>
   </trkpt>
   <trkpt lat="44.135180000000005" lon="5.13513">
    <ele>354.90999999999997</ele>
   </trkpt>
   <trkpt lat="44.13528" lon="5.135420000000001">
    <ele>355.71000000000004</ele>
   </trkpt>
   <trkpt lat="44.135360000000006" lon="5.135540000000001">
    <ele>356.63</ele>
   </trkpt>
   <trkpt lat="44.135490000000004" lon="5.135660000000001">
    <ele>357.82</ele>
   </trkpt>
   <trkpt lat="44.13595" lon="5.1359900000000005">
    <ele>361.66</ele>
   </trkpt>
   <trkpt lat="44.13622" lon="5.13628">
    <ele>363.47</ele>
   </trkpt>
   <trkpt lat="44.13655000000001" lon="5.13656">
    <ele>364.17</ele>
   </trkpt>
   <trkpt lat="44.136610000000005" lon="5.13658">
    <ele>364.17</ele>
   </trkpt>
   <trkpt lat="44.136630000000004" lon="5.13666">
    <ele>363.33000000000004</ele>
   </trkpt>
   <trkpt lat="44.13658" lon="5.13698">
    <ele>361.25</ele>
   </trkpt>
   <trkpt lat="44.136520000000004" lon="5.13712">
    <ele>361.71000000000004</ele>
   </trkpt>
   <trkpt lat="44.136630000000004" lon="5.13727">
    <ele>362.7</ele>
   </trkpt>
   <trkpt lat="44.136810000000004" lon="5.13743">
    <ele>363.71000000000004</ele>
   </trkpt>
   <trkpt lat="44.13705" lon="5.1376100000000005">
    <ele>364.91</ele>
   </trkpt>
   <trkpt lat="44.13729" lon="5.1379">
    <ele>367.68</ele>
   </trkpt>
   <trkpt lat="44.13754" lon="5.138260000000001">
    <ele>370.91</ele>
   </trkpt>
   <trkpt lat="44.13763" lon="5.138350000000001">
    <ele>370.91</ele>
   </trkpt>
   <trkpt lat="44.1377" lon="5.13846">
    <ele>372.81</ele>
   </trkpt>
   <trkpt lat="44.13779" lon="5.13851">
    <ele>373.68</ele>
   </trkpt>
   <trkpt lat="44.137820000000005" lon="5.138660000000001">
    <ele>375.16</ele>
   </trkpt>
   <trkpt lat="44.137950000000004" lon="5.138780000000001">
    <ele>376.35</ele>
   </trkpt>
   <trkpt lat="44.138250000000006" lon="5.138890000000001">
    <ele>376.94000000000005</ele>
   </trkpt>
   <trkpt lat="44.13879" lon="5.139220000000001">
    <ele>381.78</ele>
   </trkpt>
   <trkpt lat="44.13924" lon="5.13956">
    <ele>385.70000000000005</ele>
   </trkpt>
   <trkpt lat="44.13936" lon="5.13968">
    <ele>386.16</ele>
   </trkpt>
   <trkpt lat="44.139500000000005" lon="5.13987">
    <ele>387.45</ele>
   </trkpt>
   <trkpt lat="44.13951" lon="5.139880000000001">
    <ele>387.45</ele>
   </trkpt>
   <trkpt lat="44.139590000000005" lon="5.13989">
    <ele>388.05</ele>
   </trkpt>
   <trkpt lat="44.13989" lon="5.14001">
    <ele>389.25000000000006</ele>
   </trkpt>
   <trkpt lat="44.140040000000006" lon="5.140040000000001">
    <ele>390.53000000000003</ele>
   </trkpt>
   <trkpt lat="44.14036" lon="5.140000000000001">
    <ele>391.86</ele>
   </trkpt>
   <trkpt lat="44.14043" lon="5.139950000000001">
    <ele>392.11</ele>
   </trkpt>
   <trkpt lat="44.14052" lon="5.139810000000001">
    <ele>393.29</ele>
   </trkpt>
   <trkpt lat="44.14054" lon="5.1397">
    <ele>393.29</ele>
   </trkpt>
   <trkpt lat="44.14059" lon="5.139690000000001">
    <ele>394.26000000000005</ele>
   </trkpt>
   <trkpt lat="44.14078000000001" lon="5.1399300000000006">
    <ele>395.0</ele>
   </trkpt>
   <trkpt lat="44.14108" lon="5.1401900000000005">
    <ele>396.97</ele>
   </trkpt>
   <trkpt lat="44.14125000000001" lon="5.14027">
    <ele>397.67</ele>
   </trkpt>
   <trkpt lat="44.1413" lon="5.14027">
    <ele>397.67</ele>
   </trkpt>
   <trkpt lat="44.14133" lon="5.14024">
    <ele>398.1</ele>
   </trkpt>
   <trkpt lat="44.14134000000001" lon="5.140230000000001">
    <ele>398.1</ele>
   </trkpt>
   <trkpt lat="44.14137" lon="5.140140000000001">
    <ele>398.99</ele>
   </trkpt>
   <trkpt lat="44.14139" lon="5.13959">
    <ele>403.56</ele>
   </trkpt>
   <trkpt lat="44.14134000000001" lon="5.1395100000000005">
    <ele>404.15</ele>
   </trkpt>
   <trkpt lat="44.14123" lon="5.1394400000000005">
    <ele>406.54</ele>
   </trkpt>
   <trkpt lat="44.140890000000006" lon="5.139150000000001">
    <ele>411.95000000000005</ele>
   </trkpt>
   <trkpt lat="44.140600000000006" lon="5.13903">
    <ele>413.97</ele>
   </trkpt>
   <trkpt lat="44.140530000000005" lon="5.138960000000001">
    <ele>413.97</ele>
   </trkpt>
   <trkpt lat="44.14034" lon="5.13856">
    <ele>417.30000000000007</ele>
   </trkpt>
   <trkpt lat="44.14032" lon="5.13846">
    <ele>417.30000000000007</ele>
   </trkpt>
   <trkpt lat="44.140330000000006" lon="5.138330000000001">
    <ele>417.30000000000007</ele>
   </trkpt>
   <trkpt lat="44.140390000000004" lon="5.138190000000001">
    <ele>419.67</ele>
   </trkpt>
   <trkpt lat="44.1405" lon="5.138070000000001">
    <ele>420.75</ele>
   </trkpt>
   <trkpt lat="44.14067" lon="5.13794">
    <ele>421.36</ele>
   </trkpt>
   <trkpt lat="44.140800000000006" lon="5.137740000000001">
    <ele>422.45000000000005</ele>
   </trkpt>
   <trkpt lat="44.14126" lon="5.13727">
    <ele>428.03000000000003</ele>
   </trkpt>
   <trkpt lat="44.14157" lon="5.137090000000001">
    <ele>431.17</ele>
   </trkpt>
   <trkpt lat="44.14153" lon="5.13693">
    <ele>430.55</ele>
   </trkpt>
   <trkpt lat="44.14157" lon="5.136570000000001">
    <ele>431.19</ele>
   </trkpt>
   <trkpt lat="44.141560000000005" lon="5.136240000000001">
    <ele>432.14000000000004</ele>
   </trkpt>
   <trkpt lat="44.141400000000004" lon="5.136170000000001">
    <ele>431.48</ele>
   </trkpt>
   <trkpt lat="44.141020000000005" lon="5.1356">
    <ele>435.28000000000003</ele>
   </trkpt>
   <trkpt lat="44.14115" lon="5.13537">
    <ele>439.72</ele>
   </trkpt>
   <trkpt lat="44.14128" lon="5.13537">
    <ele>441.72</ele>
   </trkpt>
   <trkpt lat="44.14141" lon="5.1352">
    <ele>445.51</ele>
   </trkpt>
   <trkpt lat="44.14126" lon="5.13541">
    <ele>441.21000000000004</ele>
   </trkpt>
   <trkpt lat="44.14135" lon="5.13527">
    <ele>443.59000000000003</ele>
   </trkpt>
   <trkpt lat="44.14164" lon="5.13504">
    <ele>450.35</ele>
   </trkpt>
   <trkpt lat="44.14188" lon="5.1349">
    <ele>456.5</ele>
   </trkpt>
   <trkpt lat="44.141960000000005" lon="5.134720000000001">
    <ele>459.91</ele>
   </trkpt>
   <trkpt lat="44.1422" lon="5.13494">
    <ele>456.41</ele>
   </trkpt>
   <trkpt lat="44.142320000000005" lon="5.135020000000001">
    <ele>456.41</ele>
   </trkpt>
   <trkpt lat="44.14271" lon="5.135000000000001">
    <ele>459.72</ele>
   </trkpt>
   <trkpt lat="44.142990000000005" lon="5.13503">
    <ele>460.64000000000004</ele>
   </trkpt>
   <trkpt lat="44.14338" lon="5.135190000000001">
    <ele>461.11</ele>
   </trkpt>
   <trkpt lat="44.14376" lon="5.13522">
    <ele>462.15000000000003</ele>
   </trkpt>
   <trkpt lat="44.143860000000004" lon="5.135280000000001">
    <ele>462.15000000000003</ele>
   </trkpt>
   <trkpt lat="44.144090000000006" lon="5.1355200000000005">
    <ele>463.5400000000001</ele>
   </trkpt>
   <trkpt lat="44.14424" lon="5.135750000000001">
    <ele>465.32</ele>
   </trkpt>
   <trkpt lat="44.14424" lon="5.136">
    <ele>466.36000000000007</ele>
   </trkpt>
   <trkpt lat="44.14421" lon="5.13614">
    <ele>466.36000000000007</ele>
   </trkpt>
   <trkpt lat="44.14414" lon="5.13628">
    <ele>467.85</ele>
   </trkpt>
   <trkpt lat="44.14387000000001" lon="5.13672">
    <ele>470.78000000000003</ele>
   </trkpt>
   <trkpt lat="44.143710000000006" lon="5.137160000000001">
    <ele>473.24000000000007</ele>
   </trkpt>
   <trkpt lat="44.1437" lon="5.13729">
    <ele>473.73</ele>
   </trkpt>
   <trkpt lat="44.143710000000006" lon="5.137390000000001">
    <ele>473.73</ele>
   </trkpt>
   <trkpt lat="44.14376" lon="5.1375">
    <ele>474.68000000000006</ele>
   </trkpt>
   <trkpt lat="44.14385" lon="5.13759">
    <ele>475.45000000000005</ele>
   </trkpt>
   <trkpt lat="44.144270000000006" lon="5.13787">
    <ele>480.32</ele>
   </trkpt>
   <trkpt lat="44.144600000000004" lon="5.13818">
    <ele>485.92</ele>
   </trkpt>
   <trkpt lat="44.14463000000001" lon="5.138190000000001">
    <ele>485.92</ele>
   </trkpt>
   <trkpt lat="44.14466" lon="5.13818">
    <ele>485.92</ele>
   </trkpt>
   <trkpt lat="44.14468" lon="5.138140000000001">
    <ele>486.46000000000004</ele>
   </trkpt>
   <trkpt lat="44.14461" lon="5.13771">
    <ele>488.88000000000005</ele>
   </trkpt>
   <trkpt lat="44.14461" lon="5.13757">
    <ele>488.88000000000005</ele>
   </trkpt>
   <trkpt lat="44.14463000000001" lon="5.13741">
    <ele>491.65000000000003</ele>
   </trkpt>
   <trkpt lat="44.14471" lon="5.13724">
    <ele>491.65000000000003</ele>
   </trkpt>
   <trkpt lat="44.14518" lon="5.13668">
    <ele>497.46</ele>
   </trkpt>
   <trkpt lat="44.145410000000005" lon="5.13654">
    <ele>500.6</ele>
   </trkpt>
   <trkpt lat="44.145520000000005" lon="5.1366000000000005">
    <ele>501.5900000000001</ele>
   </trkpt>
   <trkpt lat="44.145570000000006" lon="5.137320000000001">
    <ele>505.73</ele>
   </trkpt>
   <trkpt lat="44.145630000000004" lon="5.13733">
    <ele>506.75</ele>
   </trkpt>
   <trkpt lat="44.145720000000004" lon="5.137300000000001">
    <ele>507.9100000000001</ele>
   </trkpt>
   <trkpt lat="44.145950000000006" lon="5.13759">
    <ele>513.38</ele>
   </trkpt>
   <trkpt lat="44.146100000000004" lon="5.13773">
    <ele>515.6800000000001</ele>
   </trkpt>
   <trkpt lat="44.146150000000006" lon="5.137740000000001">
    <ele>515.6800000000001</ele>
   </trkpt>
   <trkpt lat="44.146240000000006" lon="5.13787">
    <ele>517.1300000000001</ele>
   </trkpt>
   <trkpt lat="44.14636" lon="5.13792">
    <ele>517.8900000000001</ele>
   </trkpt>
   <trkpt lat="44.14659" lon="5.13813">
    <ele>520.1300000000001</ele>
   </trkpt>
   <trkpt lat="44.14665" lon="5.1382200000000005">
    <ele>521.8000000000001</ele>
   </trkpt>
   <trkpt lat="44.14706" lon="5.1391100000000005">
    <ele>527.11</ele>
   </trkpt>
   <trkpt lat="44.14715" lon="5.1392500000000005">
    <ele>527.57</ele>
   </trkpt>
   <trkpt lat="44.147270000000006" lon="5.1393">
    <ele>527.42</ele>
   </trkpt>
   <trkpt lat="44.14757" lon="5.140000000000001">
    <ele>528.78</ele>
   </trkpt>
   <trkpt lat="44.14763000000001" lon="5.14062">
    <ele>536.45</ele>
   </trkpt>
   <trkpt lat="44.147690000000004" lon="5.14081">
    <ele>538.2800000000001</ele>
   </trkpt>
   <trkpt lat="44.14790000000001" lon="5.1412">
    <ele>545.94</ele>
   </trkpt>
   <trkpt lat="44.147960000000005" lon="5.14128">
    <ele>546.7700000000001</ele>
   </trkpt>
   <trkpt lat="44.148" lon="5.141450000000001">
    <ele>549.84</ele>
   </trkpt>
   <trkpt lat="44.148270000000004" lon="5.14215">
    <ele>555.89</ele>
   </trkpt>
   <trkpt lat="44.14838" lon="5.14254">
    <ele>557.79</ele>
   </trkpt>
   <trkpt lat="44.14857000000001" lon="5.14306">
    <ele>560.18</ele>
   </trkpt>
   <trkpt lat="44.148610000000005" lon="5.143210000000001">
    <ele>561.7</ele>
   </trkpt>
   <trkpt lat="44.14866000000001" lon="5.1433100000000005">
    <ele>563.4100000000001</ele>
   </trkpt>
   <trkpt lat="44.14867" lon="5.14339">
    <ele>563.4100000000001</ele>
   </trkpt>
   <trkpt lat="44.14894" lon="5.144010000000001">
    <ele>569.0500000000001</ele>
   </trkpt>
   <trkpt lat="44.149080000000005" lon="5.14423">
    <ele>570.9300000000001</ele>
   </trkpt>
   <trkpt lat="44.149240000000006" lon="5.14418">
    <ele>570.04</ele>
   </trkpt>
   <trkpt lat="44.14951000000001" lon="5.14421">
    <ele>566.2900000000001</ele>
   </trkpt>
   <trkpt lat="44.14979" lon="5.144340000000001">
    <ele>566.28</ele>
   </trkpt>
   <trkpt lat="44.14992" lon="5.14447">
    <ele>566.38</ele>
   </trkpt>
   <trkpt lat="44.1501" lon="5.14477">
    <ele>565.98</ele>
   </trkpt>
   <trkpt lat="44.15019" lon="5.144830000000001">
    <ele>565.84</ele>
   </trkpt>
   <trkpt lat="44.15063000000001" lon="5.145460000000001">
    <ele>561.67</ele>
   </trkpt>
   <trkpt lat="44.15082" lon="5.145630000000001">
    <ele>559.15</ele>
   </trkpt>
   <trkpt lat="44.15117" lon="5.1456100000000005">
    <ele>560.3</ele>
   </trkpt>
   <trkpt lat="44.15149" lon="5.1456800000000005">
    <ele>566.2</ele>
   </trkpt>
   <trkpt lat="44.151880000000006" lon="5.146260000000001">
    <ele>565.4100000000001</ele>
   </trkpt>
   <trkpt lat="44.1522" lon="5.146470000000001">
    <ele>566.86</ele>
   </trkpt>
   <trkpt lat="44.15229" lon="5.146470000000001">
    <ele>567.33</ele>
   </trkpt>
   <trkpt lat="44.152440000000006" lon="5.14651">
    <ele>569.6</ele>
   </trkpt>
   <trkpt lat="44.15269000000001" lon="5.146920000000001">
    <ele>571.6</ele>
   </trkpt>
   <trkpt lat="44.15276" lon="5.14712">
    <ele>572.79</ele>
   </trkpt>
   <trkpt lat="44.152840000000005" lon="5.14724">
    <ele>572.79</ele>
   </trkpt>
   <trkpt lat="44.15272" lon="5.14731">
    <ele>574.4</ele>
   </trkpt>
   <trkpt lat="44.152570000000004" lon="5.147600000000001">
    <ele>577.96</ele>
   </trkpt>
   <trkpt lat="44.15234" lon="5.147740000000001">
    <ele>581.37</ele>
   </trkpt>
   <trkpt lat="44.152280000000005" lon="5.14782">
    <ele>583.64</ele>
   </trkpt>
   <trkpt lat="44.152190000000004" lon="5.148300000000001">
    <ele>589.8000000000001</ele>
   </trkpt>
   <trkpt lat="44.152240000000006" lon="5.14843">
    <ele>589.8000000000001</ele>
   </trkpt>
   <trkpt lat="44.15223" lon="5.1485">
    <ele>594.45</ele>
   </trkpt>
   <trkpt lat="44.152240000000006" lon="5.14855">
    <ele>594.45</ele>
   </trkpt>
   <trkpt lat="44.15234" lon="5.148680000000001">
    <ele>596.13</ele>
   </trkpt>
   <trkpt lat="44.15238" lon="5.1488000000000005">
    <ele>598.37</ele>
   </trkpt>
   <trkpt lat="44.15258" lon="5.14918">
    <ele>601.6800000000001</ele>
   </trkpt>
   <trkpt lat="44.152640000000005" lon="5.14944">
    <ele>603.92</ele>
   </trkpt>
   <trkpt lat="44.15288" lon="5.14977">
    <ele>605.95</ele>
   </trkpt>
   <trkpt lat="44.15306" lon="5.15014">
    <ele>607.72</ele>
   </trkpt>
   <trkpt lat="44.1529" lon="5.15017">
    <ele>612.51</ele>
   </trkpt>
   <trkpt lat="44.152750000000005" lon="5.15015">
    <ele>614.24</ele>
   </trkpt>
   <trkpt lat="44.15252" lon="5.150010000000001">
    <ele>617.5400000000001</ele>
   </trkpt>
   <trkpt lat="44.15225" lon="5.149920000000001">
    <ele>618.97</ele>
   </trkpt>
   <trkpt lat="44.15222000000001" lon="5.149870000000001">
    <ele>619.11</ele>
   </trkpt>
   <trkpt lat="44.15216" lon="5.1498800000000005">
    <ele>619.1500000000001</ele>
   </trkpt>
   <trkpt lat="44.15205" lon="5.14984">
    <ele>618.68</ele>
   </trkpt>
   <trkpt lat="44.15198" lon="5.14979">
    <ele>617.77</ele>
   </trkpt>
   <trkpt lat="44.151900000000005" lon="5.149590000000001">
    <ele>614.3700000000001</ele>
   </trkpt>
   <trkpt lat="44.151740000000004" lon="5.1493400000000005">
    <ele>609.57</ele>
   </trkpt>
   <trkpt lat="44.15167" lon="5.14918">
    <ele>607.01</ele>
   </trkpt>
   <trkpt lat="44.151500000000006" lon="5.149360000000001">
    <ele>604.44</ele>
   </trkpt>
   <trkpt lat="44.1514" lon="5.1494100000000005">
    <ele>601.94</ele>
   </trkpt>
   <trkpt lat="44.15133" lon="5.14939">
    <ele>600.8800000000001</ele>
   </trkpt>
   <trkpt lat="44.15122" lon="5.1493">
    <ele>598.65</ele>
   </trkpt>
   <trkpt lat="44.15115" lon="5.149290000000001">
    <ele>595.37</ele>
   </trkpt>
   <trkpt lat="44.15081000000001" lon="5.14939">
    <ele>586.3600000000001</ele>
   </trkpt>
   <trkpt lat="44.150560000000006" lon="5.149380000000001">
    <ele>582.8100000000001</ele>
   </trkpt>
   <trkpt lat="44.150220000000004" lon="5.14958">
    <ele>582.57</ele>
   </trkpt>
   <trkpt lat="44.1501" lon="5.1495500000000005">
    <ele>578.1500000000001</ele>
   </trkpt>
   <trkpt lat="44.14967" lon="5.14953">
    <ele>560.79</ele>
   </trkpt>
   <trkpt lat="44.149460000000005" lon="5.14949">
    <ele>556.95</ele>
   </trkpt>
   <trkpt lat="44.14922000000001" lon="5.149520000000001">
    <ele>551.6800000000001</ele>
   </trkpt>
   <trkpt lat="44.14911" lon="5.1495500000000005">
    <ele>550.73</ele>
   </trkpt>
   <trkpt lat="44.14902" lon="5.1496">
    <ele>547.61</ele>
   </trkpt>
   <trkpt lat="44.148740000000004" lon="5.14956">
    <ele>542.2800000000001</ele>
   </trkpt>
   <trkpt lat="44.14849" lon="5.1496200000000005">
    <ele>541.62</ele>
   </trkpt>
   <trkpt lat="44.148230000000005" lon="5.14956">
    <ele>542.27</ele>
   </trkpt>
   <trkpt lat="44.148160000000004" lon="5.1496">
    <ele>542.6899999999999</ele>
   </trkpt>
   <trkpt lat="44.147980000000004" lon="5.14958">
    <ele>544.74</ele>
   </trkpt>
   <trkpt lat="44.14761" lon="5.14928">
    <ele>539.83</ele>
   </trkpt>
   <trkpt lat="44.14752" lon="5.149170000000001">
    <ele>538.44</ele>
   </trkpt>
   <trkpt lat="44.147490000000005" lon="5.149150000000001">
    <ele>537.82</ele>
   </trkpt>
   <trkpt lat="44.14739" lon="5.14914">
    <ele>536.12</ele>
   </trkpt>
   <trkpt lat="44.14732" lon="5.14916">
    <ele>534.1400000000001</ele>
   </trkpt>
   <trkpt lat="44.147270000000006" lon="5.14914">
    <ele>533.2300000000001</ele>
   </trkpt>
   <trkpt lat="44.14719" lon="5.149030000000001">
    <ele>530.02</ele>
   </trkpt>
   <trkpt lat="44.147110000000005" lon="5.149">
    <ele>530.02</ele>
   </trkpt>
   <trkpt lat="44.146950000000004" lon="5.148890000000001">
    <ele>527.0400000000001</ele>
   </trkpt>
   <trkpt lat="44.14687000000001" lon="5.14881">
    <ele>524.2900000000001</ele>
   </trkpt>
   <trkpt lat="44.146770000000004" lon="5.14876">
    <ele>522.6200000000001</ele>
   </trkpt>
   <trkpt lat="44.14659" lon="5.14859">
    <ele>519.8900000000001</ele>
   </trkpt>
   <trkpt lat="44.146420000000006" lon="5.14859">
    <ele>516.7</ele>
   </trkpt>
   <trkpt lat="44.14636" lon="5.148610000000001">
    <ele>515.97</ele>
   </trkpt>
   <trkpt lat="44.146330000000006" lon="5.14864">
    <ele>515.35</ele>
   </trkpt>
   <trkpt lat="44.146260000000005" lon="5.14864">
    <ele>514.87</ele>
   </trkpt>
   <trkpt lat="44.146190000000004" lon="5.14852">
    <ele>513.93</ele>
   </trkpt>
   <trkpt lat="44.146080000000005" lon="5.148420000000001">
    <ele>512.8900000000001</ele>
   </trkpt>
   <trkpt lat="44.14602000000001" lon="5.14838">
    <ele>512.05</ele>
   </trkpt>
   <trkpt lat="44.14585" lon="5.1483300000000005">
    <ele>510.6400000000001</ele>
   </trkpt>
   <trkpt lat="44.145770000000006" lon="5.14829">
    <ele>509.87000000000006</ele>
   </trkpt>
   <trkpt lat="44.14564" lon="5.14815">
    <ele>509.32</ele>
   </trkpt>
   <trkpt lat="44.14555" lon="5.148090000000001">
    <ele>509.53999999999996</ele>
   </trkpt>
   <trkpt lat="44.1456" lon="5.14799">
    <ele>511.38000000000005</ele>
   </trkpt>
   <trkpt lat="44.1456" lon="5.14791">
    <ele>511.38000000000005</ele>
   </trkpt>
   <trkpt lat="44.145480000000006" lon="5.147600000000001">
    <ele>513.6400000000001</ele>
   </trkpt>
   <trkpt lat="44.14549" lon="5.14735">
    <ele>513.6800000000001</ele>
   </trkpt>
   <trkpt lat="44.145360000000004" lon="5.14719">
    <ele>515.4000000000001</ele>
   </trkpt>
   <trkpt lat="44.1452" lon="5.14719">
    <ele>518.1600000000001</ele>
   </trkpt>
   <trkpt lat="44.14479" lon="5.147460000000001">
    <ele>526.0100000000001</ele>
   </trkpt>
   <trkpt lat="44.144760000000005" lon="5.14752">
    <ele>526.83</ele>
   </trkpt>
   <trkpt lat="44.14448" lon="5.14796">
    <ele>525.5600000000001</ele>
   </trkpt>
   <trkpt lat="44.14406" lon="5.14799">
    <ele>519.87</ele>
   </trkpt>
   <trkpt lat="44.143980000000006" lon="5.14796">
    <ele>519.1999999999999</ele>
   </trkpt>
   <trkpt lat="44.143800000000006" lon="5.148070000000001">
    <ele>515.84</ele>
   </trkpt>
   <trkpt lat="44.14369000000001" lon="5.14822">
    <ele>515.27</ele>
   </trkpt>
   <trkpt lat="44.143600000000006" lon="5.14827">
    <ele>514.1600000000001</ele>
   </trkpt>
   <trkpt lat="44.14354" lon="5.148280000000001">
    <ele>514.1600000000001</ele>
   </trkpt>
   <trkpt lat="44.143280000000004" lon="5.1484700000000005">
    <ele>511.97</ele>
   </trkpt>
   <trkpt lat="44.1432" lon="5.1485">
    <ele>510.75</ele>
   </trkpt>
   <trkpt lat="44.14314" lon="5.148490000000001">
    <ele>510.75</ele>
   </trkpt>
   <trkpt lat="44.14309" lon="5.14864">
    <ele>509.65000000000003</ele>
   </trkpt>
   <trkpt lat="44.142920000000004" lon="5.148650000000001">
    <ele>507.97</ele>
   </trkpt>
   <trkpt lat="44.142900000000004" lon="5.148650000000001">
    <ele>507.97</ele>
   </trkpt>
   <trkpt lat="44.14284000000001" lon="5.14862">
    <ele>507.18000000000006</ele>
   </trkpt>
   <trkpt lat="44.142970000000005" lon="5.14852">
    <ele>508.09000000000003</ele>
   </trkpt>
   <trkpt lat="44.143440000000005" lon="5.148210000000001">
    <ele>512.12</ele>
   </trkpt>
   <trkpt lat="44.14361" lon="5.1480500000000005">
    <ele>514.1999999999999</ele>
   </trkpt>
   <trkpt lat="44.14387000000001" lon="5.14785">
    <ele>516.66</ele>
   </trkpt>
   <trkpt lat="44.144200000000005" lon="5.14768">
    <ele>521.6200000000001</ele>
   </trkpt>
   <trkpt lat="44.14452000000001" lon="5.147550000000001">
    <ele>524.86</ele>
   </trkpt>
   <trkpt lat="44.14466" lon="5.14742">
    <ele>525.84</ele>
   </trkpt>
   <trkpt lat="44.14435" lon="5.14665">
    <ele>516.0600000000001</ele>
   </trkpt>
   <trkpt lat="44.14428" lon="5.1465700000000005">
    <ele>516.0600000000001</ele>
   </trkpt>
   <trkpt lat="44.144310000000004" lon="5.14649">
    <ele>515.71</ele>
   </trkpt>
   <trkpt lat="44.14432" lon="5.146380000000001">
    <ele>515.57</ele>
   </trkpt>
   <trkpt lat="44.14444" lon="5.1462900000000005">
    <ele>515.22</ele>
   </trkpt>
   <trkpt lat="44.144600000000004" lon="5.145980000000001">
    <ele>512.71</ele>
   </trkpt>
   <trkpt lat="44.144740000000006" lon="5.14583">
    <ele>510.30000000000007</ele>
   </trkpt>
   <trkpt lat="44.14482" lon="5.145790000000001">
    <ele>508.75</ele>
   </trkpt>
   <trkpt lat="44.14459" lon="5.14552">
    <ele>506.7900000000001</ele>
   </trkpt>
   <trkpt lat="44.144580000000005" lon="5.145510000000001">
    <ele>506.7900000000001</ele>
   </trkpt>
   <trkpt lat="44.144130000000004" lon="5.145160000000001">
    <ele>504.0300000000001</ele>
   </trkpt>
   <trkpt lat="44.144000000000005" lon="5.14515">
    <ele>503.43</ele>
   </trkpt>
   <trkpt lat="44.14368" lon="5.145300000000001">
    <ele>500.16</ele>
   </trkpt>
   <trkpt lat="44.143350000000005" lon="5.1452800000000005">
    <ele>496.43</ele>
   </trkpt>
   <trkpt lat="44.14314" lon="5.14538">
    <ele>493.8</ele>
   </trkpt>
   <trkpt lat="44.142920000000004" lon="5.145440000000001">
    <ele>489.86</ele>
   </trkpt>
   <trkpt lat="44.142790000000005" lon="5.1455">
    <ele>488.64</ele>
   </trkpt>
   <trkpt lat="44.142570000000006" lon="5.14581">
    <ele>484.92</ele>
   </trkpt>
   <trkpt lat="44.14247" lon="5.146000000000001">
    <ele>483.83000000000004</ele>
   </trkpt>
   <trkpt lat="44.142230000000005" lon="5.146190000000001">
    <ele>482.71000000000004</ele>
   </trkpt>
   <trkpt lat="44.142" lon="5.14632">
    <ele>481.80000000000007</ele>
   </trkpt>
   <trkpt lat="44.14181000000001" lon="5.14639">
    <ele>480.5</ele>
   </trkpt>
   <trkpt lat="44.14172000000001" lon="5.14651">
    <ele>479.5</ele>
   </trkpt>
   <trkpt lat="44.141650000000006" lon="5.146540000000001">
    <ele>479.19000000000005</ele>
   </trkpt>
   <trkpt lat="44.141200000000005" lon="5.14663">
    <ele>475.13000000000005</ele>
   </trkpt>
   <trkpt lat="44.14097" lon="5.14672">
    <ele>473.78000000000003</ele>
   </trkpt>
   <trkpt lat="44.14081" lon="5.146730000000001">
    <ele>473.05</ele>
   </trkpt>
   <trkpt lat="44.140330000000006" lon="5.14681">
    <ele>471.27000000000004</ele>
   </trkpt>
   <trkpt lat="44.140260000000005" lon="5.146800000000001">
    <ele>470.30000000000007</ele>
   </trkpt>
   <trkpt lat="44.14025" lon="5.14679">
    <ele>470.30000000000007</ele>
   </trkpt>
   <trkpt lat="44.139630000000004" lon="5.1465000000000005">
    <ele>461.37000000000006</ele>
   </trkpt>
   <trkpt lat="44.13944" lon="5.146450000000001">
    <ele>458.94</ele>
   </trkpt>
   <trkpt lat="44.138920000000006" lon="5.1462200000000005">
    <ele>451.04</ele>
   </trkpt>
   <trkpt lat="44.138580000000005" lon="5.14611">
    <ele>447.75</ele>
   </trkpt>
   <trkpt lat="44.138450000000006" lon="5.146000000000001">
    <ele>446.67</ele>
   </trkpt>
   <trkpt lat="44.138360000000006" lon="5.1459">
    <ele>445.68</ele>
   </trkpt>
   <trkpt lat="44.137750000000004" lon="5.145580000000001">
    <ele>441.64000000000004</ele>
   </trkpt>
   <trkpt lat="44.13752" lon="5.145580000000001">
    <ele>440.75</ele>
   </trkpt>
   <trkpt lat="44.137240000000006" lon="5.14545">
    <ele>440.22</ele>
   </trkpt>
   <trkpt lat="44.137100000000004" lon="5.14536">
    <ele>438.75</ele>
   </trkpt>
   <trkpt lat="44.136250000000004" lon="5.14498">
    <ele>435.43</ele>
   </trkpt>
   <trkpt lat="44.136" lon="5.144900000000001">
    <ele>434.13</ele>
   </trkpt>
   <trkpt lat="44.135940000000005" lon="5.1448100000000005">
    <ele>433.93</ele>
   </trkpt>
   <trkpt lat="44.13553" lon="5.14505">
    <ele>433.78000000000003</ele>
   </trkpt>
   <trkpt lat="44.13539" lon="5.144640000000001">
    <ele>432.1700000000001</ele>
   </trkpt>
   <trkpt lat="44.13505000000001" lon="5.1439200000000005">
    <ele>433.27000000000004</ele>
   </trkpt>
   <trkpt lat="44.13487000000001" lon="5.143800000000001">
    <ele>433.93</ele>
   </trkpt>
   <trkpt lat="44.13459" lon="5.14374">
    <ele>435.08000000000004</ele>
   </trkpt>
   <trkpt lat="44.13445" lon="5.14369">
    <ele>435.97</ele>
   </trkpt>
   <trkpt lat="44.134310000000006" lon="5.143470000000001">
    <ele>437.14000000000004</ele>
   </trkpt>
   <trkpt lat="44.134150000000005" lon="5.14337">
    <ele>437.72</ele>
   </trkpt>
   <trkpt lat="44.133990000000004" lon="5.1433">
    <ele>437.38000000000005</ele>
   </trkpt>
   <trkpt lat="44.13349" lon="5.143260000000001">
    <ele>435.33000000000004</ele>
   </trkpt>
   <trkpt lat="44.13338" lon="5.143230000000001">
    <ele>434.82000000000005</ele>
   </trkpt>
   <trkpt lat="44.133280000000006" lon="5.143160000000001">
    <ele>434.44000000000005</ele>
   </trkpt>
   <trkpt lat="44.133120000000005" lon="5.14299">
    <ele>433.04</ele>
   </trkpt>
   <trkpt lat="44.13298" lon="5.1429">
    <ele>431.64</ele>
   </trkpt>
   <trkpt lat="44.13273" lon="5.14268">
    <ele>430.52</ele>
   </trkpt>
   <trkpt lat="44.13248" lon="5.142530000000001">
    <ele>428.68000000000006</ele>
   </trkpt>
   <trkpt lat="44.131840000000004" lon="5.14236">
    <ele>423.64</ele>
   </trkpt>
   <trkpt lat="44.13118" lon="5.142250000000001">
    <ele>415.23</ele>
   </trkpt>
   <trkpt lat="44.13092" lon="5.1421600000000005">
    <ele>412.33000000000004</ele>
   </trkpt>
   <trkpt lat="44.13085" lon="5.142110000000001">
    <ele>411.34000000000003</ele>
   </trkpt>
   <trkpt lat="44.130660000000006" lon="5.1420200000000005">
    <ele>410.26</ele>
   </trkpt>
   <trkpt lat="44.130520000000004" lon="5.14198">
    <ele>409.68000000000006</ele>
   </trkpt>
   <trkpt lat="44.13" lon="5.141780000000001">
    <ele>408.66</ele>
   </trkpt>
   <trkpt lat="44.129870000000004" lon="5.1417">
    <ele>408.75000000000006</ele>
   </trkpt>
   <trkpt lat="44.129400000000004" lon="5.1413400000000005">
    <ele>410.64000000000004</ele>
   </trkpt>
   <trkpt lat="44.12917" lon="5.14113">
    <ele>413.27000000000004</ele>
   </trkpt>
   <trkpt lat="44.128800000000005" lon="5.14093">
    <ele>415.38</ele>
   </trkpt>
   <trkpt lat="44.128260000000004" lon="5.140720000000001">
    <ele>415.84000000000003</ele>
   </trkpt>
   <trkpt lat="44.12798" lon="5.140560000000001">
    <ele>416.43</ele>
   </trkpt>
   <trkpt lat="44.12764000000001" lon="5.1400500000000005">
    <ele>414.29</ele>
   </trkpt>
   <trkpt lat="44.12716" lon="5.139570000000001">
    <ele>409.03000000000003</ele>
   </trkpt>
   <trkpt lat="44.126540000000006" lon="5.13867">
    <ele>399.29</ele>
   </trkpt>
   <trkpt lat="44.12633" lon="5.13848">
    <ele>397.75000000000006</ele>
   </trkpt>
   <trkpt lat="44.126250000000006" lon="5.1383600000000005">
    <ele>396.67</ele>
   </trkpt>
   <trkpt lat="44.12619" lon="5.13823">
    <ele>395.52000000000004</ele>
   </trkpt>
   <trkpt lat="44.12614000000001" lon="5.13794">
    <ele>394.71</ele>
   </trkpt>
   <trkpt lat="44.12608" lon="5.13783">
    <ele>392.17</ele>
   </trkpt>
   <trkpt lat="44.12579" lon="5.13754">
    <ele>389.33</ele>
   </trkpt>
   <trkpt lat="44.125240000000005" lon="5.136880000000001">
    <ele>382.3</ele>
   </trkpt>
   <trkpt lat="44.124950000000005" lon="5.13661">
    <ele>377.27000000000004</ele>
   </trkpt>
   <trkpt lat="44.12478" lon="5.13654">
    <ele>375.16</ele>
   </trkpt>
   <trkpt lat="44.1244" lon="5.13644">
    <ele>370.88000000000005</ele>
   </trkpt>
   <trkpt lat="44.12391" lon="5.1365300000000005">
    <ele>367.75</ele>
   </trkpt>
   <trkpt lat="44.12366" lon="5.136500000000001">
    <ele>366.36</ele>
   </trkpt>
   <trkpt lat="44.1236" lon="5.1365300000000005">
    <ele>364.75</ele>
   </trkpt>
   <trkpt lat="44.123470000000005" lon="5.136760000000001">
    <ele>363.75</ele>
   </trkpt>
   <trkpt lat="44.12337" lon="5.13689">
    <ele>362.24</ele>
   </trkpt>
   <trkpt lat="44.123270000000005" lon="5.13698">
    <ele>362.24</ele>
   </trkpt>
   <trkpt lat="44.122870000000006" lon="5.13724">
    <ele>358.56000000000006</ele>
   </trkpt>
   <trkpt lat="44.12275" lon="5.13727">
    <ele>358.56000000000006</ele>
   </trkpt>
   <trkpt lat="44.122530000000005" lon="5.13736">
    <ele>356.83000000000004</ele>
   </trkpt>
   <trkpt lat="44.12243" lon="5.13785">
    <ele>355.38</ele>
   </trkpt>
   <trkpt lat="44.122370000000004" lon="5.13799">
    <ele>354.45000000000005</ele>
   </trkpt>
   <trkpt lat="44.122310000000006" lon="5.138070000000001">
    <ele>353.72</ele>
   </trkpt>
   <trkpt lat="44.122110000000006" lon="5.138190000000001">
    <ele>352.88</ele>
   </trkpt>
   <trkpt lat="44.122020000000006" lon="5.138210000000001">
    <ele>351.05</ele>
   </trkpt>
   <trkpt lat="44.12178" lon="5.138050000000001">
    <ele>348.68000000000006</ele>
   </trkpt>
   <trkpt lat="44.12116" lon="5.1379">
    <ele>343.48</ele>
   </trkpt>
   <trkpt lat="44.12069" lon="5.1377500000000005">
    <ele>336.82</ele>
   </trkpt>
   <trkpt lat="44.12079000000001" lon="5.137180000000001">
    <ele>335.52000000000004</ele>
   </trkpt>
   <trkpt lat="44.12057" lon="5.13708">
    <ele>332.02000000000004</ele>
   </trkpt>
   <trkpt lat="44.12053" lon="5.13696">
    <ele>332.02000000000004</ele>
   </trkpt>
   <trkpt lat="44.120520000000006" lon="5.136500000000001">
    <ele>329.48</ele>
   </trkpt>
   <trkpt lat="44.120540000000005" lon="5.13637">
    <ele>329.1</ele>
   </trkpt>
   <trkpt lat="44.120830000000005" lon="5.13614">
    <ele>330.31000000000006</ele>
   </trkpt>
   <trkpt lat="44.120900000000006" lon="5.136030000000001">
    <ele>330.83</ele>
   </trkpt>
   <trkpt lat="44.120920000000005" lon="5.13565">
    <ele>327.89</ele>
   </trkpt>
   <trkpt lat="44.120870000000004" lon="5.13553">
    <ele>326.51</ele>
   </trkpt>
   <trkpt lat="44.12053" lon="5.13579">
    <ele>325.09999999999997</ele>
   </trkpt>
   <trkpt lat="44.120340000000006" lon="5.13579">
    <ele>322.86</ele>
   </trkpt>
   <trkpt lat="44.11974000084878" lon="5.1362000040845475">
    <ele>312.61</ele>
   </trkpt>
   <trkpt lat="44.11914" lon="5.13661">
    <ele>312.61</ele>
   </trkpt>
   <trkpt lat="44.11891000000001" lon="5.136550000000001">
    <ele>308.98</ele>
   </trkpt>
   <trkpt lat="44.119125003096215" lon="5.135705003144898">
    <ele>308.97</ele>
   </trkpt>
   <trkpt lat="44.11934" lon="5.134860000000001">
    <ele>305.67</ele>
   </trkpt>
   <trkpt lat="44.11937" lon="5.134790000000001">
    <ele>305.29</ele>
   </trkpt>
   <trkpt lat="44.119580000000006" lon="5.13468">
    <ele>302.61</ele>
   </trkpt>
   <trkpt lat="44.11975" lon="5.134530000000001">
    <ele>301.50000000000006</ele>
   </trkpt>
   <trkpt lat="44.1199" lon="5.134340000000001">
    <ele>300.2</ele>
   </trkpt>
   <trkpt lat="44.12001" lon="5.13417">
    <ele>299.36</ele>
   </trkpt>
   <trkpt lat="44.1201" lon="5.1340900000000005">
    <ele>297.95000000000005</ele>
   </trkpt>
   <trkpt lat="44.120290000000004" lon="5.134010000000001">
    <ele>297.2</ele>
   </trkpt>
   <trkpt lat="44.12041000000001" lon="5.133920000000001">
    <ele>296.87</ele>
   </trkpt>
   <trkpt lat="44.12064" lon="5.13393">
    <ele>296.65000000000003</ele>
   </trkpt>
   <trkpt lat="44.120850000000004" lon="5.13389">
    <ele>296.35</ele>
   </trkpt>
   <trkpt lat="44.120990000000006" lon="5.13389">
    <ele>296.51000000000005</ele>
   </trkpt>
   <trkpt lat="44.12125" lon="5.13381">
    <ele>297.87</ele>
   </trkpt>
   <trkpt lat="44.121610000000004" lon="5.133570000000001">
    <ele>300.33000000000004</ele>
   </trkpt>
   <trkpt lat="44.121880000000004" lon="5.13356">
    <ele>301.29</ele>
   </trkpt>
   <trkpt lat="44.122040000000005" lon="5.133520000000001">
    <ele>301.85</ele>
   </trkpt>
   <trkpt lat="44.122170000000004" lon="5.133520000000001">
    <ele>302.46</ele>
   </trkpt>
   <trkpt lat="44.122310000000006" lon="5.1335500000000005">
    <ele>302.91</ele>
   </trkpt>
   <trkpt lat="44.122530000000005" lon="5.13365">
    <ele>303.33000000000004</ele>
   </trkpt>
   <trkpt lat="44.122870000000006" lon="5.1337600000000005">
    <ele>304.44000000000005</ele>
   </trkpt>
   <trkpt lat="44.12328" lon="5.13386">
    <ele>305.27000000000004</ele>
   </trkpt>
   <trkpt lat="44.12339" lon="5.13393">
    <ele>306.04</ele>
   </trkpt>
   <trkpt lat="44.123470000000005" lon="5.13405">
    <ele>306.04</ele>
   </trkpt>
   <trkpt lat="44.1236" lon="5.13405">
    <ele>306.74</ele>
   </trkpt>
   <trkpt lat="44.12391" lon="5.1339500000000005">
    <ele>308.57</ele>
   </trkpt>
   <trkpt lat="44.124140000000004" lon="5.133970000000001">
    <ele>310.62</ele>
   </trkpt>
   <trkpt lat="44.12429" lon="5.134010000000001">
    <ele>312.62</ele>
   </trkpt>
   <trkpt lat="44.124790000000004" lon="5.13403">
    <ele>314.0</ele>
   </trkpt>
   <trkpt lat="44.125080000000004" lon="5.13408">
    <ele>311.09000000000003</ele>
   </trkpt>
   <trkpt lat="44.125420000000005" lon="5.134110000000001">
    <ele>309.13</ele>
   </trkpt>
   <trkpt lat="44.12541" lon="5.1341">
    <ele>309.13</ele>
   </trkpt>
   <trkpt lat="44.126090000000005" lon="5.13431">
    <ele>306.62</ele>
   </trkpt>
   <trkpt lat="44.126200000000004" lon="5.1343700000000005">
    <ele>307.23</ele>
   </trkpt>
   <trkpt lat="44.12653" lon="5.134670000000001">
    <ele>308.64000000000004</ele>
   </trkpt>
   <trkpt lat="44.12669" lon="5.13476">
    <ele>309.46</ele>
   </trkpt>
   <trkpt lat="44.1268" lon="5.13476">
    <ele>310.32000000000005</ele>
   </trkpt>
   <trkpt lat="44.126960000000004" lon="5.13487">
    <ele>311.48</ele>
   </trkpt>
   <trkpt lat="44.12717000000001" lon="5.135140000000001">
    <ele>313.12</ele>
   </trkpt>
   <trkpt lat="44.127300000000005" lon="5.13527">
    <ele>313.64000000000004</ele>
   </trkpt>
   <trkpt lat="44.127480000000006" lon="5.13537">
    <ele>315.08000000000004</ele>
   </trkpt>
   <trkpt lat="44.127570000000006" lon="5.1355">
    <ele>316.21999999999997</ele>
   </trkpt>
   <trkpt lat="44.12782000000001" lon="5.135750000000001">
    <ele>319.0</ele>
   </trkpt>
   <trkpt lat="44.12802000000001" lon="5.135840000000001">
    <ele>318.26000000000005</ele>
   </trkpt>
   <trkpt lat="44.12812" lon="5.1358500000000005">
    <ele>318.21999999999997</ele>
   </trkpt>
   <trkpt lat="44.12821" lon="5.13588">
    <ele>318.73</ele>
   </trkpt>
   <trkpt lat="44.128280000000004" lon="5.136">
    <ele>318.89</ele>
   </trkpt>
   <trkpt lat="44.128460000000004" lon="5.13616">
    <ele>320.13</ele>
   </trkpt>
   <trkpt lat="44.128690000000006" lon="5.1365300000000005">
    <ele>324.81000000000006</ele>
   </trkpt>
   <trkpt lat="44.128820000000005" lon="5.136620000000001">
    <ele>328.04</ele>
   </trkpt>
   <trkpt lat="44.12912" lon="5.136620000000001">
    <ele>331.61</ele>
   </trkpt>
   <trkpt lat="44.12926" lon="5.1367400000000005">
    <ele>332.63000000000005</ele>
   </trkpt>
   <trkpt lat="44.12933" lon="5.136830000000001">
    <ele>333.39</ele>
   </trkpt>
   <trkpt lat="44.12942" lon="5.13701">
    <ele>335.44</ele>
   </trkpt>
   <trkpt lat="44.1298" lon="5.13726">
    <ele>339.28000000000003</ele>
   </trkpt>
   <trkpt lat="44.12995" lon="5.1374200000000005">
    <ele>341.31</ele>
   </trkpt>
   <trkpt lat="44.12999000000001" lon="5.13743">
    <ele>341.31</ele>
   </trkpt>
   <trkpt lat="44.13008000000001" lon="5.1374">
    <ele>342.22</ele>
   </trkpt>
   <trkpt lat="44.13013" lon="5.13743">
    <ele>342.22</ele>
   </trkpt>
   <trkpt lat="44.13027" lon="5.137630000000001">
    <ele>345.33000000000004</ele>
   </trkpt>
   <trkpt lat="44.130480000000006" lon="5.13787">
    <ele>347.73</ele>
   </trkpt>
   <trkpt lat="44.13071" lon="5.13804">
    <ele>349.71000000000004</ele>
   </trkpt>
   <trkpt lat="44.130810000000004" lon="5.138050000000001">
    <ele>350.12000000000006</ele>
   </trkpt>
   <trkpt lat="44.13101" lon="5.13802">
    <ele>352.93</ele>
   </trkpt>
   <trkpt lat="44.131080000000004" lon="5.1380300000000005">
    <ele>353.45000000000005</ele>
   </trkpt>
   <trkpt lat="44.13141" lon="5.138280000000001">
    <ele>355.61</ele>
   </trkpt>
   <trkpt lat="44.13159" lon="5.138470000000001">
    <ele>356.46000000000004</ele>
   </trkpt>
   <trkpt lat="44.131660000000004" lon="5.13851">
    <ele>356.84000000000003</ele>
   </trkpt>
   <trkpt lat="44.13176000000001" lon="5.13853">
    <ele>357.35</ele>
   </trkpt>
   <trkpt lat="44.13199" lon="5.138520000000001">
    <ele>360.25</ele>
   </trkpt>
   <trkpt lat="44.132180000000005" lon="5.1384300000000005">
    <ele>363.41</ele>
   </trkpt>
   <trkpt lat="44.13232000000001" lon="5.138400000000001">
    <ele>364.55</ele>
   </trkpt>
   <trkpt lat="44.132400000000004" lon="5.13842">
    <ele>365.4</ele>
   </trkpt>
   <trkpt lat="44.13248" lon="5.13848">
    <ele>365.87</ele>
   </trkpt>
   <trkpt lat="44.13261000000001" lon="5.138780000000001">
    <ele>366.03000000000003</ele>
   </trkpt>
   <trkpt lat="44.132690000000004" lon="5.13886">
    <ele>366.41</ele>
   </trkpt>
   <trkpt lat="44.13286" lon="5.138870000000001">
    <ele>369.16</ele>
   </trkpt>
   <trkpt lat="44.133120000000005" lon="5.13902">
    <ele>372.08000000000004</ele>
   </trkpt>
   <trkpt lat="44.13331" lon="5.13905">
    <ele>374.52000000000004</ele>
   </trkpt>
   <trkpt lat="44.13354" lon="5.139150000000001">
    <ele>376.89000000000004</ele>
   </trkpt>
   <trkpt lat="44.13374" lon="5.13933">
    <ele>378.02000000000004</ele>
   </trkpt>
   <trkpt lat="44.133860000000006" lon="5.139500000000001">
    <ele>377.97</ele>
   </trkpt>
   <trkpt lat="44.13396" lon="5.139740000000001">
    <ele>378.23</ele>
   </trkpt>
   <trkpt lat="44.134080000000004" lon="5.13989">
    <ele>379.26000000000005</ele>
   </trkpt>
   <trkpt lat="44.134330000000006" lon="5.140110000000001">
    <ele>381.55000000000007</ele>
   </trkpt>
   <trkpt lat="44.134530000000005" lon="5.140230000000001">
    <ele>383.0</ele>
   </trkpt>
   <trkpt lat="44.13463" lon="5.14031">
    <ele>384.08000000000004</ele>
   </trkpt>
   <trkpt lat="44.13467000000001" lon="5.14031">
    <ele>384.08000000000004</ele>
   </trkpt>
   <trkpt lat="44.13468" lon="5.14031">
    <ele>384.08000000000004</ele>
   </trkpt>
   <trkpt lat="44.13463" lon="5.1399300000000006">
    <ele>386.31000000000006</ele>
   </trkpt>
   <trkpt lat="44.13458000000001" lon="5.13987">
    <ele>386.89</ele>
   </trkpt>
   <trkpt lat="44.13456" lon="5.139740000000001">
    <ele>387.76000000000005</ele>
   </trkpt>
   <trkpt lat="44.13459" lon="5.139620000000001">
    <ele>389.32000000000005</ele>
   </trkpt>
   <trkpt lat="44.135040000000004" lon="5.139220000000001">
    <ele>403.02000000000004</ele>
   </trkpt>
   <trkpt lat="44.135110000000005" lon="5.13921">
    <ele>405.04</ele>
   </trkpt>
   <trkpt lat="44.135160000000006" lon="5.13924">
    <ele>405.99</ele>
   </trkpt>
   <trkpt lat="44.1353" lon="5.1391">
    <ele>410.07000000000005</ele>
   </trkpt>
   <trkpt lat="44.13537" lon="5.1391100000000005">
    <ele>410.07000000000005</ele>
   </trkpt>
   <trkpt lat="44.13548" lon="5.1391">
    <ele>412.48</ele>
   </trkpt>
   <trkpt lat="44.13555" lon="5.13903">
    <ele>413.89000000000004</ele>
   </trkpt>
   <trkpt lat="44.13557" lon="5.13895">
    <ele>414.52000000000004</ele>
   </trkpt>
   <trkpt lat="44.135360000000006" lon="5.13872">
    <ele>413.96000000000004</ele>
   </trkpt>
   <trkpt lat="44.13514000000001" lon="5.1385000000000005">
    <ele>412.57000000000005</ele>
   </trkpt>
   <trkpt lat="44.13501" lon="5.13842">
    <ele>412.27000000000004</ele>
   </trkpt>
   <trkpt lat="44.13474" lon="5.138310000000001">
    <ele>411.25000000000006</ele>
   </trkpt>
   <trkpt lat="44.13449000000001" lon="5.138140000000001">
    <ele>409.41</ele>
   </trkpt>
   <trkpt lat="44.133880000000005" lon="5.137510000000001">
    <ele>406.37</ele>
   </trkpt>
   <trkpt lat="44.133140000000004" lon="5.13686">
    <ele>403.17</ele>
   </trkpt>
   <trkpt lat="44.13277" lon="5.136760000000001">
    <ele>402.83000000000004</ele>
   </trkpt>
   <trkpt lat="44.132560000000005" lon="5.13673">
    <ele>401.87000000000006</ele>
   </trkpt>
   <trkpt lat="44.13242" lon="5.13661">
    <ele>401.64000000000004</ele>
   </trkpt>
   <trkpt lat="44.13219" lon="5.136500000000001">
    <ele>401.23</ele>
   </trkpt>
   <trkpt lat="44.13172" lon="5.13637">
    <ele>399.17</ele>
   </trkpt>
   <trkpt lat="44.13143" lon="5.13614">
    <ele>398.04</ele>
   </trkpt>
   <trkpt lat="44.13101" lon="5.1359">
    <ele>393.64000000000004</ele>
   </trkpt>
   <trkpt lat="44.13103" lon="5.135610000000001">
    <ele>394.07000000000005</ele>
   </trkpt>
   <trkpt lat="44.130970000000005" lon="5.135280000000001">
    <ele>393.76000000000005</ele>
   </trkpt>
   <trkpt lat="44.131" lon="5.13487">
    <ele>392.14000000000004</ele>
   </trkpt>
   <trkpt lat="44.13103" lon="5.13475">
    <ele>391.37000000000006</ele>
   </trkpt>
   <trkpt lat="44.13112" lon="5.13466">
    <ele>389.1</ele>
   </trkpt>
   <trkpt lat="44.131350000000005" lon="5.13459">
    <ele>387.67</ele>
   </trkpt>
   <trkpt lat="44.131690000000006" lon="5.13452">
    <ele>384.44</ele>
   </trkpt>
   <trkpt lat="44.131820000000005" lon="5.134530000000001">
    <ele>381.33000000000004</ele>
   </trkpt>
   <trkpt lat="44.13192" lon="5.13452">
    <ele>379.97</ele>
   </trkpt>
   <trkpt lat="44.13192" lon="5.134480000000001">
    <ele>379.20000000000005</ele>
   </trkpt>
   <trkpt lat="44.131870000000006" lon="5.134410000000001">
    <ele>379.20000000000005</ele>
   </trkpt>
   <trkpt lat="44.131780000000006" lon="5.134340000000001">
    <ele>376.71000000000004</ele>
   </trkpt>
   <trkpt lat="44.13161" lon="5.1341">
    <ele>372.29</ele>
   </trkpt>
   <trkpt lat="44.13149000000001" lon="5.133970000000001">
    <ele>370.41</ele>
   </trkpt>
   <trkpt lat="44.13149000000001" lon="5.13389">
    <ele>369.74</ele>
   </trkpt>
   <trkpt lat="44.13152" lon="5.133870000000001">
    <ele>369.29</ele>
   </trkpt>
   <trkpt lat="44.13158000000001" lon="5.13388">
    <ele>368.81</ele>
   </trkpt>
   <trkpt lat="44.13197" lon="5.13415">
    <ele>368.6</ele>
   </trkpt>
   <trkpt lat="44.13217" lon="5.13417">
    <ele>369.52</ele>
   </trkpt>
   <trkpt lat="44.132270000000005" lon="5.1342300000000005">
    <ele>369.6700000000001</ele>
   </trkpt>
   <trkpt lat="44.132470000000005" lon="5.134440000000001">
    <ele>370.59000000000003</ele>
   </trkpt>
   <trkpt lat="44.132650000000005" lon="5.13457">
    <ele>372.35</ele>
   </trkpt>
   <trkpt lat="44.13289" lon="5.13482">
    <ele>374.50000000000006</ele>
   </trkpt>
   <trkpt lat="44.133030000000005" lon="5.135000000000001">
    <ele>374.87</ele>
   </trkpt>
   <trkpt lat="44.133390000000006" lon="5.1352400000000005">
    <ele>376.02000000000004</ele>
   </trkpt>
   <trkpt lat="44.13364000000001" lon="5.1354500000000005">
    <ele>373.26000000000005</ele>
   </trkpt>
   <trkpt lat="44.13374" lon="5.13551">
    <ele>373.26000000000005</ele>
   </trkpt>
   <trkpt lat="44.13383" lon="5.1355">
    <ele>371.85</ele>
   </trkpt>
   <trkpt lat="44.13403" lon="5.13539">
    <ele>368.7300000000001</ele>
   </trkpt>
   <trkpt lat="44.134550000000004" lon="5.1359">
    <ele>362.38000000000005</ele>
   </trkpt>
   <trkpt lat="44.13459" lon="5.135960000000001">
    <ele>362.55</ele>
   </trkpt>
   <trkpt lat="44.13463" lon="5.13611">
    <ele>363.06000000000006</ele>
   </trkpt>
   <trkpt lat="44.134710000000005" lon="5.136270000000001">
    <ele>363.19</ele>
   </trkpt>
   <trkpt lat="44.134750000000004" lon="5.136310000000001">
    <ele>363.11</ele>
   </trkpt>
   <trkpt lat="44.134890000000006" lon="5.136340000000001">
    <ele>362.47</ele>
   </trkpt>
   <trkpt lat="44.135160000000006" lon="5.136360000000001">
    <ele>361.36</ele>
   </trkpt>
   <trkpt lat="44.13543000000001" lon="5.136450000000001">
    <ele>359.68000000000006</ele>
   </trkpt>
   <trkpt lat="44.13582" lon="5.136640000000001">
    <ele>359.72</ele>
   </trkpt>
   <trkpt lat="44.13597" lon="5.13677">
    <ele>360.19</ele>
   </trkpt>
   <trkpt lat="44.136230000000005" lon="5.136780000000001">
    <ele>360.07000000000005</ele>
   </trkpt>
   <trkpt lat="44.13658" lon="5.13698">
    <ele>361.25</ele>
   </trkpt>
   <trkpt lat="44.136630000000004" lon="5.13666">
    <ele>363.79</ele>
   </trkpt>
   <trkpt lat="44.136610000000005" lon="5.13658">
    <ele>364.17</ele>
   </trkpt>
   <trkpt lat="44.136900000000004" lon="5.1368100000000005">
    <ele>373.34</ele>
   </trkpt>
   <trkpt lat="44.137" lon="5.136850000000001">
    <ele>374.44000000000005</ele>
   </trkpt>
   <trkpt lat="44.137100000000004" lon="5.13686">
    <ele>376.38000000000005</ele>
   </trkpt>
   <trkpt lat="44.13727" lon="5.136970000000001">
    <ele>379.68</ele>
   </trkpt>
   <trkpt lat="44.13738" lon="5.13698">
    <ele>382.41</ele>
   </trkpt>
   <trkpt lat="44.137420000000006" lon="5.13696">
    <ele>382.41</ele>
   </trkpt>
   <trkpt lat="44.137530000000005" lon="5.136830000000001">
    <ele>386.19</ele>
   </trkpt>
   <trkpt lat="44.13754" lon="5.13682">
    <ele>386.19</ele>
   </trkpt>
   <trkpt lat="44.137730000000005" lon="5.13654">
    <ele>393.11</ele>
   </trkpt>
   <trkpt lat="44.137980000000006" lon="5.13621">
    <ele>397.0</ele>
   </trkpt>
   <trkpt lat="44.13832" lon="5.13569">
    <ele>410.75000000000006</ele>
   </trkpt>
   <trkpt lat="44.13864" lon="5.13504">
    <ele>424.51000000000005</ele>
   </trkpt>
   <trkpt lat="44.139050000000005" lon="5.134480000000001">
    <ele>434.05</ele>
   </trkpt>
   <trkpt lat="44.139630000000004" lon="5.133640000000001">
    <ele>442.69</ele>
   </trkpt>
   <trkpt lat="44.14007" lon="5.13306">
    <ele>446.59000000000003</ele>
   </trkpt>
   <trkpt lat="44.14025" lon="5.13286">
    <ele>448.31000000000006</ele>
   </trkpt>
   <trkpt lat="44.14032" lon="5.13276">
    <ele>448.52000000000004</ele>
   </trkpt>
   <trkpt lat="44.140350000000005" lon="5.13267">
    <ele>448.62</ele>
   </trkpt>
   <trkpt lat="44.14029" lon="5.132280000000001">
    <ele>446.55000000000007</ele>
   </trkpt>
   <trkpt lat="44.14021" lon="5.132140000000001">
    <ele>444.64000000000004</ele>
   </trkpt>
   <trkpt lat="44.139860000000006" lon="5.13173">
    <ele>439.69</ele>
   </trkpt>
   <trkpt lat="44.13951" lon="5.131270000000001">
    <ele>434.53000000000003</ele>
   </trkpt>
   <trkpt lat="44.139250000000004" lon="5.13088">
    <ele>432.00000000000006</ele>
   </trkpt>
   <trkpt lat="44.13902" lon="5.13034">
    <ele>428.90000000000003</ele>
   </trkpt>
   <trkpt lat="44.13891" lon="5.12971">
    <ele>426.98</ele>
   </trkpt>
   <trkpt lat="44.13881000000001" lon="5.129440000000001">
    <ele>425.23</ele>
   </trkpt>
   <trkpt lat="44.138650000000005" lon="5.129180000000001">
    <ele>424.52</ele>
   </trkpt>
   <trkpt lat="44.138510000000004" lon="5.128410000000001">
    <ele>421.39000000000004</ele>
   </trkpt>
   <trkpt lat="44.138470000000005" lon="5.12804">
    <ele>419.62000000000006</ele>
   </trkpt>
   <trkpt lat="44.1385" lon="5.12765">
    <ele>417.69000000000005</ele>
   </trkpt>
   <trkpt lat="44.13846" lon="5.12722">
    <ele>415.1</ele>
   </trkpt>
   <trkpt lat="44.13824" lon="5.12657">
    <ele>413.99</ele>
   </trkpt>
   <trkpt lat="44.13799" lon="5.126270000000001">
    <ele>409.83000000000004</ele>
   </trkpt>
   <trkpt lat="44.13783" lon="5.12598">
    <ele>408.55</ele>
   </trkpt>
   <trkpt lat="44.13765" lon="5.125590000000001">
    <ele>406.12</ele>
   </trkpt>
   <trkpt lat="44.13763" lon="5.125330000000001">
    <ele>405.24</ele>
   </trkpt>
   <trkpt lat="44.13767000000001" lon="5.12493">
    <ele>403.16</ele>
   </trkpt>
   <trkpt lat="44.13765" lon="5.12443">
    <ele>402.32</ele>
   </trkpt>
   <trkpt lat="44.137570000000004" lon="5.12382">
    <ele>401.72</ele>
   </trkpt>
   <trkpt lat="44.1375" lon="5.12347">
    <ele>401.23</ele>
   </trkpt>
   <trkpt lat="44.13749000000001" lon="5.12321">
    <ele>400.84000000000003</ele>
   </trkpt>
   <trkpt lat="44.13752" lon="5.1227800000000006">
    <ele>400.36</ele>
   </trkpt>
   <trkpt lat="44.1375" lon="5.12267">
    <ele>400.17</ele>
   </trkpt>
   <trkpt lat="44.13740000000001" lon="5.12258">
    <ele>400.17</ele>
   </trkpt>
   <trkpt lat="44.136720000000004" lon="5.12213">
    <ele>398.0</ele>
   </trkpt>
   <trkpt lat="44.13655000000001" lon="5.12173">
    <ele>397.41</ele>
   </trkpt>
   <trkpt lat="44.136410000000005" lon="5.12145">
    <ele>396.61</ele>
   </trkpt>
   <trkpt lat="44.136230000000005" lon="5.121230000000001">
    <ele>396.09000000000003</ele>
   </trkpt>
   <trkpt lat="44.135510000000004" lon="5.12061">
    <ele>391.22</ele>
   </trkpt>
   <trkpt lat="44.13544" lon="5.120500000000001">
    <ele>390.92</ele>
   </trkpt>
   <trkpt lat="44.135180000000005" lon="5.120340000000001">
    <ele>391.63000000000005</ele>
   </trkpt>
   <trkpt lat="44.135090000000005" lon="5.12018">
    <ele>391.40000000000003</ele>
   </trkpt>
   <trkpt lat="44.135020000000004" lon="5.1201300000000005">
    <ele>391.32000000000005</ele>
   </trkpt>
   <trkpt lat="44.134780000000006" lon="5.12004">
    <ele>391.20000000000005</ele>
   </trkpt>
   <trkpt lat="44.13441" lon="5.11983">
    <ele>390.92</ele>
   </trkpt>
   <trkpt lat="44.13414" lon="5.11971">
    <ele>391.19000000000005</ele>
   </trkpt>
   <trkpt lat="44.134100000000004" lon="5.119680000000001">
    <ele>391.09000000000003</ele>
   </trkpt>
   <trkpt lat="44.134080000000004" lon="5.119630000000001">
    <ele>391.09000000000003</ele>
   </trkpt>
   <trkpt lat="44.134280000000004" lon="5.11965">
    <ele>387.95</ele>
   </trkpt>
   <trkpt lat="44.134530000000005" lon="5.119630000000001">
    <ele>384.87000000000006</ele>
   </trkpt>
   <trkpt lat="44.13476000000001" lon="5.11957">
    <ele>382.3</ele>
   </trkpt>
   <trkpt lat="44.13485" lon="5.119610000000001">
    <ele>380.46000000000004</ele>
   </trkpt>
   <trkpt lat="44.135180000000005" lon="5.1196">
    <ele>376.02000000000004</ele>
   </trkpt>
   <trkpt lat="44.135540000000006" lon="5.11981">
    <ele>372.63</ele>
   </trkpt>
   <trkpt lat="44.13571" lon="5.120010000000001">
    <ele>371.1700000000001</ele>
   </trkpt>
   <trkpt lat="44.13579" lon="5.12007">
    <ele>370.33000000000004</ele>
   </trkpt>
   <trkpt lat="44.135870000000004" lon="5.12009">
    <ele>369.82000000000005</ele>
   </trkpt>
   <trkpt lat="44.136140000000005" lon="5.120080000000001">
    <ele>366.06000000000006</ele>
   </trkpt>
   <trkpt lat="44.13618" lon="5.120010000000001">
    <ele>365.65000000000003</ele>
   </trkpt>
   <trkpt lat="44.136280000000006" lon="5.11969">
    <ele>363.05</ele>
   </trkpt>
   <trkpt lat="44.136390000000006" lon="5.119540000000001">
    <ele>361.61</ele>
   </trkpt>
   <trkpt lat="44.13645" lon="5.1195200000000005">
    <ele>360.56000000000006</ele>
   </trkpt>
   <trkpt lat="44.13655000000001" lon="5.1195200000000005">
    <ele>359.97</ele>
   </trkpt>
   <trkpt lat="44.136700000000005" lon="5.119400000000001">
    <ele>357.76</ele>
   </trkpt>
   <trkpt lat="44.136720000000004" lon="5.11932">
    <ele>355.24000000000007</ele>
   </trkpt>
   <trkpt lat="44.13671" lon="5.11925">
    <ele>354.43</ele>
   </trkpt>
   <trkpt lat="44.13653" lon="5.11899">
    <ele>350.95000000000005</ele>
   </trkpt>
   <trkpt lat="44.13627" lon="5.118860000000001">
    <ele>346.96000000000004</ele>
   </trkpt>
   <trkpt lat="44.13624" lon="5.11882">
    <ele>345.23</ele>
   </trkpt>
   <trkpt lat="44.136250000000004" lon="5.118740000000001">
    <ele>344.45000000000005</ele>
   </trkpt>
   <trkpt lat="44.13633" lon="5.118600000000001">
    <ele>342.65</ele>
   </trkpt>
   <trkpt lat="44.136390000000006" lon="5.11854">
    <ele>342.18</ele>
   </trkpt>
   <trkpt lat="44.13646000000001" lon="5.118530000000001">
    <ele>341.76</ele>
   </trkpt>
   <trkpt lat="44.136680000000005" lon="5.11861">
    <ele>339.01000000000005</ele>
   </trkpt>
   <trkpt lat="44.136970000000005" lon="5.118620000000001">
    <ele>336.34000000000003</ele>
   </trkpt>
   <trkpt lat="44.137060000000005" lon="5.11866">
    <ele>335.21</ele>
   </trkpt>
   <trkpt lat="44.137100000000004" lon="5.11873">
    <ele>335.16</ele>
   </trkpt>
   <trkpt lat="44.137150000000005" lon="5.11878">
    <ele>335.27</ele>
   </trkpt>
   <trkpt lat="44.13720000000001" lon="5.11876">
    <ele>335.52000000000004</ele>
   </trkpt>
   <trkpt lat="44.13725" lon="5.11871">
    <ele>335.90000000000003</ele>
   </trkpt>
   <trkpt lat="44.137370000000004" lon="5.1185">
    <ele>337.71</ele>
   </trkpt>
   <trkpt lat="44.13736" lon="5.11814">
    <ele>335.17</ele>
   </trkpt>
   <trkpt lat="44.13743" lon="5.11779">
    <ele>331.06</ele>
   </trkpt>
   <trkpt lat="44.137330000000006" lon="5.11714">
    <ele>323.43000000000006</ele>
   </trkpt>
   <trkpt lat="44.13732" lon="5.117120000000001">
    <ele>323.43000000000006</ele>
   </trkpt>
   <trkpt lat="44.136860000000006" lon="5.116910000000001">
    <ele>316.11</ele>
   </trkpt>
   <trkpt lat="44.13658" lon="5.116840000000001">
    <ele>313.41</ele>
   </trkpt>
   <trkpt lat="44.136250000000004" lon="5.1167300000000004">
    <ele>310.09000000000003</ele>
   </trkpt>
   <trkpt lat="44.136320000000005" lon="5.11657">
    <ele>307.6</ele>
   </trkpt>
   <trkpt lat="44.136410000000005" lon="5.116420000000001">
    <ele>305.54</ele>
   </trkpt>
   <trkpt lat="44.1364" lon="5.11632">
    <ele>305.04</ele>
   </trkpt>
   <trkpt lat="44.13637000000001" lon="5.11624">
    <ele>305.11</ele>
   </trkpt>
   <trkpt lat="44.136140000000005" lon="5.11598">
    <ele>307.66</ele>
   </trkpt>
   <trkpt lat="44.136030000000005" lon="5.115900000000001">
    <ele>307.77000000000004</ele>
   </trkpt>
   <trkpt lat="44.135670000000005" lon="5.1157900000000005">
    <ele>306.27000000000004</ele>
   </trkpt>
   <trkpt lat="44.13544" lon="5.1158">
    <ele>304.85</ele>
   </trkpt>
   <trkpt lat="44.135000000000005" lon="5.1157200000000005">
    <ele>302.59000000000003</ele>
   </trkpt>
   <trkpt lat="44.1349" lon="5.115670000000001">
    <ele>302.29</ele>
   </trkpt>
   <trkpt lat="44.13456" lon="5.11544">
    <ele>301.86</ele>
   </trkpt>
  </trkseg>
 </trk>
</gpx>
