<?xml version="1.0" encoding="UTF-8"?>
<gpx creator="StravaGPX" version="1.1" xmlns="http://www.topografix.com/GPX/1/1" xmlns:xsi="http://www.w3.org/2001/XMLSchema-instance" xsi:schemaLocation="http://www.topografix.com/GPX/1/1 http://www.topografix.com/GPX/1/1/gpx.xsd">
 <metadata>
  <name>VENASQUE 2026 20K OFFICIEL</name>
  <author>
   <name>Vincent Buisson | RunPassionFr</name>
   <link href="https://www.strava.com/athletes/6649008"/>
  </author>
  <copyright author="OpenStreetMap contributors">
   <year>2020</year>
   <license>https://www.openstreetmap.org/copyright</license>
  </copyright>
  <link href="https://www.strava.com/routes/3477281133990712242"/>
 </metadata>
 <trk>
  <name>VENASQUE 2026 20K OFFICIEL</name>
  <link href="https://www.strava.com/routes/3477281133990712242"/>
  <type>trail_running</type>
  <trkseg>
   <trkpt lat="43.99472" lon="5.14817">
    <ele>294.56000000000006</ele>
   </trkpt>
   <trkpt lat="43.994670000000006" lon="5.14787">
    <ele>293.51000000000005</ele>
   </trkpt>
   <trkpt lat="43.99463" lon="5.147880000000001">
    <ele>293.51000000000005</ele>
   </trkpt>
   <trkpt lat="43.994510000000005" lon="5.1478">
    <ele>293.11</ele>
   </trkpt>
   <trkpt lat="43.994420000000005" lon="5.14777">
    <ele>292.82</ele>
   </trkpt>
   <trkpt lat="43.994150000000005" lon="5.147760000000001">
    <ele>292.00000000000006</ele>
   </trkpt>
   <trkpt lat="43.993970000000004" lon="5.1477">
    <ele>291.78000000000003</ele>
   </trkpt>
   <trkpt lat="43.99396" lon="5.1477">
    <ele>291.77000000000004</ele>
   </trkpt>
   <trkpt lat="43.99382000000001" lon="5.1477">
    <ele>291.58</ele>
   </trkpt>
   <trkpt lat="43.993430000000004" lon="5.147880000000001">
    <ele>291.44000000000005</ele>
   </trkpt>
   <trkpt lat="43.9928" lon="5.1481">
    <ele>293.01000000000005</ele>
   </trkpt>
   <trkpt lat="43.992540000000005" lon="5.1482">
    <ele>293.31</ele>
   </trkpt>
   <trkpt lat="43.99244" lon="5.14825">
    <ele>293.07</ele>
   </trkpt>
   <trkpt lat="43.992140000000006" lon="5.14831">
    <ele>291.56000000000006</ele>
   </trkpt>
   <trkpt lat="43.99188" lon="5.14843">
    <ele>291.00000000000006</ele>
   </trkpt>
   <trkpt lat="43.991670000000006" lon="5.14864">
    <ele>291.12000000000006</ele>
   </trkpt>
   <trkpt lat="43.99152" lon="5.148750000000001">
    <ele>292.3</ele>
   </trkpt>
   <trkpt lat="43.991130000000005" lon="5.148840000000001">
    <ele>296.98</ele>
   </trkpt>
   <trkpt lat="43.99047" lon="5.14885">
    <ele>302.1</ele>
   </trkpt>
   <trkpt lat="43.99038" lon="5.1488700000000005">
    <ele>303.01</ele>
   </trkpt>
   <trkpt lat="43.98977000000001" lon="5.14923">
    <ele>311.31</ele>
   </trkpt>
   <trkpt lat="43.98966" lon="5.14928">
    <ele>311.72</ele>
   </trkpt>
   <trkpt lat="43.98955" lon="5.149290000000001">
    <ele>313.59000000000003</ele>
   </trkpt>
   <trkpt lat="43.98933" lon="5.14925">
    <ele>315.18</ele>
   </trkpt>
   <trkpt lat="43.988670000000006" lon="5.14897">
    <ele>319.04</ele>
   </trkpt>
   <trkpt lat="43.98861" lon="5.14899">
    <ele>319.04</ele>
   </trkpt>
   <trkpt lat="43.98845" lon="5.149100000000001">
    <ele>319.24</ele>
   </trkpt>
   <trkpt lat="43.98827000000001" lon="5.14932">
    <ele>319.24</ele>
   </trkpt>
   <trkpt lat="43.98807" lon="5.1496200000000005">
    <ele>319.59000000000003</ele>
   </trkpt>
   <trkpt lat="43.98794" lon="5.1500200000000005">
    <ele>319.21999999999997</ele>
   </trkpt>
   <trkpt lat="43.987610000000004" lon="5.150740000000001">
    <ele>320.54</ele>
   </trkpt>
   <trkpt lat="43.98752" lon="5.15127">
    <ele>318.11</ele>
   </trkpt>
   <trkpt lat="43.98747" lon="5.1514500000000005">
    <ele>317.61</ele>
   </trkpt>
   <trkpt lat="43.98744000000001" lon="5.151560000000001">
    <ele>317.56</ele>
   </trkpt>
   <trkpt lat="43.987210000000005" lon="5.15191">
    <ele>317.08000000000004</ele>
   </trkpt>
   <trkpt lat="43.98709" lon="5.152220000000001">
    <ele>316.66</ele>
   </trkpt>
   <trkpt lat="43.98664" lon="5.1532800000000005">
    <ele>318.46000000000004</ele>
   </trkpt>
   <trkpt lat="43.9866" lon="5.15343">
    <ele>319.29</ele>
   </trkpt>
   <trkpt lat="43.98657" lon="5.1536100000000005">
    <ele>319.91</ele>
   </trkpt>
   <trkpt lat="43.98648" lon="5.15448">
    <ele>323.91</ele>
   </trkpt>
   <trkpt lat="43.98624" lon="5.155290000000001">
    <ele>322.52000000000004</ele>
   </trkpt>
   <trkpt lat="43.986110000000004" lon="5.15554">
    <ele>322.3</ele>
   </trkpt>
   <trkpt lat="43.985960000000006" lon="5.155690000000001">
    <ele>322.54</ele>
   </trkpt>
   <trkpt lat="43.98584" lon="5.155880000000001">
    <ele>323.04</ele>
   </trkpt>
   <trkpt lat="43.98581" lon="5.15606">
    <ele>323.59999999999997</ele>
   </trkpt>
   <trkpt lat="43.985780000000005" lon="5.156540000000001">
    <ele>325.52000000000004</ele>
   </trkpt>
   <trkpt lat="43.985620000000004" lon="5.1570100000000005">
    <ele>324.49</ele>
   </trkpt>
   <trkpt lat="43.98548" lon="5.15758">
    <ele>322.01</ele>
   </trkpt>
   <trkpt lat="43.985310000000005" lon="5.157970000000001">
    <ele>317.28</ele>
   </trkpt>
   <trkpt lat="43.984880000000004" lon="5.158390000000001">
    <ele>311.39</ele>
   </trkpt>
   <trkpt lat="43.98465" lon="5.1585">
    <ele>310.22</ele>
   </trkpt>
   <trkpt lat="43.98443" lon="5.158860000000001">
    <ele>309.17</ele>
   </trkpt>
   <trkpt lat="43.984370000000006" lon="5.15913">
    <ele>308.3</ele>
   </trkpt>
   <trkpt lat="43.984300000000005" lon="5.15918">
    <ele>306.93</ele>
   </trkpt>
   <trkpt lat="43.984230000000004" lon="5.15915">
    <ele>306.93</ele>
   </trkpt>
   <trkpt lat="43.98411" lon="5.1590300000000004">
    <ele>305.24</ele>
   </trkpt>
   <trkpt lat="43.983880000000006" lon="5.15889">
    <ele>303.00000000000006</ele>
   </trkpt>
   <trkpt lat="43.98387" lon="5.15889">
    <ele>302.91</ele>
   </trkpt>
   <trkpt lat="43.98359000000001" lon="5.15875">
    <ele>301.69</ele>
   </trkpt>
   <trkpt lat="43.983250000000005" lon="5.15854">
    <ele>300.56000000000006</ele>
   </trkpt>
   <trkpt lat="43.983180000000004" lon="5.15845">
    <ele>300.11</ele>
   </trkpt>
   <trkpt lat="43.98315" lon="5.15836">
    <ele>299.52</ele>
   </trkpt>
   <trkpt lat="43.98308" lon="5.158250000000001">
    <ele>298.74</ele>
   </trkpt>
   <trkpt lat="43.98301" lon="5.15817">
    <ele>297.73</ele>
   </trkpt>
   <trkpt lat="43.98288" lon="5.15807">
    <ele>295.86</ele>
   </trkpt>
   <trkpt lat="43.98284" lon="5.1580200000000005">
    <ele>295.16</ele>
   </trkpt>
   <trkpt lat="43.98283000000001" lon="5.157970000000001">
    <ele>295.16</ele>
   </trkpt>
   <trkpt lat="43.98284" lon="5.157920000000001">
    <ele>292.22</ele>
   </trkpt>
   <trkpt lat="43.98295" lon="5.157850000000001">
    <ele>291.56000000000006</ele>
   </trkpt>
   <trkpt lat="43.98313" lon="5.157780000000001">
    <ele>289.67</ele>
   </trkpt>
   <trkpt lat="43.983290000000004" lon="5.15782">
    <ele>288.39000000000004</ele>
   </trkpt>
   <trkpt lat="43.98337" lon="5.1578100000000004">
    <ele>287.51000000000005</ele>
   </trkpt>
   <trkpt lat="43.9834" lon="5.157780000000001">
    <ele>287.51000000000005</ele>
   </trkpt>
   <trkpt lat="43.98346" lon="5.157570000000001">
    <ele>285.51000000000005</ele>
   </trkpt>
   <trkpt lat="43.98350000000001" lon="5.15753">
    <ele>285.07000000000005</ele>
   </trkpt>
   <trkpt lat="43.98362" lon="5.15754">
    <ele>283.84000000000003</ele>
   </trkpt>
   <trkpt lat="43.983610000000006" lon="5.15754">
    <ele>283.85</ele>
   </trkpt>
   <trkpt lat="43.983850000000004" lon="5.157590000000001">
    <ele>281.39000000000004</ele>
   </trkpt>
   <trkpt lat="43.98391" lon="5.15756">
    <ele>281.39000000000004</ele>
   </trkpt>
   <trkpt lat="43.98397000000001" lon="5.1574800000000005">
    <ele>280.45000000000005</ele>
   </trkpt>
   <trkpt lat="43.984100000000005" lon="5.15711">
    <ele>277.53</ele>
   </trkpt>
   <trkpt lat="43.984280000000005" lon="5.15679">
    <ele>276.02000000000004</ele>
   </trkpt>
   <trkpt lat="43.98433000000001" lon="5.15652">
    <ele>274.02000000000004</ele>
   </trkpt>
   <trkpt lat="43.98431" lon="5.15634">
    <ele>272.05</ele>
   </trkpt>
   <trkpt lat="43.984280000000005" lon="5.156230000000001">
    <ele>270.81</ele>
   </trkpt>
   <trkpt lat="43.98416" lon="5.15603">
    <ele>268.62</ele>
   </trkpt>
   <trkpt lat="43.98395" lon="5.155220000000001">
    <ele>262.78000000000003</ele>
   </trkpt>
   <trkpt lat="43.98387" lon="5.15496">
    <ele>259.61</ele>
   </trkpt>
   <trkpt lat="43.9838" lon="5.154520000000001">
    <ele>256.23</ele>
   </trkpt>
   <trkpt lat="43.98375" lon="5.154380000000001">
    <ele>255.28</ele>
   </trkpt>
   <trkpt lat="43.98373" lon="5.15427">
    <ele>254.47000000000003</ele>
   </trkpt>
   <trkpt lat="43.983700000000006" lon="5.154240000000001">
    <ele>253.41000000000003</ele>
   </trkpt>
   <trkpt lat="43.98366" lon="5.15416">
    <ele>252.93000000000004</ele>
   </trkpt>
   <trkpt lat="43.98362" lon="5.15383">
    <ele>250.43000000000004</ele>
   </trkpt>
   <trkpt lat="43.983630000000005" lon="5.153530000000001">
    <ele>248.60000000000002</ele>
   </trkpt>
   <trkpt lat="43.983650000000004" lon="5.153370000000001">
    <ele>248.60000000000002</ele>
   </trkpt>
   <trkpt lat="43.983670000000004" lon="5.15326">
    <ele>248.05</ele>
   </trkpt>
   <trkpt lat="43.983650000000004" lon="5.15312">
    <ele>247.08</ele>
   </trkpt>
   <trkpt lat="43.9836" lon="5.1530700000000005">
    <ele>246.50000000000003</ele>
   </trkpt>
   <trkpt lat="43.98301" lon="5.15266">
    <ele>244.41000000000003</ele>
   </trkpt>
   <trkpt lat="43.982980000000005" lon="5.15258">
    <ele>244.47000000000003</ele>
   </trkpt>
   <trkpt lat="43.98293" lon="5.152100000000001">
    <ele>246.63000000000002</ele>
   </trkpt>
   <trkpt lat="43.9829" lon="5.15235">
    <ele>247.63000000000002</ele>
   </trkpt>
   <trkpt lat="43.98272" lon="5.1530000000000005">
    <ele>249.23</ele>
   </trkpt>
   <trkpt lat="43.98259" lon="5.153580000000001">
    <ele>251.56</ele>
   </trkpt>
   <trkpt lat="43.982530000000004" lon="5.154050000000001">
    <ele>254.68</ele>
   </trkpt>
   <trkpt lat="43.98248" lon="5.154190000000001">
    <ele>256.24</ele>
   </trkpt>
   <trkpt lat="43.98243" lon="5.154240000000001">
    <ele>256.24</ele>
   </trkpt>
   <trkpt lat="43.982440000000004" lon="5.1542900000000005">
    <ele>256.24</ele>
   </trkpt>
   <trkpt lat="43.98241" lon="5.15435">
    <ele>256.74</ele>
   </trkpt>
   <trkpt lat="43.98183" lon="5.15446">
    <ele>258.58000000000004</ele>
   </trkpt>
   <trkpt lat="43.98162000000001" lon="5.15453">
    <ele>259.48</ele>
   </trkpt>
   <trkpt lat="43.981280000000005" lon="5.154870000000001">
    <ele>260.58000000000004</ele>
   </trkpt>
   <trkpt lat="43.9808350013599" lon="5.1554200040719165">
    <ele>261.40000000000003</ele>
   </trkpt>
   <trkpt lat="43.98039000000001" lon="5.155970000000001">
    <ele>261.8</ele>
   </trkpt>
   <trkpt lat="43.980090000000004" lon="5.156110000000001">
    <ele>261.78000000000003</ele>
   </trkpt>
   <trkpt lat="43.979960000000005" lon="5.156140000000001">
    <ele>262.08000000000004</ele>
   </trkpt>
   <trkpt lat="43.979820000000004" lon="5.156210000000001">
    <ele>262.08000000000004</ele>
   </trkpt>
   <trkpt lat="43.97961" lon="5.15652">
    <ele>262.16</ele>
   </trkpt>
   <trkpt lat="43.97945000000001" lon="5.15679">
    <ele>262.55</ele>
   </trkpt>
   <trkpt lat="43.979350000000004" lon="5.157310000000001">
    <ele>261.96000000000004</ele>
   </trkpt>
   <trkpt lat="43.97936000000001" lon="5.15753">
    <ele>261.98</ele>
   </trkpt>
   <trkpt lat="43.97939" lon="5.15774">
    <ele>261.99</ele>
   </trkpt>
   <trkpt lat="43.979440000000004" lon="5.15791">
    <ele>261.90000000000003</ele>
   </trkpt>
   <trkpt lat="43.97945000000001" lon="5.15807">
    <ele>262.09000000000003</ele>
   </trkpt>
   <trkpt lat="43.979420000000005" lon="5.15826">
    <ele>262.88</ele>
   </trkpt>
   <trkpt lat="43.97923" lon="5.15843">
    <ele>263.76</ele>
   </trkpt>
   <trkpt lat="43.979130000000005" lon="5.158460000000001">
    <ele>263.89</ele>
   </trkpt>
   <trkpt lat="43.978950000000005" lon="5.1584200000000004">
    <ele>264.3</ele>
   </trkpt>
   <trkpt lat="43.97885" lon="5.15845">
    <ele>264.96000000000004</ele>
   </trkpt>
   <trkpt lat="43.978550000000006" lon="5.15866">
    <ele>267.12</ele>
   </trkpt>
   <trkpt lat="43.97834" lon="5.158860000000001">
    <ele>268.11</ele>
   </trkpt>
   <trkpt lat="43.978060000000006" lon="5.15925">
    <ele>269.2</ele>
   </trkpt>
   <trkpt lat="43.977990000000005" lon="5.159420000000001">
    <ele>269.03000000000003</ele>
   </trkpt>
   <trkpt lat="43.977970000000006" lon="5.159540000000001">
    <ele>269.01000000000005</ele>
   </trkpt>
   <trkpt lat="43.97798" lon="5.1597100000000005">
    <ele>269.2</ele>
   </trkpt>
   <trkpt lat="43.97813" lon="5.16009">
    <ele>270.68</ele>
   </trkpt>
   <trkpt lat="43.978170000000006" lon="5.1602500000000004">
    <ele>271.15</ele>
   </trkpt>
   <trkpt lat="43.97824000000001" lon="5.160380000000001">
    <ele>271.5</ele>
   </trkpt>
   <trkpt lat="43.97842000000001" lon="5.16045">
    <ele>272.6</ele>
   </trkpt>
   <trkpt lat="43.97872" lon="5.16084">
    <ele>273.46000000000004</ele>
   </trkpt>
   <trkpt lat="43.97880000000001" lon="5.160990000000001">
    <ele>273.52000000000004</ele>
   </trkpt>
   <trkpt lat="43.97880000000001" lon="5.161180000000001">
    <ele>274.02000000000004</ele>
   </trkpt>
   <trkpt lat="43.978750000000005" lon="5.16138">
    <ele>275.72</ele>
   </trkpt>
   <trkpt lat="43.978770000000004" lon="5.16157">
    <ele>276.05</ele>
   </trkpt>
   <trkpt lat="43.97872" lon="5.16173">
    <ele>276.36000000000007</ele>
   </trkpt>
   <trkpt lat="43.97867" lon="5.16178">
    <ele>276.73</ele>
   </trkpt>
   <trkpt lat="43.97845" lon="5.16209">
    <ele>277.52000000000004</ele>
   </trkpt>
   <trkpt lat="43.978280000000005" lon="5.1627">
    <ele>279.51000000000005</ele>
   </trkpt>
   <trkpt lat="43.97824000000001" lon="5.163080000000001">
    <ele>280.61</ele>
   </trkpt>
   <trkpt lat="43.978260000000006" lon="5.16321">
    <ele>280.92</ele>
   </trkpt>
   <trkpt lat="43.978210000000004" lon="5.16363">
    <ele>281.14</ele>
   </trkpt>
   <trkpt lat="43.97823" lon="5.163810000000001">
    <ele>281.63000000000005</ele>
   </trkpt>
   <trkpt lat="43.978280000000005" lon="5.164000000000001">
    <ele>282.96999999999997</ele>
   </trkpt>
   <trkpt lat="43.97836" lon="5.16417">
    <ele>283.78000000000003</ele>
   </trkpt>
   <trkpt lat="43.97842000000001" lon="5.164770000000001">
    <ele>285.08</ele>
   </trkpt>
   <trkpt lat="43.97838" lon="5.1653400000000005">
    <ele>285.8</ele>
   </trkpt>
   <trkpt lat="43.97842000000001" lon="5.16553">
    <ele>286.0</ele>
   </trkpt>
   <trkpt lat="43.978500000000004" lon="5.165660000000001">
    <ele>286.38</ele>
   </trkpt>
   <trkpt lat="43.97863" lon="5.165800000000001">
    <ele>287.40000000000003</ele>
   </trkpt>
   <trkpt lat="43.97898000000001" lon="5.16626">
    <ele>288.82</ele>
   </trkpt>
   <trkpt lat="43.979130000000005" lon="5.166300000000001">
    <ele>289.13</ele>
   </trkpt>
   <trkpt lat="43.97925" lon="5.166370000000001">
    <ele>289.36</ele>
   </trkpt>
   <trkpt lat="43.97934" lon="5.166510000000001">
    <ele>290.07000000000005</ele>
   </trkpt>
   <trkpt lat="43.97937" lon="5.16668">
    <ele>290.77000000000004</ele>
   </trkpt>
   <trkpt lat="43.97937" lon="5.16692">
    <ele>290.96</ele>
   </trkpt>
   <trkpt lat="43.97928" lon="5.167400000000001">
    <ele>292.63</ele>
   </trkpt>
   <trkpt lat="43.9793" lon="5.16776">
    <ele>293.31</ele>
   </trkpt>
   <trkpt lat="43.97927000000001" lon="5.16805">
    <ele>294.04</ele>
   </trkpt>
   <trkpt lat="43.9793" lon="5.16819">
    <ele>294.37</ele>
   </trkpt>
   <trkpt lat="43.97939" lon="5.16826">
    <ele>294.56000000000006</ele>
   </trkpt>
   <trkpt lat="43.979400000000005" lon="5.168360000000001">
    <ele>294.56000000000006</ele>
   </trkpt>
   <trkpt lat="43.97939" lon="5.16858">
    <ele>295.17</ele>
   </trkpt>
   <trkpt lat="43.979490000000006" lon="5.168850000000001">
    <ele>295.47</ele>
   </trkpt>
   <trkpt lat="43.979580000000006" lon="5.16922">
    <ele>296.72</ele>
   </trkpt>
   <trkpt lat="43.97965000000001" lon="5.1696800000000005">
    <ele>297.8</ele>
   </trkpt>
   <trkpt lat="43.97975" lon="5.16978">
    <ele>298.15000000000003</ele>
   </trkpt>
   <trkpt lat="43.979890000000005" lon="5.16988">
    <ele>298.87</ele>
   </trkpt>
   <trkpt lat="43.979960000000005" lon="5.169980000000001">
    <ele>299.85</ele>
   </trkpt>
   <trkpt lat="43.98011" lon="5.17035">
    <ele>302.00000000000006</ele>
   </trkpt>
   <trkpt lat="43.980230000000006" lon="5.170400000000001">
    <ele>304.05</ele>
   </trkpt>
   <trkpt lat="43.980340000000005" lon="5.170380000000001">
    <ele>304.91</ele>
   </trkpt>
   <trkpt lat="43.98037" lon="5.1704300000000005">
    <ele>308.56</ele>
   </trkpt>
   <trkpt lat="43.98033" lon="5.1705700000000006">
    <ele>309.41</ele>
   </trkpt>
   <trkpt lat="43.98033" lon="5.17065">
    <ele>310.17</ele>
   </trkpt>
   <trkpt lat="43.98037" lon="5.170750000000001">
    <ele>311.36</ele>
   </trkpt>
   <trkpt lat="43.98037" lon="5.17074">
    <ele>311.28</ele>
   </trkpt>
   <trkpt lat="43.980520000000006" lon="5.17096">
    <ele>313.37</ele>
   </trkpt>
   <trkpt lat="43.98057" lon="5.170990000000001">
    <ele>313.90000000000003</ele>
   </trkpt>
   <trkpt lat="43.98071" lon="5.170850000000001">
    <ele>317.04</ele>
   </trkpt>
   <trkpt lat="43.9808" lon="5.1709700000000005">
    <ele>316.76000000000005</ele>
   </trkpt>
   <trkpt lat="43.98105" lon="5.1711">
    <ele>315.69</ele>
   </trkpt>
   <trkpt lat="43.98129" lon="5.17128">
    <ele>315.82000000000005</ele>
   </trkpt>
   <trkpt lat="43.981590000000004" lon="5.171690000000001">
    <ele>316.99000000000007</ele>
   </trkpt>
   <trkpt lat="43.98203" lon="5.17213">
    <ele>320.96000000000004</ele>
   </trkpt>
   <trkpt lat="43.98218000000001" lon="5.1722">
    <ele>321.29</ele>
   </trkpt>
   <trkpt lat="43.982820000000004" lon="5.17243">
    <ele>324.32000000000005</ele>
   </trkpt>
   <trkpt lat="43.983070000000005" lon="5.17255">
    <ele>325.34000000000003</ele>
   </trkpt>
   <trkpt lat="43.983200000000004" lon="5.17264">
    <ele>325.93000000000006</ele>
   </trkpt>
   <trkpt lat="43.983200000000004" lon="5.172630000000001">
    <ele>325.87000000000006</ele>
   </trkpt>
   <trkpt lat="43.98351" lon="5.17285">
    <ele>327.72</ele>
   </trkpt>
   <trkpt lat="43.98393" lon="5.17307">
    <ele>330.46000000000004</ele>
   </trkpt>
   <trkpt lat="43.984320000000004" lon="5.173570000000001">
    <ele>328.77</ele>
   </trkpt>
   <trkpt lat="43.984350000000006" lon="5.17367">
    <ele>328.33</ele>
   </trkpt>
   <trkpt lat="43.984790000000004" lon="5.174390000000001">
    <ele>329.70000000000005</ele>
   </trkpt>
   <trkpt lat="43.984700000000004" lon="5.17447">
    <ele>330.04</ele>
   </trkpt>
   <trkpt lat="43.984370000000006" lon="5.174650000000001">
    <ele>329.39</ele>
   </trkpt>
   <trkpt lat="43.98407" lon="5.17476">
    <ele>328.69000000000005</ele>
   </trkpt>
   <trkpt lat="43.98359500026574" lon="5.175045002333433">
    <ele>324.19000000000005</ele>
   </trkpt>
   <trkpt lat="43.98312000000001" lon="5.175330000000001">
    <ele>322.23</ele>
   </trkpt>
   <trkpt lat="43.982890000000005" lon="5.175420000000001">
    <ele>321.77</ele>
   </trkpt>
   <trkpt lat="43.98281" lon="5.17546">
    <ele>321.25000000000006</ele>
   </trkpt>
   <trkpt lat="43.982760000000006" lon="5.175520000000001">
    <ele>321.25000000000006</ele>
   </trkpt>
   <trkpt lat="43.98248" lon="5.17611">
    <ele>320.15000000000003</ele>
   </trkpt>
   <trkpt lat="43.982420000000005" lon="5.176030000000001">
    <ele>319.21999999999997</ele>
   </trkpt>
   <trkpt lat="43.98237" lon="5.175890000000001">
    <ele>318.39</ele>
   </trkpt>
   <trkpt lat="43.98239" lon="5.17574">
    <ele>317.74</ele>
   </trkpt>
   <trkpt lat="43.98237" lon="5.17567">
    <ele>317.74</ele>
   </trkpt>
   <trkpt lat="43.982240000000004" lon="5.17539">
    <ele>319.99000000000007</ele>
   </trkpt>
   <trkpt lat="43.982020000000006" lon="5.17508">
    <ele>326.55</ele>
   </trkpt>
   <trkpt lat="43.98192" lon="5.17501">
    <ele>328.32</ele>
   </trkpt>
   <trkpt lat="43.98178" lon="5.1749600000000004">
    <ele>331.56</ele>
   </trkpt>
   <trkpt lat="43.981680000000004" lon="5.174950000000001">
    <ele>333.52000000000004</ele>
   </trkpt>
   <trkpt lat="43.98152" lon="5.17499">
    <ele>339.02000000000004</ele>
   </trkpt>
   <trkpt lat="43.98145" lon="5.17497">
    <ele>339.61</ele>
   </trkpt>
   <trkpt lat="43.981440000000006" lon="5.17497">
    <ele>339.68</ele>
   </trkpt>
   <trkpt lat="43.981260000000006" lon="5.17494">
    <ele>343.67</ele>
   </trkpt>
   <trkpt lat="43.981080000000006" lon="5.174810000000001">
    <ele>347.33000000000004</ele>
   </trkpt>
   <trkpt lat="43.98091" lon="5.17473">
    <ele>349.04</ele>
   </trkpt>
   <trkpt lat="43.98077000000001" lon="5.17464">
    <ele>350.88</ele>
   </trkpt>
   <trkpt lat="43.98064" lon="5.174440000000001">
    <ele>352.54</ele>
   </trkpt>
   <trkpt lat="43.98053" lon="5.17436">
    <ele>355.26</ele>
   </trkpt>
   <trkpt lat="43.98046" lon="5.174270000000001">
    <ele>356.76</ele>
   </trkpt>
   <trkpt lat="43.980360000000005" lon="5.17408">
    <ele>359.69</ele>
   </trkpt>
   <trkpt lat="43.98030000000001" lon="5.173850000000001">
    <ele>360.77000000000004</ele>
   </trkpt>
   <trkpt lat="43.9802" lon="5.17367">
    <ele>362.35</ele>
   </trkpt>
   <trkpt lat="43.98008" lon="5.17353">
    <ele>365.32000000000005</ele>
   </trkpt>
   <trkpt lat="43.979890000000005" lon="5.17316">
    <ele>369.8</ele>
   </trkpt>
   <trkpt lat="43.97981" lon="5.172960000000001">
    <ele>370.75</ele>
   </trkpt>
   <trkpt lat="43.979780000000005" lon="5.17283">
    <ele>372.03000000000003</ele>
   </trkpt>
   <trkpt lat="43.97972" lon="5.17279">
    <ele>372.03000000000003</ele>
   </trkpt>
   <trkpt lat="43.979530000000004" lon="5.17248">
    <ele>376.02000000000004</ele>
   </trkpt>
   <trkpt lat="43.979040000000005" lon="5.172040000000001">
    <ele>389.71000000000004</ele>
   </trkpt>
   <trkpt lat="43.979040000000005" lon="5.17203">
    <ele>389.88</ele>
   </trkpt>
   <trkpt lat="43.97885" lon="5.17189">
    <ele>392.40000000000003</ele>
   </trkpt>
   <trkpt lat="43.978730000000006" lon="5.17184">
    <ele>394.29</ele>
   </trkpt>
   <trkpt lat="43.97851000000001" lon="5.1719800000000005">
    <ele>398.32</ele>
   </trkpt>
   <trkpt lat="43.978410000000004" lon="5.17199">
    <ele>401.12</ele>
   </trkpt>
   <trkpt lat="43.978280000000005" lon="5.17196">
    <ele>403.40000000000003</ele>
   </trkpt>
   <trkpt lat="43.97822" lon="5.171880000000001">
    <ele>403.98</ele>
   </trkpt>
   <trkpt lat="43.978120000000004" lon="5.17189">
    <ele>405.43</ele>
   </trkpt>
   <trkpt lat="43.97805" lon="5.17184">
    <ele>406.27000000000004</ele>
   </trkpt>
   <trkpt lat="43.977990000000005" lon="5.17184">
    <ele>406.27000000000004</ele>
   </trkpt>
   <trkpt lat="43.97777000000001" lon="5.172000000000001">
    <ele>408.29</ele>
   </trkpt>
   <trkpt lat="43.97767" lon="5.171950000000001">
    <ele>410.40000000000003</ele>
   </trkpt>
   <trkpt lat="43.9776" lon="5.17196">
    <ele>410.82</ele>
   </trkpt>
   <trkpt lat="43.977270000000004" lon="5.17213">
    <ele>412.72</ele>
   </trkpt>
   <trkpt lat="43.97722" lon="5.17225">
    <ele>412.81</ele>
   </trkpt>
   <trkpt lat="43.977140000000006" lon="5.17234">
    <ele>412.87</ele>
   </trkpt>
   <trkpt lat="43.9771" lon="5.17245">
    <ele>412.6</ele>
   </trkpt>
   <trkpt lat="43.977070000000005" lon="5.17262">
    <ele>411.91</ele>
   </trkpt>
   <trkpt lat="43.97713" lon="5.17281">
    <ele>409.95000000000005</ele>
   </trkpt>
   <trkpt lat="43.97719" lon="5.172910000000001">
    <ele>409.32</ele>
   </trkpt>
   <trkpt lat="43.9772" lon="5.1730100000000006">
    <ele>409.12</ele>
   </trkpt>
   <trkpt lat="43.97708" lon="5.173240000000001">
    <ele>409.40000000000003</ele>
   </trkpt>
   <trkpt lat="43.97697" lon="5.173380000000001">
    <ele>409.64000000000004</ele>
   </trkpt>
   <trkpt lat="43.976800000000004" lon="5.17346">
    <ele>410.34000000000003</ele>
   </trkpt>
   <trkpt lat="43.97666" lon="5.17356">
    <ele>411.69000000000005</ele>
   </trkpt>
   <trkpt lat="43.976490000000005" lon="5.17363">
    <ele>413.55</ele>
   </trkpt>
   <trkpt lat="43.97645000000001" lon="5.17363">
    <ele>413.87</ele>
   </trkpt>
   <trkpt lat="43.976290000000006" lon="5.17349">
    <ele>415.06000000000006</ele>
   </trkpt>
   <trkpt lat="43.9761" lon="5.173360000000001">
    <ele>417.39000000000004</ele>
   </trkpt>
   <trkpt lat="43.976040000000005" lon="5.1733400000000005">
    <ele>417.98</ele>
   </trkpt>
   <trkpt lat="43.97592" lon="5.173380000000001">
    <ele>419.51000000000005</ele>
   </trkpt>
   <trkpt lat="43.97572" lon="5.173150000000001">
    <ele>423.96000000000004</ele>
   </trkpt>
   <trkpt lat="43.97552" lon="5.1730100000000006">
    <ele>425.23</ele>
   </trkpt>
   <trkpt lat="43.9754" lon="5.172960000000001">
    <ele>425.67</ele>
   </trkpt>
   <trkpt lat="43.97496" lon="5.172840000000001">
    <ele>426.86</ele>
   </trkpt>
   <trkpt lat="43.9748" lon="5.172840000000001">
    <ele>428.00000000000006</ele>
   </trkpt>
   <trkpt lat="43.974230000000006" lon="5.172560000000001">
    <ele>431.95000000000005</ele>
   </trkpt>
   <trkpt lat="43.974230000000006" lon="5.17255">
    <ele>431.90000000000003</ele>
   </trkpt>
   <trkpt lat="43.97413" lon="5.172490000000001">
    <ele>433.38000000000005</ele>
   </trkpt>
   <trkpt lat="43.9739" lon="5.17239">
    <ele>437.1700000000001</ele>
   </trkpt>
   <trkpt lat="43.97381" lon="5.17238">
    <ele>438.1</ele>
   </trkpt>
   <trkpt lat="43.973620000000004" lon="5.17248">
    <ele>438.64000000000004</ele>
   </trkpt>
   <trkpt lat="43.97355" lon="5.17257">
    <ele>438.74</ele>
   </trkpt>
   <trkpt lat="43.97323" lon="5.17281">
    <ele>448.21000000000004</ele>
   </trkpt>
   <trkpt lat="43.97296" lon="5.1728700000000005">
    <ele>455.47</ele>
   </trkpt>
   <trkpt lat="43.97289000000001" lon="5.17292">
    <ele>458.45</ele>
   </trkpt>
   <trkpt lat="43.97280000000001" lon="5.17306">
    <ele>461.55</ele>
   </trkpt>
   <trkpt lat="43.97279" lon="5.173170000000001">
    <ele>464.75000000000006</ele>
   </trkpt>
   <trkpt lat="43.97254" lon="5.17358">
    <ele>478.05</ele>
   </trkpt>
   <trkpt lat="43.97249" lon="5.17356">
    <ele>478.80000000000007</ele>
   </trkpt>
   <trkpt lat="43.972370000000005" lon="5.173640000000001">
    <ele>480.83000000000004</ele>
   </trkpt>
   <trkpt lat="43.972190000000005" lon="5.17367">
    <ele>486.07000000000005</ele>
   </trkpt>
   <trkpt lat="43.972010000000004" lon="5.17363">
    <ele>487.69</ele>
   </trkpt>
   <trkpt lat="43.971880000000006" lon="5.17365">
    <ele>489.58</ele>
   </trkpt>
   <trkpt lat="43.97171" lon="5.17358">
    <ele>493.01000000000005</ele>
   </trkpt>
   <trkpt lat="43.971590000000006" lon="5.17346">
    <ele>499.3</ele>
   </trkpt>
   <trkpt lat="43.9714" lon="5.1734100000000005">
    <ele>504.32</ele>
   </trkpt>
   <trkpt lat="43.971320000000006" lon="5.1734100000000005">
    <ele>510.09999999999997</ele>
   </trkpt>
   <trkpt lat="43.971180000000004" lon="5.1735500000000005">
    <ele>512.12</ele>
   </trkpt>
   <trkpt lat="43.97113" lon="5.17353">
    <ele>511.74000000000007</ele>
   </trkpt>
   <trkpt lat="43.971120000000006" lon="5.17353">
    <ele>511.78000000000003</ele>
   </trkpt>
   <trkpt lat="43.97101000000001" lon="5.17351">
    <ele>510.92</ele>
   </trkpt>
   <trkpt lat="43.9709" lon="5.17351">
    <ele>511.9100000000001</ele>
   </trkpt>
   <trkpt lat="43.97084" lon="5.17356">
    <ele>512.88</ele>
   </trkpt>
   <trkpt lat="43.970670000000005" lon="5.17384">
    <ele>518.73</ele>
   </trkpt>
   <trkpt lat="43.97039" lon="5.174">
    <ele>534.8900000000001</ele>
   </trkpt>
   <trkpt lat="43.97032" lon="5.17408">
    <ele>537.19</ele>
   </trkpt>
   <trkpt lat="43.97023" lon="5.17412">
    <ele>544.48</ele>
   </trkpt>
   <trkpt lat="43.970110000000005" lon="5.1741">
    <ele>551.0</ele>
   </trkpt>
   <trkpt lat="43.97005" lon="5.174040000000001">
    <ele>552.85</ele>
   </trkpt>
   <trkpt lat="43.970020000000005" lon="5.174040000000001">
    <ele>552.85</ele>
   </trkpt>
   <trkpt lat="43.96992" lon="5.17422">
    <ele>554.19</ele>
   </trkpt>
   <trkpt lat="43.969710000000006" lon="5.174300000000001">
    <ele>553.9200000000001</ele>
   </trkpt>
   <trkpt lat="43.969620000000006" lon="5.174250000000001">
    <ele>553.2</ele>
   </trkpt>
   <trkpt lat="43.96936" lon="5.17424">
    <ele>552.0200000000001</ele>
   </trkpt>
   <trkpt lat="43.96929" lon="5.17415">
    <ele>550.71</ele>
   </trkpt>
   <trkpt lat="43.969100000000005" lon="5.17412">
    <ele>549.5600000000001</ele>
   </trkpt>
   <trkpt lat="43.96898" lon="5.17403">
    <ele>548.88</ele>
   </trkpt>
   <trkpt lat="43.96896" lon="5.17398">
    <ele>548.07</ele>
   </trkpt>
   <trkpt lat="43.96891" lon="5.1739500000000005">
    <ele>548.07</ele>
   </trkpt>
   <trkpt lat="43.968770000000006" lon="5.173920000000001">
    <ele>546.71</ele>
   </trkpt>
   <trkpt lat="43.96866000000001" lon="5.17386">
    <ele>546.27</ele>
   </trkpt>
   <trkpt lat="43.96851" lon="5.1737400000000004">
    <ele>544.1400000000001</ele>
   </trkpt>
   <trkpt lat="43.96831" lon="5.17354">
    <ele>545.88</ele>
   </trkpt>
   <trkpt lat="43.968160000000005" lon="5.173520000000001">
    <ele>546.1100000000001</ele>
   </trkpt>
   <trkpt lat="43.96810000000001" lon="5.17344">
    <ele>545.0600000000001</ele>
   </trkpt>
   <trkpt lat="43.96802" lon="5.173450000000001">
    <ele>544.21</ele>
   </trkpt>
   <trkpt lat="43.967980000000004" lon="5.1734">
    <ele>542.24</ele>
   </trkpt>
   <trkpt lat="43.96793" lon="5.17339">
    <ele>541.37</ele>
   </trkpt>
   <trkpt lat="43.967850000000006" lon="5.17347">
    <ele>540.18</ele>
   </trkpt>
   <trkpt lat="43.967800000000004" lon="5.173430000000001">
    <ele>539.82</ele>
   </trkpt>
   <trkpt lat="43.967760000000006" lon="5.17342">
    <ele>539.82</ele>
   </trkpt>
   <trkpt lat="43.96772000000001" lon="5.17349">
    <ele>538.97</ele>
   </trkpt>
   <trkpt lat="43.967670000000005" lon="5.17346">
    <ele>538.6500000000001</ele>
   </trkpt>
   <trkpt lat="43.967600000000004" lon="5.17332">
    <ele>537.49</ele>
   </trkpt>
   <trkpt lat="43.967600000000004" lon="5.173310000000001">
    <ele>537.4100000000001</ele>
   </trkpt>
   <trkpt lat="43.967560000000006" lon="5.17321">
    <ele>536.3800000000001</ele>
   </trkpt>
   <trkpt lat="43.967510000000004" lon="5.1732000000000005">
    <ele>535.61</ele>
   </trkpt>
   <trkpt lat="43.96744" lon="5.173220000000001">
    <ele>534.6700000000001</ele>
   </trkpt>
   <trkpt lat="43.96737" lon="5.17318">
    <ele>532.54</ele>
   </trkpt>
   <trkpt lat="43.967290000000006" lon="5.173100000000001">
    <ele>531.1700000000001</ele>
   </trkpt>
   <trkpt lat="43.96719" lon="5.173050000000001">
    <ele>532.5600000000001</ele>
   </trkpt>
   <trkpt lat="43.967110000000005" lon="5.172890000000001">
    <ele>536.08</ele>
   </trkpt>
   <trkpt lat="43.96703" lon="5.17286">
    <ele>538.0</ele>
   </trkpt>
   <trkpt lat="43.966910000000006" lon="5.17272">
    <ele>539.86</ele>
   </trkpt>
   <trkpt lat="43.96678000000001" lon="5.17262">
    <ele>541.0500000000001</ele>
   </trkpt>
   <trkpt lat="43.966660000000005" lon="5.172770000000001">
    <ele>540.75</ele>
   </trkpt>
   <trkpt lat="43.966530000000006" lon="5.173">
    <ele>539.45</ele>
   </trkpt>
   <trkpt lat="43.966350000000006" lon="5.173240000000001">
    <ele>537.96</ele>
   </trkpt>
   <trkpt lat="43.96616" lon="5.173520000000001">
    <ele>536.74</ele>
   </trkpt>
   <trkpt lat="43.966100000000004" lon="5.17365">
    <ele>536.71</ele>
   </trkpt>
   <trkpt lat="43.96602" lon="5.173970000000001">
    <ele>537.4300000000001</ele>
   </trkpt>
   <trkpt lat="43.96585" lon="5.17436">
    <ele>538.95</ele>
   </trkpt>
   <trkpt lat="43.965790000000005" lon="5.1743500000000004">
    <ele>538.95</ele>
   </trkpt>
   <trkpt lat="43.965720000000005" lon="5.17428">
    <ele>539.2600000000001</ele>
   </trkpt>
   <trkpt lat="43.96569" lon="5.17415">
    <ele>540.5600000000001</ele>
   </trkpt>
   <trkpt lat="43.96562" lon="5.17403">
    <ele>541.5000000000001</ele>
   </trkpt>
   <trkpt lat="43.96546" lon="5.173970000000001">
    <ele>542.54</ele>
   </trkpt>
   <trkpt lat="43.965210000000006" lon="5.17382">
    <ele>546.7800000000001</ele>
   </trkpt>
   <trkpt lat="43.964850000000006" lon="5.17321">
    <ele>551.88</ele>
   </trkpt>
   <trkpt lat="43.96479" lon="5.17316">
    <ele>551.88</ele>
   </trkpt>
   <trkpt lat="43.96479" lon="5.173150000000001">
    <ele>551.9000000000001</ele>
   </trkpt>
   <trkpt lat="43.964760000000005" lon="5.1731300000000005">
    <ele>551.9000000000001</ele>
   </trkpt>
   <trkpt lat="43.964600000000004" lon="5.17306">
    <ele>553.3800000000001</ele>
   </trkpt>
   <trkpt lat="43.964510000000004" lon="5.172980000000001">
    <ele>553.7700000000001</ele>
   </trkpt>
   <trkpt lat="43.964330000000004" lon="5.17293">
    <ele>553.9200000000001</ele>
   </trkpt>
   <trkpt lat="43.96405" lon="5.17264">
    <ele>553.6600000000001</ele>
   </trkpt>
   <trkpt lat="43.963800000000006" lon="5.1725">
    <ele>552.62</ele>
   </trkpt>
   <trkpt lat="43.96360000000001" lon="5.1725200000000005">
    <ele>551.27</ele>
   </trkpt>
   <trkpt lat="43.963440000000006" lon="5.1725">
    <ele>548.54</ele>
   </trkpt>
   <trkpt lat="43.96312" lon="5.172510000000001">
    <ele>545.1700000000001</ele>
   </trkpt>
   <trkpt lat="43.96298" lon="5.1725">
    <ele>543.84</ele>
   </trkpt>
   <trkpt lat="43.962740000000004" lon="5.17246">
    <ele>542.5600000000001</ele>
   </trkpt>
   <trkpt lat="43.962300000000006" lon="5.17245">
    <ele>543.1100000000001</ele>
   </trkpt>
   <trkpt lat="43.962180000000004" lon="5.17241">
    <ele>543.49</ele>
   </trkpt>
   <trkpt lat="43.96209" lon="5.172350000000001">
    <ele>544.5500000000001</ele>
   </trkpt>
   <trkpt lat="43.96184" lon="5.1723300000000005">
    <ele>545.25</ele>
   </trkpt>
   <trkpt lat="43.96177" lon="5.172350000000001">
    <ele>545.42</ele>
   </trkpt>
   <trkpt lat="43.96126" lon="5.17253">
    <ele>546.7500000000001</ele>
   </trkpt>
   <trkpt lat="43.96092" lon="5.17239">
    <ele>549.1700000000001</ele>
   </trkpt>
   <trkpt lat="43.96076" lon="5.17222">
    <ele>549.84</ele>
   </trkpt>
   <trkpt lat="43.960550000000005" lon="5.172160000000001">
    <ele>551.13</ele>
   </trkpt>
   <trkpt lat="43.960460000000005" lon="5.172160000000001">
    <ele>551.6</ele>
   </trkpt>
   <trkpt lat="43.96011" lon="5.172300000000001">
    <ele>553.32</ele>
   </trkpt>
   <trkpt lat="43.959770000000006" lon="5.172230000000001">
    <ele>556.79</ele>
   </trkpt>
   <trkpt lat="43.959700000000005" lon="5.1722">
    <ele>557.67</ele>
   </trkpt>
   <trkpt lat="43.95958" lon="5.17206">
    <ele>558.5600000000001</ele>
   </trkpt>
   <trkpt lat="43.959520000000005" lon="5.1720500000000005">
    <ele>558.5600000000001</ele>
   </trkpt>
   <trkpt lat="43.9594" lon="5.172090000000001">
    <ele>560.09</ele>
   </trkpt>
   <trkpt lat="43.959230000000005" lon="5.17206">
    <ele>560.09</ele>
   </trkpt>
   <trkpt lat="43.95913" lon="5.17199">
    <ele>561.4200000000001</ele>
   </trkpt>
   <trkpt lat="43.95904" lon="5.171950000000001">
    <ele>561.4200000000001</ele>
   </trkpt>
   <trkpt lat="43.95879" lon="5.17189">
    <ele>563.0</ele>
   </trkpt>
   <trkpt lat="43.95872000000001" lon="5.17185">
    <ele>563.0</ele>
   </trkpt>
   <trkpt lat="43.958200000000005" lon="5.17185">
    <ele>569.32</ele>
   </trkpt>
   <trkpt lat="43.958110000000005" lon="5.17187">
    <ele>571.11</ele>
   </trkpt>
   <trkpt lat="43.95781" lon="5.17166">
    <ele>574.13</ele>
   </trkpt>
   <trkpt lat="43.957640000000005" lon="5.17161">
    <ele>575.76</ele>
   </trkpt>
   <trkpt lat="43.957460000000005" lon="5.1715100000000005">
    <ele>579.26</ele>
   </trkpt>
   <trkpt lat="43.957370000000004" lon="5.17149">
    <ele>580.04</ele>
   </trkpt>
   <trkpt lat="43.95736" lon="5.17149">
    <ele>580.01</ele>
   </trkpt>
   <trkpt lat="43.957300000000004" lon="5.17149">
    <ele>580.95</ele>
   </trkpt>
   <trkpt lat="43.9572" lon="5.1714400000000005">
    <ele>581.96</ele>
   </trkpt>
   <trkpt lat="43.956990000000005" lon="5.171270000000001">
    <ele>584.8500000000001</ele>
   </trkpt>
   <trkpt lat="43.956790000000005" lon="5.17116">
    <ele>586.1200000000001</ele>
   </trkpt>
   <trkpt lat="43.956610000000005" lon="5.17102">
    <ele>588.21</ele>
   </trkpt>
   <trkpt lat="43.95647" lon="5.170780000000001">
    <ele>589.35</ele>
   </trkpt>
   <trkpt lat="43.95637000000001" lon="5.170750000000001">
    <ele>590.25</ele>
   </trkpt>
   <trkpt lat="43.95631" lon="5.17067">
    <ele>592.1800000000001</ele>
   </trkpt>
   <trkpt lat="43.95627" lon="5.17065">
    <ele>592.1800000000001</ele>
   </trkpt>
   <trkpt lat="43.956160000000004" lon="5.170470000000001">
    <ele>593.8100000000001</ele>
   </trkpt>
   <trkpt lat="43.95624" lon="5.170120000000001">
    <ele>593.7600000000001</ele>
   </trkpt>
   <trkpt lat="43.956210000000006" lon="5.16981">
    <ele>593.62</ele>
   </trkpt>
   <trkpt lat="43.956210000000006" lon="5.1698">
    <ele>593.6300000000001</ele>
   </trkpt>
   <trkpt lat="43.95613" lon="5.169180000000001">
    <ele>596.9300000000001</ele>
   </trkpt>
   <trkpt lat="43.95604" lon="5.169020000000001">
    <ele>597.74</ele>
   </trkpt>
   <trkpt lat="43.955980000000004" lon="5.168970000000001">
    <ele>598.43</ele>
   </trkpt>
   <trkpt lat="43.95575" lon="5.168900000000001">
    <ele>599.1899999999999</ele>
   </trkpt>
   <trkpt lat="43.955490000000005" lon="5.16877">
    <ele>600.22</ele>
   </trkpt>
   <trkpt lat="43.955070000000006" lon="5.16842">
    <ele>601.35</ele>
   </trkpt>
   <trkpt lat="43.955000000000005" lon="5.16833">
    <ele>601.5</ele>
   </trkpt>
   <trkpt lat="43.95494" lon="5.16821">
    <ele>601.6100000000001</ele>
   </trkpt>
   <trkpt lat="43.954910000000005" lon="5.16807">
    <ele>601.7900000000001</ele>
   </trkpt>
   <trkpt lat="43.954910000000005" lon="5.16795">
    <ele>602.1899999999999</ele>
   </trkpt>
   <trkpt lat="43.955020000000005" lon="5.167330000000001">
    <ele>603.4000000000001</ele>
   </trkpt>
   <trkpt lat="43.95508" lon="5.167140000000001">
    <ele>603.48</ele>
   </trkpt>
   <trkpt lat="43.95521" lon="5.166930000000001">
    <ele>603.57</ele>
   </trkpt>
   <trkpt lat="43.95539" lon="5.166550000000001">
    <ele>603.44</ele>
   </trkpt>
   <trkpt lat="43.95579" lon="5.16605">
    <ele>603.95</ele>
   </trkpt>
   <trkpt lat="43.956100000000006" lon="5.1655500000000005">
    <ele>605.82</ele>
   </trkpt>
   <trkpt lat="43.95622" lon="5.16537">
    <ele>606.6400000000001</ele>
   </trkpt>
   <trkpt lat="43.95627" lon="5.165240000000001">
    <ele>607.33</ele>
   </trkpt>
   <trkpt lat="43.956410000000005" lon="5.1642600000000005">
    <ele>611.96</ele>
   </trkpt>
   <trkpt lat="43.9564" lon="5.164090000000001">
    <ele>615.1500000000001</ele>
   </trkpt>
   <trkpt lat="43.95642" lon="5.163970000000001">
    <ele>615.1500000000001</ele>
   </trkpt>
   <trkpt lat="43.95655000000001" lon="5.16377">
    <ele>617.4000000000001</ele>
   </trkpt>
   <trkpt lat="43.95658" lon="5.16366">
    <ele>617.4000000000001</ele>
   </trkpt>
   <trkpt lat="43.95658" lon="5.163550000000001">
    <ele>617.4000000000001</ele>
   </trkpt>
   <trkpt lat="43.95655000000001" lon="5.16345">
    <ele>621.7900000000001</ele>
   </trkpt>
   <trkpt lat="43.956320000000005" lon="5.16323">
    <ele>624.7900000000001</ele>
   </trkpt>
   <trkpt lat="43.95618" lon="5.16303">
    <ele>626.48</ele>
   </trkpt>
   <trkpt lat="43.955890000000004" lon="5.162310000000001">
    <ele>633.41</ele>
   </trkpt>
   <trkpt lat="43.955760000000005" lon="5.162140000000001">
    <ele>634.56</ele>
   </trkpt>
   <trkpt lat="43.955690000000004" lon="5.1620800000000004">
    <ele>634.85</ele>
   </trkpt>
   <trkpt lat="43.95559" lon="5.16204">
    <ele>634.94</ele>
   </trkpt>
   <trkpt lat="43.955490000000005" lon="5.16195">
    <ele>634.7700000000001</ele>
   </trkpt>
   <trkpt lat="43.955400000000004" lon="5.161700000000001">
    <ele>633.73</ele>
   </trkpt>
   <trkpt lat="43.95488" lon="5.160760000000001">
    <ele>633.19</ele>
   </trkpt>
   <trkpt lat="43.95478000000001" lon="5.16051">
    <ele>633.72</ele>
   </trkpt>
   <trkpt lat="43.954640000000005" lon="5.160340000000001">
    <ele>633.94</ele>
   </trkpt>
   <trkpt lat="43.95458000000001" lon="5.16023">
    <ele>633.8600000000001</ele>
   </trkpt>
   <trkpt lat="43.95454" lon="5.160010000000001">
    <ele>633.5400000000001</ele>
   </trkpt>
   <trkpt lat="43.95461" lon="5.159350000000001">
    <ele>632.61</ele>
   </trkpt>
   <trkpt lat="43.95469000000001" lon="5.1590300000000004">
    <ele>632.36</ele>
   </trkpt>
   <trkpt lat="43.95479" lon="5.15875">
    <ele>632.1800000000001</ele>
   </trkpt>
   <trkpt lat="43.95492" lon="5.1584">
    <ele>631.66</ele>
   </trkpt>
   <trkpt lat="43.95496000000001" lon="5.1580900000000005">
    <ele>631.6400000000001</ele>
   </trkpt>
   <trkpt lat="43.955090000000006" lon="5.158110000000001">
    <ele>631.8000000000001</ele>
   </trkpt>
   <trkpt lat="43.95548" lon="5.15805">
    <ele>632.39</ele>
   </trkpt>
   <trkpt lat="43.955690000000004" lon="5.15798">
    <ele>632.41</ele>
   </trkpt>
   <trkpt lat="43.955850000000005" lon="5.15796">
    <ele>632.1600000000001</ele>
   </trkpt>
   <trkpt lat="43.95622" lon="5.15798">
    <ele>630.12</ele>
   </trkpt>
   <trkpt lat="43.95631" lon="5.15791">
    <ele>629.4000000000001</ele>
   </trkpt>
   <trkpt lat="43.95669" lon="5.15789">
    <ele>623.1300000000001</ele>
   </trkpt>
   <trkpt lat="43.956830000000004" lon="5.15793">
    <ele>621.36</ele>
   </trkpt>
   <trkpt lat="43.95702000000001" lon="5.15796">
    <ele>619.5</ele>
   </trkpt>
   <trkpt lat="43.957010000000004" lon="5.15796">
    <ele>619.78</ele>
   </trkpt>
   <trkpt lat="43.957460000000005" lon="5.15803">
    <ele>616.0300000000001</ele>
   </trkpt>
   <trkpt lat="43.95816000000001" lon="5.158250000000001">
    <ele>604.83</ele>
   </trkpt>
   <trkpt lat="43.958420000000004" lon="5.15821">
    <ele>603.36</ele>
   </trkpt>
   <trkpt lat="43.958760000000005" lon="5.15812">
    <ele>598.86</ele>
   </trkpt>
   <trkpt lat="43.95895" lon="5.15812">
    <ele>596.32</ele>
   </trkpt>
   <trkpt lat="43.959070000000004" lon="5.1581">
    <ele>596.32</ele>
   </trkpt>
   <trkpt lat="43.95935" lon="5.15798">
    <ele>593.09</ele>
   </trkpt>
   <trkpt lat="43.95955" lon="5.157940000000001">
    <ele>589.7</ele>
   </trkpt>
   <trkpt lat="43.95975000000001" lon="5.15798">
    <ele>588.01</ele>
   </trkpt>
   <trkpt lat="43.959740000000004" lon="5.15798">
    <ele>588.22</ele>
   </trkpt>
   <trkpt lat="43.960060000000006" lon="5.15803">
    <ele>584.23</ele>
   </trkpt>
   <trkpt lat="43.960150000000006" lon="5.157990000000001">
    <ele>583.45</ele>
   </trkpt>
   <trkpt lat="43.960480000000004" lon="5.15793">
    <ele>576.8000000000001</ele>
   </trkpt>
   <trkpt lat="43.960530000000006" lon="5.157900000000001">
    <ele>576.8000000000001</ele>
   </trkpt>
   <trkpt lat="43.960640000000005" lon="5.157900000000001">
    <ele>575.1400000000001</ele>
   </trkpt>
   <trkpt lat="43.96079" lon="5.15784">
    <ele>573.44</ele>
   </trkpt>
   <trkpt lat="43.96112" lon="5.15763">
    <ele>569.91</ele>
   </trkpt>
   <trkpt lat="43.961220000000004" lon="5.15753">
    <ele>570.5400000000001</ele>
   </trkpt>
   <trkpt lat="43.9613" lon="5.15737">
    <ele>572.08</ele>
   </trkpt>
   <trkpt lat="43.96132" lon="5.157150000000001">
    <ele>570.4</ele>
   </trkpt>
   <trkpt lat="43.96135" lon="5.15709">
    <ele>569.1</ele>
   </trkpt>
   <trkpt lat="43.96144" lon="5.15699">
    <ele>563.86</ele>
   </trkpt>
   <trkpt lat="43.961600000000004" lon="5.15693">
    <ele>553.52</ele>
   </trkpt>
   <trkpt lat="43.96166" lon="5.156960000000001">
    <ele>553.52</ele>
   </trkpt>
   <trkpt lat="43.961670000000005" lon="5.157030000000001">
    <ele>551.59</ele>
   </trkpt>
   <trkpt lat="43.9617" lon="5.15706">
    <ele>549.84</ele>
   </trkpt>
   <trkpt lat="43.96177" lon="5.15706">
    <ele>546.84</ele>
   </trkpt>
   <trkpt lat="43.961830000000006" lon="5.157030000000001">
    <ele>545.5500000000001</ele>
   </trkpt>
   <trkpt lat="43.96197" lon="5.156890000000001">
    <ele>542.27</ele>
   </trkpt>
   <trkpt lat="43.96209" lon="5.1567300000000005">
    <ele>537.2600000000001</ele>
   </trkpt>
   <trkpt lat="43.96219000000001" lon="5.15664">
    <ele>536.08</ele>
   </trkpt>
   <trkpt lat="43.96224" lon="5.156540000000001">
    <ele>530.9200000000001</ele>
   </trkpt>
   <trkpt lat="43.962320000000005" lon="5.15646">
    <ele>529.7</ele>
   </trkpt>
   <trkpt lat="43.96249" lon="5.15641">
    <ele>524.98</ele>
   </trkpt>
   <trkpt lat="43.96255" lon="5.156350000000001">
    <ele>524.0799999999999</ele>
   </trkpt>
   <trkpt lat="43.96258" lon="5.15627">
    <ele>523.1</ele>
   </trkpt>
   <trkpt lat="43.96264" lon="5.156210000000001">
    <ele>519.93</ele>
   </trkpt>
   <trkpt lat="43.9632" lon="5.15599">
    <ele>510.45000000000005</ele>
   </trkpt>
   <trkpt lat="43.963330000000006" lon="5.155900000000001">
    <ele>507.0300000000001</ele>
   </trkpt>
   <trkpt lat="43.96349" lon="5.15584">
    <ele>503.16</ele>
   </trkpt>
   <trkpt lat="43.96354" lon="5.155830000000001">
    <ele>503.16</ele>
   </trkpt>
   <trkpt lat="43.963660000000004" lon="5.15589">
    <ele>501.27</ele>
   </trkpt>
   <trkpt lat="43.96381" lon="5.15585">
    <ele>496.7300000000001</ele>
   </trkpt>
   <trkpt lat="43.964110000000005" lon="5.15545">
    <ele>489.73</ele>
   </trkpt>
   <trkpt lat="43.96488" lon="5.1548300000000005">
    <ele>474.11</ele>
   </trkpt>
   <trkpt lat="43.965" lon="5.15465">
    <ele>472.77000000000004</ele>
   </trkpt>
   <trkpt lat="43.965070000000004" lon="5.1542200000000005">
    <ele>466.95000000000005</ele>
   </trkpt>
   <trkpt lat="43.96508" lon="5.15385">
    <ele>463.57000000000005</ele>
   </trkpt>
   <trkpt lat="43.965160000000004" lon="5.15371">
    <ele>462.31000000000006</ele>
   </trkpt>
   <trkpt lat="43.96582" lon="5.15334">
    <ele>450.99000000000007</ele>
   </trkpt>
   <trkpt lat="43.96594" lon="5.15329">
    <ele>449.51</ele>
   </trkpt>
   <trkpt lat="43.965990000000005" lon="5.1532800000000005">
    <ele>449.14000000000004</ele>
   </trkpt>
   <trkpt lat="43.96625" lon="5.15279">
    <ele>441.78000000000003</ele>
   </trkpt>
   <trkpt lat="43.966370000000005" lon="5.15266">
    <ele>439.05000000000007</ele>
   </trkpt>
   <trkpt lat="43.966480000000004" lon="5.15258">
    <ele>436.76000000000005</ele>
   </trkpt>
   <trkpt lat="43.96661" lon="5.1525300000000005">
    <ele>434.21000000000004</ele>
   </trkpt>
   <trkpt lat="43.966730000000005" lon="5.152410000000001">
    <ele>432.83000000000004</ele>
   </trkpt>
   <trkpt lat="43.966840000000005" lon="5.152170000000001">
    <ele>428.84000000000003</ele>
   </trkpt>
   <trkpt lat="43.96692" lon="5.1520600000000005">
    <ele>427.32000000000005</ele>
   </trkpt>
   <trkpt lat="43.967020000000005" lon="5.151960000000001">
    <ele>425.32000000000005</ele>
   </trkpt>
   <trkpt lat="43.967270000000006" lon="5.1518500000000005">
    <ele>422.24000000000007</ele>
   </trkpt>
   <trkpt lat="43.967400000000005" lon="5.1517100000000005">
    <ele>419.50000000000006</ele>
   </trkpt>
   <trkpt lat="43.967600000000004" lon="5.151350000000001">
    <ele>415.45000000000005</ele>
   </trkpt>
   <trkpt lat="43.9677" lon="5.15164">
    <ele>415.03000000000003</ele>
   </trkpt>
   <trkpt lat="43.96775" lon="5.1520600000000005">
    <ele>418.65000000000003</ele>
   </trkpt>
   <trkpt lat="43.96792000000001" lon="5.152760000000001">
    <ele>425.06000000000006</ele>
   </trkpt>
   <trkpt lat="43.968140000000005" lon="5.15327">
    <ele>434.24</ele>
   </trkpt>
   <trkpt lat="43.968210000000006" lon="5.15357">
    <ele>440.00000000000006</ele>
   </trkpt>
   <trkpt lat="43.96846" lon="5.15371">
    <ele>444.05000000000007</ele>
   </trkpt>
   <trkpt lat="43.96896" lon="5.15441">
    <ele>442.78000000000003</ele>
   </trkpt>
   <trkpt lat="43.96895000000001" lon="5.15441">
    <ele>442.83000000000004</ele>
   </trkpt>
   <trkpt lat="43.96902" lon="5.1545000000000005">
    <ele>441.98</ele>
   </trkpt>
   <trkpt lat="43.96909" lon="5.154660000000001">
    <ele>440.16</ele>
   </trkpt>
   <trkpt lat="43.96922000000001" lon="5.155080000000001">
    <ele>433.96</ele>
   </trkpt>
   <trkpt lat="43.9692" lon="5.155270000000001">
    <ele>432.18</ele>
   </trkpt>
   <trkpt lat="43.96951000000001" lon="5.1555800000000005">
    <ele>428.27000000000004</ele>
   </trkpt>
   <trkpt lat="43.96960000000001" lon="5.155740000000001">
    <ele>425.21000000000004</ele>
   </trkpt>
   <trkpt lat="43.9697" lon="5.15582">
    <ele>423.75</ele>
   </trkpt>
   <trkpt lat="43.969820000000006" lon="5.1558">
    <ele>422.12000000000006</ele>
   </trkpt>
   <trkpt lat="43.969930000000005" lon="5.155740000000001">
    <ele>421.19</ele>
   </trkpt>
   <trkpt lat="43.970000000000006" lon="5.15566">
    <ele>420.11</ele>
   </trkpt>
   <trkpt lat="43.97008" lon="5.155500000000001">
    <ele>419.35</ele>
   </trkpt>
   <trkpt lat="43.970200000000006" lon="5.1553700000000005">
    <ele>418.71000000000004</ele>
   </trkpt>
   <trkpt lat="43.970310000000005" lon="5.15528">
    <ele>417.94</ele>
   </trkpt>
   <trkpt lat="43.97037" lon="5.15531">
    <ele>417.94</ele>
   </trkpt>
   <trkpt lat="43.97102" lon="5.1554400000000005">
    <ele>414.15000000000003</ele>
   </trkpt>
   <trkpt lat="43.9712" lon="5.15542">
    <ele>413.1</ele>
   </trkpt>
   <trkpt lat="43.97138" lon="5.15528">
    <ele>411.85</ele>
   </trkpt>
   <trkpt lat="43.97138" lon="5.155290000000001">
    <ele>411.87</ele>
   </trkpt>
   <trkpt lat="43.971630000000005" lon="5.15509">
    <ele>409.12</ele>
   </trkpt>
   <trkpt lat="43.97175" lon="5.1550400000000005">
    <ele>409.12</ele>
   </trkpt>
   <trkpt lat="43.971940000000004" lon="5.15505">
    <ele>407.53000000000003</ele>
   </trkpt>
   <trkpt lat="43.972060000000006" lon="5.154990000000001">
    <ele>407.18</ele>
   </trkpt>
   <trkpt lat="43.972370000000005" lon="5.154750000000001">
    <ele>409.79</ele>
   </trkpt>
   <trkpt lat="43.97256" lon="5.1544300000000005">
    <ele>414.66</ele>
   </trkpt>
   <trkpt lat="43.972710000000006" lon="5.15409">
    <ele>418.09000000000003</ele>
   </trkpt>
   <trkpt lat="43.97299" lon="5.1531400000000005">
    <ele>425.89000000000004</ele>
   </trkpt>
   <trkpt lat="43.97307000000001" lon="5.152760000000001">
    <ele>428.73</ele>
   </trkpt>
   <trkpt lat="43.97332" lon="5.15221">
    <ele>431.31</ele>
   </trkpt>
   <trkpt lat="43.97336000000001" lon="5.15204">
    <ele>431.70000000000005</ele>
   </trkpt>
   <trkpt lat="43.97361" lon="5.15207">
    <ele>432.15000000000003</ele>
   </trkpt>
   <trkpt lat="43.97381" lon="5.152010000000001">
    <ele>431.18</ele>
   </trkpt>
   <trkpt lat="43.973980000000005" lon="5.1519200000000005">
    <ele>429.96</ele>
   </trkpt>
   <trkpt lat="43.97413" lon="5.151610000000001">
    <ele>426.66</ele>
   </trkpt>
   <trkpt lat="43.97433" lon="5.151350000000001">
    <ele>424.76</ele>
   </trkpt>
   <trkpt lat="43.97433" lon="5.15136">
    <ele>424.77000000000004</ele>
   </trkpt>
   <trkpt lat="43.974450000000004" lon="5.15118">
    <ele>423.03000000000003</ele>
   </trkpt>
   <trkpt lat="43.97457000000001" lon="5.15096">
    <ele>421.92</ele>
   </trkpt>
   <trkpt lat="43.974720000000005" lon="5.15073">
    <ele>419.75</ele>
   </trkpt>
   <trkpt lat="43.97487" lon="5.15026">
    <ele>417.13000000000005</ele>
   </trkpt>
   <trkpt lat="43.97496" lon="5.149730000000001">
    <ele>412.67</ele>
   </trkpt>
   <trkpt lat="43.974970000000006" lon="5.14932">
    <ele>409.94</ele>
   </trkpt>
   <trkpt lat="43.97457000000001" lon="5.149170000000001">
    <ele>411.03</ele>
   </trkpt>
   <trkpt lat="43.97457000000001" lon="5.14916">
    <ele>411.09</ele>
   </trkpt>
   <trkpt lat="43.974520000000005" lon="5.149120000000001">
    <ele>411.23</ele>
   </trkpt>
   <trkpt lat="43.97428" lon="5.148440000000001">
    <ele>408.71000000000004</ele>
   </trkpt>
   <trkpt lat="43.97424" lon="5.14822">
    <ele>407.24000000000007</ele>
   </trkpt>
   <trkpt lat="43.97426" lon="5.147810000000001">
    <ele>403.43</ele>
   </trkpt>
   <trkpt lat="43.97424" lon="5.14757">
    <ele>400.40000000000003</ele>
   </trkpt>
   <trkpt lat="43.974320000000006" lon="5.147340000000001">
    <ele>398.47</ele>
   </trkpt>
   <trkpt lat="43.97437" lon="5.1473">
    <ele>397.24</ele>
   </trkpt>
   <trkpt lat="43.974830000000004" lon="5.147150000000001">
    <ele>392.14000000000004</ele>
   </trkpt>
   <trkpt lat="43.97505" lon="5.1471100000000005">
    <ele>390.46000000000004</ele>
   </trkpt>
   <trkpt lat="43.97554" lon="5.14691">
    <ele>382.55000000000007</ele>
   </trkpt>
   <trkpt lat="43.9759" lon="5.146780000000001">
    <ele>378.17</ele>
   </trkpt>
   <trkpt lat="43.976020000000005" lon="5.146780000000001">
    <ele>375.00000000000006</ele>
   </trkpt>
   <trkpt lat="43.976110000000006" lon="5.1467">
    <ele>375.00000000000006</ele>
   </trkpt>
   <trkpt lat="43.976200000000006" lon="5.14665">
    <ele>373.01</ele>
   </trkpt>
   <trkpt lat="43.97668" lon="5.14587">
    <ele>364.79</ele>
   </trkpt>
   <trkpt lat="43.977070000000005" lon="5.145390000000001">
    <ele>363.2</ele>
   </trkpt>
   <trkpt lat="43.97711" lon="5.14519">
    <ele>362.39000000000004</ele>
   </trkpt>
   <trkpt lat="43.977180000000004" lon="5.14503">
    <ele>361.90000000000003</ele>
   </trkpt>
   <trkpt lat="43.97733" lon="5.1445300000000005">
    <ele>358.46000000000004</ele>
   </trkpt>
   <trkpt lat="43.97755" lon="5.1440600000000005">
    <ele>352.27000000000004</ele>
   </trkpt>
   <trkpt lat="43.97771" lon="5.14379">
    <ele>349.34000000000003</ele>
   </trkpt>
   <trkpt lat="43.9778" lon="5.14353">
    <ele>343.94</ele>
   </trkpt>
   <trkpt lat="43.97802" lon="5.143020000000001">
    <ele>338.69000000000005</ele>
   </trkpt>
   <trkpt lat="43.97809" lon="5.142880000000001">
    <ele>338.2</ele>
   </trkpt>
   <trkpt lat="43.97822" lon="5.14269">
    <ele>334.88</ele>
   </trkpt>
   <trkpt lat="43.97824000000001" lon="5.142600000000001">
    <ele>334.88</ele>
   </trkpt>
   <trkpt lat="43.978280000000005" lon="5.1425">
    <ele>334.20000000000005</ele>
   </trkpt>
   <trkpt lat="43.978480000000005" lon="5.142320000000001">
    <ele>331.43</ele>
   </trkpt>
   <trkpt lat="43.97858" lon="5.142270000000001">
    <ele>330.67</ele>
   </trkpt>
   <trkpt lat="43.97861" lon="5.14228">
    <ele>330.67</ele>
   </trkpt>
   <trkpt lat="43.97872" lon="5.142200000000001">
    <ele>331.0</ele>
   </trkpt>
   <trkpt lat="43.97905" lon="5.141850000000001">
    <ele>332.33</ele>
   </trkpt>
   <trkpt lat="43.97899" lon="5.141900000000001">
    <ele>332.25000000000006</ele>
   </trkpt>
   <trkpt lat="43.97919" lon="5.14174">
    <ele>332.61</ele>
   </trkpt>
   <trkpt lat="43.97937" lon="5.14156">
    <ele>334.53000000000003</ele>
   </trkpt>
   <trkpt lat="43.97941" lon="5.14156">
    <ele>334.53000000000003</ele>
   </trkpt>
   <trkpt lat="43.97945000000001" lon="5.14165">
    <ele>336.07000000000005</ele>
   </trkpt>
   <trkpt lat="43.97945000000001" lon="5.141640000000001">
    <ele>335.81000000000006</ele>
   </trkpt>
   <trkpt lat="43.97945000000001" lon="5.1417600000000006">
    <ele>337.46000000000004</ele>
   </trkpt>
   <trkpt lat="43.979380000000006" lon="5.141920000000001">
    <ele>339.63000000000005</ele>
   </trkpt>
   <trkpt lat="43.979380000000006" lon="5.142">
    <ele>339.63000000000005</ele>
   </trkpt>
   <trkpt lat="43.979470000000006" lon="5.14198">
    <ele>340.30000000000007</ele>
   </trkpt>
   <trkpt lat="43.979510000000005" lon="5.141990000000001">
    <ele>340.61</ele>
   </trkpt>
   <trkpt lat="43.979710000000004" lon="5.14214">
    <ele>341.28000000000003</ele>
   </trkpt>
   <trkpt lat="43.97977" lon="5.1419500000000005">
    <ele>341.07000000000005</ele>
   </trkpt>
   <trkpt lat="43.979850000000006" lon="5.141940000000001">
    <ele>339.71</ele>
   </trkpt>
   <trkpt lat="43.98001" lon="5.141800000000001">
    <ele>338.74</ele>
   </trkpt>
   <trkpt lat="43.980070000000005" lon="5.1416900000000005">
    <ele>338.55</ele>
   </trkpt>
   <trkpt lat="43.98013" lon="5.14147">
    <ele>338.69000000000005</ele>
   </trkpt>
   <trkpt lat="43.98035" lon="5.141260000000001">
    <ele>338.11</ele>
   </trkpt>
   <trkpt lat="43.98037" lon="5.14121">
    <ele>338.14000000000004</ele>
   </trkpt>
   <trkpt lat="43.98035" lon="5.141120000000001">
    <ele>338.31000000000006</ele>
   </trkpt>
   <trkpt lat="43.98042" lon="5.14104">
    <ele>338.41</ele>
   </trkpt>
   <trkpt lat="43.98046" lon="5.141030000000001">
    <ele>338.39000000000004</ele>
   </trkpt>
   <trkpt lat="43.980650000000004" lon="5.14088">
    <ele>337.94</ele>
   </trkpt>
   <trkpt lat="43.980720000000005" lon="5.14078">
    <ele>337.5</ele>
   </trkpt>
   <trkpt lat="43.98086000000001" lon="5.14071">
    <ele>337.07000000000005</ele>
   </trkpt>
   <trkpt lat="43.981010000000005" lon="5.14059">
    <ele>337.07000000000005</ele>
   </trkpt>
   <trkpt lat="43.981370000000005" lon="5.14024">
    <ele>336.09</ele>
   </trkpt>
   <trkpt lat="43.9814" lon="5.1401900000000005">
    <ele>336.09</ele>
   </trkpt>
   <trkpt lat="43.9814" lon="5.140090000000001">
    <ele>336.12</ele>
   </trkpt>
   <trkpt lat="43.98149" lon="5.14001">
    <ele>336.08000000000004</ele>
   </trkpt>
   <trkpt lat="43.98149" lon="5.139950000000001">
    <ele>335.9200000000001</ele>
   </trkpt>
   <trkpt lat="43.9816" lon="5.13987">
    <ele>335.63000000000005</ele>
   </trkpt>
   <trkpt lat="43.98163" lon="5.139740000000001">
    <ele>335.43</ele>
   </trkpt>
   <trkpt lat="43.98169" lon="5.139690000000001">
    <ele>335.43</ele>
   </trkpt>
   <trkpt lat="43.98180000000001" lon="5.1397">
    <ele>334.05</ele>
   </trkpt>
   <trkpt lat="43.98221" lon="5.139880000000001">
    <ele>332.63000000000005</ele>
   </trkpt>
   <trkpt lat="43.98241" lon="5.13985">
    <ele>331.54</ele>
   </trkpt>
   <trkpt lat="43.98252" lon="5.139740000000001">
    <ele>330.68</ele>
   </trkpt>
   <trkpt lat="43.98279" lon="5.139620000000001">
    <ele>327.8</ele>
   </trkpt>
   <trkpt lat="43.983200000000004" lon="5.13956">
    <ele>324.3</ele>
   </trkpt>
   <trkpt lat="43.98350000000001" lon="5.139550000000001">
    <ele>322.5</ele>
   </trkpt>
   <trkpt lat="43.983700000000006" lon="5.139500000000001">
    <ele>321.47</ele>
   </trkpt>
   <trkpt lat="43.983810000000005" lon="5.1394">
    <ele>320.58000000000004</ele>
   </trkpt>
   <trkpt lat="43.983990000000006" lon="5.1391800000000005">
    <ele>319.52000000000004</ele>
   </trkpt>
   <trkpt lat="43.984300000000005" lon="5.138730000000001">
    <ele>316.33</ele>
   </trkpt>
   <trkpt lat="43.98443" lon="5.138590000000001">
    <ele>315.69</ele>
   </trkpt>
   <trkpt lat="43.98463" lon="5.13905">
    <ele>314.47</ele>
   </trkpt>
   <trkpt lat="43.98463" lon="5.1390400000000005">
    <ele>314.47</ele>
   </trkpt>
   <trkpt lat="43.98476" lon="5.13935">
    <ele>313.34</ele>
   </trkpt>
   <trkpt lat="43.984770000000005" lon="5.139430000000001">
    <ele>313.34</ele>
   </trkpt>
   <trkpt lat="43.98521" lon="5.139200000000001">
    <ele>310.52000000000004</ele>
   </trkpt>
   <trkpt lat="43.98534" lon="5.13917">
    <ele>310.52000000000004</ele>
   </trkpt>
   <trkpt lat="43.985780000000005" lon="5.139080000000001">
    <ele>308.83000000000004</ele>
   </trkpt>
   <trkpt lat="43.985960000000006" lon="5.139060000000001">
    <ele>308.36</ele>
   </trkpt>
   <trkpt lat="43.986180000000004" lon="5.13907">
    <ele>307.97</ele>
   </trkpt>
   <trkpt lat="43.986180000000004" lon="5.13891">
    <ele>307.91</ele>
   </trkpt>
   <trkpt lat="43.98601" lon="5.13844">
    <ele>307.12</ele>
   </trkpt>
   <trkpt lat="43.98601" lon="5.1384300000000005">
    <ele>307.09000000000003</ele>
   </trkpt>
   <trkpt lat="43.98581" lon="5.13794">
    <ele>305.65000000000003</ele>
   </trkpt>
   <trkpt lat="43.98579" lon="5.13783">
    <ele>305.8</ele>
   </trkpt>
   <trkpt lat="43.985800000000005" lon="5.13771">
    <ele>305.68</ele>
   </trkpt>
   <trkpt lat="43.98602" lon="5.13712">
    <ele>303.98</ele>
   </trkpt>
   <trkpt lat="43.986110000000004" lon="5.13693">
    <ele>302.70000000000005</ele>
   </trkpt>
   <trkpt lat="43.986180000000004" lon="5.1368100000000005">
    <ele>301.51</ele>
   </trkpt>
   <trkpt lat="43.98662" lon="5.13618">
    <ele>296.2</ele>
   </trkpt>
   <trkpt lat="43.986810000000006" lon="5.1358500000000005">
    <ele>294.63</ele>
   </trkpt>
   <trkpt lat="43.98686" lon="5.13569">
    <ele>293.72</ele>
   </trkpt>
   <trkpt lat="43.986920000000005" lon="5.1356">
    <ele>292.94000000000005</ele>
   </trkpt>
   <trkpt lat="43.98698" lon="5.13567">
    <ele>292.25</ele>
   </trkpt>
   <trkpt lat="43.98718" lon="5.136100000000001">
    <ele>289.39000000000004</ele>
   </trkpt>
   <trkpt lat="43.98729" lon="5.136220000000001">
    <ele>288.77000000000004</ele>
   </trkpt>
   <trkpt lat="43.98742" lon="5.136310000000001">
    <ele>288.57000000000005</ele>
   </trkpt>
   <trkpt lat="43.9876" lon="5.13637">
    <ele>289.02</ele>
   </trkpt>
   <trkpt lat="43.98765" lon="5.136340000000001">
    <ele>289.22</ele>
   </trkpt>
   <trkpt lat="43.98783" lon="5.136080000000001">
    <ele>290.52</ele>
   </trkpt>
   <trkpt lat="43.98794" lon="5.13597">
    <ele>291.45000000000005</ele>
   </trkpt>
   <trkpt lat="43.98838000000001" lon="5.1356">
    <ele>293.56000000000006</ele>
   </trkpt>
   <trkpt lat="43.98843" lon="5.13558">
    <ele>293.54</ele>
   </trkpt>
   <trkpt lat="43.98865000000001" lon="5.135260000000001">
    <ele>289.87</ele>
   </trkpt>
   <trkpt lat="43.988600000000005" lon="5.135210000000001">
    <ele>289.40999999999997</ele>
   </trkpt>
   <trkpt lat="43.98863" lon="5.135160000000001">
    <ele>289.40999999999997</ele>
   </trkpt>
   <trkpt lat="43.9887" lon="5.13513">
    <ele>286.69</ele>
   </trkpt>
   <trkpt lat="43.98874000000001" lon="5.13508">
    <ele>286.69</ele>
   </trkpt>
   <trkpt lat="43.988820000000004" lon="5.1349100000000005">
    <ele>285.06</ele>
   </trkpt>
   <trkpt lat="43.988910000000004" lon="5.134480000000001">
    <ele>282.66</ele>
   </trkpt>
   <trkpt lat="43.98895" lon="5.13438">
    <ele>281.45000000000005</ele>
   </trkpt>
   <trkpt lat="43.98919" lon="5.134130000000001">
    <ele>279.82</ele>
   </trkpt>
   <trkpt lat="43.98928" lon="5.13398">
    <ele>278.87</ele>
   </trkpt>
   <trkpt lat="43.9893" lon="5.13389">
    <ele>278.87</ele>
   </trkpt>
   <trkpt lat="43.9893" lon="5.133800000000001">
    <ele>277.66</ele>
   </trkpt>
   <trkpt lat="43.98922" lon="5.1336200000000005">
    <ele>276.84000000000003</ele>
   </trkpt>
   <trkpt lat="43.989020000000004" lon="5.133260000000001">
    <ele>275.33000000000004</ele>
   </trkpt>
   <trkpt lat="43.989020000000004" lon="5.13325">
    <ele>275.31</ele>
   </trkpt>
   <trkpt lat="43.98892" lon="5.13307">
    <ele>274.90000000000003</ele>
   </trkpt>
   <trkpt lat="43.988870000000006" lon="5.13288">
    <ele>274.95000000000005</ele>
   </trkpt>
   <trkpt lat="43.9887" lon="5.132490000000001">
    <ele>276.55</ele>
   </trkpt>
   <trkpt lat="43.988640000000004" lon="5.132440000000001">
    <ele>277.05</ele>
   </trkpt>
   <trkpt lat="43.98866" lon="5.13238">
    <ele>276.64</ele>
   </trkpt>
   <trkpt lat="43.988870000000006" lon="5.1321900000000005">
    <ele>275.18</ele>
   </trkpt>
   <trkpt lat="43.98899" lon="5.13213">
    <ele>275.18</ele>
   </trkpt>
   <trkpt lat="43.9893" lon="5.13206">
    <ele>271.36</ele>
   </trkpt>
   <trkpt lat="43.989360000000005" lon="5.13203">
    <ele>271.36</ele>
   </trkpt>
   <trkpt lat="43.98942" lon="5.13194">
    <ele>269.65</ele>
   </trkpt>
   <trkpt lat="43.98950000000001" lon="5.13189">
    <ele>268.66</ele>
   </trkpt>
   <trkpt lat="43.989610000000006" lon="5.1318600000000005">
    <ele>267.72</ele>
   </trkpt>
   <trkpt lat="43.98988000000001" lon="5.131740000000001">
    <ele>267.08000000000004</ele>
   </trkpt>
   <trkpt lat="43.99033" lon="5.13159">
    <ele>265.82</ele>
   </trkpt>
   <trkpt lat="43.990460000000006" lon="5.13152">
    <ele>265.82</ele>
   </trkpt>
   <trkpt lat="43.9906" lon="5.13138">
    <ele>265.07000000000005</ele>
   </trkpt>
   <trkpt lat="43.990660000000005" lon="5.131340000000001">
    <ele>264.90000000000003</ele>
   </trkpt>
   <trkpt lat="43.991040000000005" lon="5.13121">
    <ele>263.85</ele>
   </trkpt>
   <trkpt lat="43.99125" lon="5.1311">
    <ele>263.76</ele>
   </trkpt>
   <trkpt lat="43.9915" lon="5.13112">
    <ele>262.74</ele>
   </trkpt>
   <trkpt lat="43.991690000000006" lon="5.1311">
    <ele>261.51</ele>
   </trkpt>
   <trkpt lat="43.99175" lon="5.131340000000001">
    <ele>260.57</ele>
   </trkpt>
   <trkpt lat="43.99179" lon="5.131390000000001">
    <ele>260.5</ele>
   </trkpt>
   <trkpt lat="43.991870000000006" lon="5.131430000000001">
    <ele>260.55</ele>
   </trkpt>
   <trkpt lat="43.99217" lon="5.13147">
    <ele>263.07</ele>
   </trkpt>
   <trkpt lat="43.992360000000005" lon="5.13161">
    <ele>266.76</ele>
   </trkpt>
   <trkpt lat="43.99250000000001" lon="5.131670000000001">
    <ele>268.45</ele>
   </trkpt>
   <trkpt lat="43.99255" lon="5.131740000000001">
    <ele>268.92</ele>
   </trkpt>
   <trkpt lat="43.99269" lon="5.132070000000001">
    <ele>270.8</ele>
   </trkpt>
   <trkpt lat="43.99273" lon="5.132110000000001">
    <ele>271.37</ele>
   </trkpt>
   <trkpt lat="43.99327" lon="5.13239">
    <ele>277.03</ele>
   </trkpt>
   <trkpt lat="43.99334" lon="5.13248">
    <ele>278.21</ele>
   </trkpt>
   <trkpt lat="43.993550000000006" lon="5.132580000000001">
    <ele>279.2</ele>
   </trkpt>
   <trkpt lat="43.993730000000006" lon="5.13285">
    <ele>279.41</ele>
   </trkpt>
   <trkpt lat="43.993880000000004" lon="5.1336900000000005">
    <ele>279.14</ele>
   </trkpt>
   <trkpt lat="43.994200000000006" lon="5.13461">
    <ele>277.80000000000007</ele>
   </trkpt>
   <trkpt lat="43.994200000000006" lon="5.134600000000001">
    <ele>277.80000000000007</ele>
   </trkpt>
   <trkpt lat="43.99437" lon="5.1351">
    <ele>276.96000000000004</ele>
   </trkpt>
   <trkpt lat="43.99483000166171" lon="5.135734994944335">
    <ele>275.46000000000004</ele>
   </trkpt>
   <trkpt lat="43.995290000000004" lon="5.13637">
    <ele>274.2</ele>
   </trkpt>
   <trkpt lat="43.99546" lon="5.13668">
    <ele>273.72</ele>
   </trkpt>
   <trkpt lat="43.99591" lon="5.13731">
    <ele>271.55</ele>
   </trkpt>
   <trkpt lat="43.996030000000005" lon="5.137560000000001">
    <ele>270.19000000000005</ele>
   </trkpt>
   <trkpt lat="43.996080000000006" lon="5.13773">
    <ele>270.19000000000005</ele>
   </trkpt>
   <trkpt lat="43.996190000000006" lon="5.1378900000000005">
    <ele>267.44</ele>
   </trkpt>
   <trkpt lat="43.996320000000004" lon="5.1382">
    <ele>265.02000000000004</ele>
   </trkpt>
   <trkpt lat="43.996320000000004" lon="5.138190000000001">
    <ele>265.1</ele>
   </trkpt>
   <trkpt lat="43.99638" lon="5.138310000000001">
    <ele>263.92</ele>
   </trkpt>
   <trkpt lat="43.99662" lon="5.13849">
    <ele>261.22</ele>
   </trkpt>
   <trkpt lat="43.996880000000004" lon="5.13874">
    <ele>258.93</ele>
   </trkpt>
   <trkpt lat="43.996970000000005" lon="5.138850000000001">
    <ele>256.70000000000005</ele>
   </trkpt>
   <trkpt lat="43.997460000000004" lon="5.1391100000000005">
    <ele>251.04000000000005</ele>
   </trkpt>
   <trkpt lat="43.997640000000004" lon="5.13916">
    <ele>248.29</ele>
   </trkpt>
   <trkpt lat="43.998070000000006" lon="5.139220000000001">
    <ele>241.18000000000004</ele>
   </trkpt>
   <trkpt lat="43.99806" lon="5.139220000000001">
    <ele>241.35</ele>
   </trkpt>
   <trkpt lat="43.998430000000006" lon="5.1393">
    <ele>235.43000000000004</ele>
   </trkpt>
   <trkpt lat="43.99850000000001" lon="5.1393200000000006">
    <ele>235.43000000000004</ele>
   </trkpt>
   <trkpt lat="43.998520000000006" lon="5.13937">
    <ele>234.09</ele>
   </trkpt>
   <trkpt lat="43.99868" lon="5.139480000000001">
    <ele>233.47</ele>
   </trkpt>
   <trkpt lat="43.998760000000004" lon="5.1395100000000005">
    <ele>229.97</ele>
   </trkpt>
   <trkpt lat="43.998810000000006" lon="5.1395100000000005">
    <ele>229.97</ele>
   </trkpt>
   <trkpt lat="43.99888000000001" lon="5.139460000000001">
    <ele>229.43</ele>
   </trkpt>
   <trkpt lat="43.99904" lon="5.139220000000001">
    <ele>226.96</ele>
   </trkpt>
   <trkpt lat="43.999100000000006" lon="5.13909">
    <ele>225.07000000000002</ele>
   </trkpt>
   <trkpt lat="43.99917000000001" lon="5.13907">
    <ele>224.33</ele>
   </trkpt>
   <trkpt lat="43.999190000000006" lon="5.1391100000000005">
    <ele>224.33</ele>
   </trkpt>
   <trkpt lat="43.999210000000005" lon="5.139600000000001">
    <ele>217.58</ele>
   </trkpt>
   <trkpt lat="43.999210000000005" lon="5.13959">
    <ele>217.86</ele>
   </trkpt>
   <trkpt lat="43.99922" lon="5.13973">
    <ele>216.49</ele>
   </trkpt>
   <trkpt lat="43.999300000000005" lon="5.140020000000001">
    <ele>215.26</ele>
   </trkpt>
   <trkpt lat="43.99933" lon="5.140070000000001">
    <ele>214.94000000000003</ele>
   </trkpt>
   <trkpt lat="43.99958" lon="5.14025">
    <ele>213.74</ele>
   </trkpt>
   <trkpt lat="43.99965" lon="5.140350000000001">
    <ele>212.67000000000002</ele>
   </trkpt>
   <trkpt lat="43.99963" lon="5.140440000000001">
    <ele>210.98000000000002</ele>
   </trkpt>
   <trkpt lat="43.99953000000001" lon="5.14045">
    <ele>207.81000000000003</ele>
   </trkpt>
   <trkpt lat="43.99938" lon="5.14043">
    <ele>205.89000000000001</ele>
   </trkpt>
   <trkpt lat="43.99931" lon="5.14039">
    <ele>205.89000000000001</ele>
   </trkpt>
   <trkpt lat="43.999230000000004" lon="5.14038">
    <ele>200.5</ele>
   </trkpt>
   <trkpt lat="43.99915" lon="5.140420000000001">
    <ele>200.5</ele>
   </trkpt>
   <trkpt lat="43.99879000000001" lon="5.14052">
    <ele>193.82000000000002</ele>
   </trkpt>
   <trkpt lat="43.998540000000006" lon="5.140750000000001">
    <ele>190.21</ele>
   </trkpt>
   <trkpt lat="43.99855" lon="5.14074">
    <ele>190.21</ele>
   </trkpt>
   <trkpt lat="43.998540000000006" lon="5.140750000000001">
    <ele>190.21</ele>
   </trkpt>
   <trkpt lat="43.998470000000005" lon="5.140820000000001">
    <ele>189.44000000000003</ele>
   </trkpt>
   <trkpt lat="43.998430000000006" lon="5.140820000000001">
    <ele>189.13000000000002</ele>
   </trkpt>
   <trkpt lat="43.99799" lon="5.140630000000001">
    <ele>188.77</ele>
   </trkpt>
   <trkpt lat="43.99774" lon="5.140680000000001">
    <ele>188.60000000000002</ele>
   </trkpt>
   <trkpt lat="43.997640000000004" lon="5.140750000000001">
    <ele>188.57000000000002</ele>
   </trkpt>
   <trkpt lat="43.99748" lon="5.1413">
    <ele>191.91000000000003</ele>
   </trkpt>
   <trkpt lat="43.99741" lon="5.141570000000001">
    <ele>194.51000000000002</ele>
   </trkpt>
   <trkpt lat="43.997420000000005" lon="5.14161">
    <ele>194.51000000000002</ele>
   </trkpt>
   <trkpt lat="43.9975" lon="5.14167">
    <ele>195.02</ele>
   </trkpt>
   <trkpt lat="43.997710000000005" lon="5.141780000000001">
    <ele>194.88000000000002</ele>
   </trkpt>
   <trkpt lat="43.99777" lon="5.14184">
    <ele>194.4</ele>
   </trkpt>
   <trkpt lat="43.99783" lon="5.14196">
    <ele>194.23000000000002</ele>
   </trkpt>
   <trkpt lat="43.99786" lon="5.14217">
    <ele>195.06</ele>
   </trkpt>
   <trkpt lat="43.99794000000001" lon="5.14226">
    <ele>195.49</ele>
   </trkpt>
   <trkpt lat="43.99812" lon="5.1423700000000006">
    <ele>197.64000000000001</ele>
   </trkpt>
   <trkpt lat="43.998160000000006" lon="5.142620000000001">
    <ele>200.33</ele>
   </trkpt>
   <trkpt lat="43.99822" lon="5.142720000000001">
    <ele>201.05</ele>
   </trkpt>
   <trkpt lat="43.99833" lon="5.14285">
    <ele>203.51000000000002</ele>
   </trkpt>
   <trkpt lat="43.99833" lon="5.1428400000000005">
    <ele>203.47</ele>
   </trkpt>
   <trkpt lat="43.99822" lon="5.142720000000001">
    <ele>201.72</ele>
   </trkpt>
   <trkpt lat="43.998160000000006" lon="5.142620000000001">
    <ele>200.33</ele>
   </trkpt>
   <trkpt lat="43.99814000000001" lon="5.142530000000001">
    <ele>198.82000000000002</ele>
   </trkpt>
   <trkpt lat="43.998160000000006" lon="5.142620000000001">
    <ele>200.33</ele>
   </trkpt>
   <trkpt lat="43.99822" lon="5.142720000000001">
    <ele>201.05</ele>
   </trkpt>
   <trkpt lat="43.99853" lon="5.14308">
    <ele>206.64000000000001</ele>
   </trkpt>
   <trkpt lat="43.998630000000006" lon="5.143230000000001">
    <ele>208.81000000000003</ele>
   </trkpt>
   <trkpt lat="43.998810000000006" lon="5.14357">
    <ele>211.66</ele>
   </trkpt>
   <trkpt lat="43.99888000000001" lon="5.143870000000001">
    <ele>215.25000000000003</ele>
   </trkpt>
   <trkpt lat="43.99886" lon="5.14423">
    <ele>219.95</ele>
   </trkpt>
   <trkpt lat="43.998780000000004" lon="5.144410000000001">
    <ele>224.27</ele>
   </trkpt>
   <trkpt lat="43.998670000000004" lon="5.144550000000001">
    <ele>229.42000000000002</ele>
   </trkpt>
   <trkpt lat="43.998580000000004" lon="5.14465">
    <ele>231.87</ele>
   </trkpt>
   <trkpt lat="43.99841000000001" lon="5.14477">
    <ele>236.87000000000003</ele>
   </trkpt>
   <trkpt lat="43.99813" lon="5.144920000000001">
    <ele>243.06000000000003</ele>
   </trkpt>
   <trkpt lat="43.99772" lon="5.1452100000000005">
    <ele>252.18</ele>
   </trkpt>
   <trkpt lat="43.99765" lon="5.1452800000000005">
    <ele>252.18</ele>
   </trkpt>
   <trkpt lat="43.99759" lon="5.14529">
    <ele>254.82999999999998</ele>
   </trkpt>
   <trkpt lat="43.997170000000004" lon="5.145770000000001">
    <ele>261.75000000000006</ele>
   </trkpt>
   <trkpt lat="43.99683" lon="5.1462">
    <ele>267.09000000000003</ele>
   </trkpt>
   <trkpt lat="43.99672" lon="5.14635">
    <ele>270.58000000000004</ele>
   </trkpt>
   <trkpt lat="43.99663" lon="5.146590000000001">
    <ele>267.8</ele>
   </trkpt>
   <trkpt lat="43.99654" lon="5.14674">
    <ele>267.51000000000005</ele>
   </trkpt>
   <trkpt lat="43.99636" lon="5.14709">
    <ele>265.23</ele>
   </trkpt>
   <trkpt lat="43.99604" lon="5.147430000000001">
    <ele>268.67</ele>
   </trkpt>
   <trkpt lat="43.99584" lon="5.14773">
    <ele>269.54</ele>
   </trkpt>
   <trkpt lat="43.995610000000006" lon="5.14803">
    <ele>272.82</ele>
   </trkpt>
   <trkpt lat="43.995380000000004" lon="5.14841">
    <ele>273.85</ele>
   </trkpt>
   <trkpt lat="43.99519" lon="5.148700000000001">
    <ele>275.25000000000006</ele>
   </trkpt>
   <trkpt lat="43.99506" lon="5.148980000000001">
    <ele>275.67</ele>
   </trkpt>
   <trkpt lat="43.99504" lon="5.148960000000001">
    <ele>277.24</ele>
   </trkpt>
   <trkpt lat="43.99494000000001" lon="5.14909">
    <ele>279.87</ele>
   </trkpt>
   <trkpt lat="43.994800000000005" lon="5.14921">
    <ele>282.15000000000003</ele>
   </trkpt>
   <trkpt lat="43.99447000000001" lon="5.14939">
    <ele>288.96000000000004</ele>
   </trkpt>
   <trkpt lat="43.994490000000006" lon="5.14932">
    <ele>289.61</ele>
   </trkpt>
   <trkpt lat="43.99454" lon="5.14925">
    <ele>290.71000000000004</ele>
   </trkpt>
   <trkpt lat="43.994550000000004" lon="5.149100000000001">
    <ele>291.53000000000003</ele>
   </trkpt>
   <trkpt lat="43.994670000000006" lon="5.1489400000000005">
    <ele>293.04</ele>
   </trkpt>
   <trkpt lat="43.994670000000006" lon="5.14899">
    <ele>293.04</ele>
   </trkpt>
   <trkpt lat="43.9947" lon="5.14892">
    <ele>293.99</ele>
   </trkpt>
   <trkpt lat="43.994690000000006" lon="5.148650000000001">
    <ele>295.01000000000005</ele>
   </trkpt>
   <trkpt lat="43.994710000000005" lon="5.14846">
    <ele>295.03000000000003</ele>
   </trkpt>
   <trkpt lat="43.99475" lon="5.148350000000001">
    <ele>294.95000000000005</ele>
   </trkpt>
   <trkpt lat="43.99472" lon="5.14817">
    <ele>294.56000000000006</ele>
   </trkpt>
  </trkseg>
 </trk>
</gpx>
