<?xml version="1.0" encoding="UTF-8" ?>
<gpx version="1.1" xmlns:xsi="http://www.w3.org/2001/XMLSchema-instance" 
    xmlns="http://www.topografix.com/GPX/1/1" 
    xsi:schemaLocation="http://www.topografix.com/GPX/1/1 http://www.topografix.com/GPX/1/1/gpx.xsd" 
    creator="Openrunner - https://www.openrunner.com" >	<trk>
						<name>12865040-Trail Villes-sur-Auzon</name>
						<trkseg>
					<trkpt lat="44.056670" lon="5.234250">
						<ele>295</ele>
						<time>2021-08-31T12:16:39Z</time>
					</trkpt>
					<trkpt lat="44.056120" lon="5.234300">
						<ele>296</ele>
						<time>2021-08-31T12:17:07Z</time>
					</trkpt>
					<trkpt lat="44.055750" lon="5.234580">
						<ele>297</ele>
						<time>2021-08-31T12:17:28Z</time>
					</trkpt>
					<trkpt lat="44.055470" lon="5.234720">
						<ele>298</ele>
						<time>2021-08-31T12:17:43Z</time>
					</trkpt>
					<trkpt lat="44.054990" lon="5.235040">
						<ele>300</ele>
						<time>2021-08-31T12:18:09Z</time>
					</trkpt>
					<trkpt lat="44.054550" lon="5.235380">
						<ele>301</ele>
						<time>2021-08-31T12:18:34Z</time>
					</trkpt>
					<trkpt lat="44.054110" lon="5.236180">
						<ele>302</ele>
						<time>2021-08-31T12:19:11Z</time>
					</trkpt>
					<trkpt lat="44.053610" lon="5.237180">
						<ele>306</ele>
						<time>2021-08-31T12:19:54Z</time>
					</trkpt>
					<trkpt lat="44.053330" lon="5.237920">
						<ele>309</ele>
						<time>2021-08-31T12:20:24Z</time>
					</trkpt>
					<trkpt lat="44.053200" lon="5.238450">
						<ele>311</ele>
						<time>2021-08-31T12:20:45Z</time>
					</trkpt>
					<trkpt lat="44.053240" lon="5.239280">
						<ele>315</ele>
						<time>2021-08-31T12:21:15Z</time>
					</trkpt>
					<trkpt lat="44.053250" lon="5.240650">
						<ele>319</ele>
						<time>2021-08-31T12:22:04Z</time>
					</trkpt>
					<trkpt lat="44.053320" lon="5.241000">
						<ele>319</ele>
						<time>2021-08-31T12:22:17Z</time>
					</trkpt>
					<trkpt lat="44.053280" lon="5.241080">
						<ele>319</ele>
						<time>2021-08-31T12:22:20Z</time>
					</trkpt>
					<trkpt lat="44.052890" lon="5.241560">
						<ele>319</ele>
						<time>2021-08-31T12:22:46Z</time>
					</trkpt>
					<trkpt lat="44.052860" lon="5.241620">
						<ele>319</ele>
						<time>2021-08-31T12:22:49Z</time>
					</trkpt>
					<trkpt lat="44.052890" lon="5.241670">
						<ele>318</ele>
						<time>2021-08-31T12:22:51Z</time>
					</trkpt>
					<trkpt lat="44.052860" lon="5.241620">
						<ele>319</ele>
						<time>2021-08-31T12:22:54Z</time>
					</trkpt>
					<trkpt lat="44.052840" lon="5.241690">
						<ele>319</ele>
						<time>2021-08-31T12:22:56Z</time>
					</trkpt>
					<trkpt lat="44.052550" lon="5.242110">
						<ele>322</ele>
						<time>2021-08-31T12:23:17Z</time>
					</trkpt>
					<trkpt lat="44.052080" lon="5.243110">
						<ele>331</ele>
						<time>2021-08-31T12:24:00Z</time>
					</trkpt>
					<trkpt lat="44.051920" lon="5.243240">
						<ele>333</ele>
						<time>2021-08-31T12:24:10Z</time>
					</trkpt>
					<trkpt lat="44.051880" lon="5.243240">
						<ele>333</ele>
						<time>2021-08-31T12:24:12Z</time>
					</trkpt>
					<trkpt lat="44.051750" lon="5.243370">
						<ele>335</ele>
						<time>2021-08-31T12:24:20Z</time>
					</trkpt>
					<trkpt lat="44.051200" lon="5.243630">
						<ele>343</ele>
						<time>2021-08-31T12:24:49Z</time>
					</trkpt>
					<trkpt lat="44.050710" lon="5.243700">
						<ele>348</ele>
						<time>2021-08-31T12:25:13Z</time>
					</trkpt>
					<trkpt lat="44.050460" lon="5.243790">
						<ele>351</ele>
						<time>2021-08-31T12:25:26Z</time>
					</trkpt>
					<trkpt lat="44.050030" lon="5.243830">
						<ele>356</ele>
						<time>2021-08-31T12:25:48Z</time>
					</trkpt>
					<trkpt lat="44.049930" lon="5.243860">
						<ele>357</ele>
						<time>2021-08-31T12:25:53Z</time>
					</trkpt>
					<trkpt lat="44.049720" lon="5.244020">
						<ele>362</ele>
						<time>2021-08-31T12:26:05Z</time>
					</trkpt>
					<trkpt lat="44.049650" lon="5.244010">
						<ele>362</ele>
						<time>2021-08-31T12:26:09Z</time>
					</trkpt>
					<trkpt lat="44.049600" lon="5.243930">
						<ele>361</ele>
						<time>2021-08-31T12:26:12Z</time>
					</trkpt>
					<trkpt lat="44.049490" lon="5.243880">
						<ele>361</ele>
						<time>2021-08-31T12:26:18Z</time>
					</trkpt>
					<trkpt lat="44.049180" lon="5.243930">
						<ele>365</ele>
						<time>2021-08-31T12:26:34Z</time>
					</trkpt>
					<trkpt lat="44.048820" lon="5.243920">
						<ele>367</ele>
						<time>2021-08-31T12:26:52Z</time>
					</trkpt>
					<trkpt lat="44.048510" lon="5.243850">
						<ele>368</ele>
						<time>2021-08-31T12:27:07Z</time>
					</trkpt>
					<trkpt lat="44.048320" lon="5.243780">
						<ele>368</ele>
						<time>2021-08-31T12:27:17Z</time>
					</trkpt>
					<trkpt lat="44.046320" lon="5.245550">
						<ele>402</ele>
						<time>2021-08-31T12:29:16Z</time>
					</trkpt>
					<trkpt lat="44.046120" lon="5.245670">
						<ele>405</ele>
						<time>2021-08-31T12:29:27Z</time>
					</trkpt>
					<trkpt lat="44.046110" lon="5.245760">
						<ele>406</ele>
						<time>2021-08-31T12:29:30Z</time>
					</trkpt>
					<trkpt lat="44.046200" lon="5.246700">
						<ele>415</ele>
						<time>2021-08-31T12:30:04Z</time>
					</trkpt>
					<trkpt lat="44.046370" lon="5.247640">
						<ele>422</ele>
						<time>2021-08-31T12:30:39Z</time>
					</trkpt>
					<trkpt lat="44.046260" lon="5.248640">
						<ele>429</ele>
						<time>2021-08-31T12:31:15Z</time>
					</trkpt>
					<trkpt lat="44.046160" lon="5.249260">
						<ele>431</ele>
						<time>2021-08-31T12:31:38Z</time>
					</trkpt>
					<trkpt lat="44.045710" lon="5.250150">
						<ele>433</ele>
						<time>2021-08-31T12:32:17Z</time>
					</trkpt>
					<trkpt lat="44.045320" lon="5.250350">
						<ele>436</ele>
						<time>2021-08-31T12:32:38Z</time>
					</trkpt>
					<trkpt lat="44.044860" lon="5.250940">
						<ele>438</ele>
						<time>2021-08-31T12:33:10Z</time>
					</trkpt>
					<trkpt lat="44.044600" lon="5.251090">
						<ele>439</ele>
						<time>2021-08-31T12:33:24Z</time>
					</trkpt>
					<trkpt lat="44.044680" lon="5.251050">
						<ele>439</ele>
						<time>2021-08-31T12:33:28Z</time>
					</trkpt>
					<trkpt lat="44.044970" lon="5.251890">
						<ele>441</ele>
						<time>2021-08-31T12:34:01Z</time>
					</trkpt>
					<trkpt lat="44.045090" lon="5.252160">
						<ele>442</ele>
						<time>2021-08-31T12:34:13Z</time>
					</trkpt>
					<trkpt lat="44.045430" lon="5.252690">
						<ele>445</ele>
						<time>2021-08-31T12:34:38Z</time>
					</trkpt>
					<trkpt lat="44.045800" lon="5.253340">
						<ele>450</ele>
						<time>2021-08-31T12:35:08Z</time>
					</trkpt>
					<trkpt lat="44.046030" lon="5.253810">
						<ele>451</ele>
						<time>2021-08-31T12:35:29Z</time>
					</trkpt>
					<trkpt lat="44.046180" lon="5.254000">
						<ele>453</ele>
						<time>2021-08-31T12:35:39Z</time>
					</trkpt>
					<trkpt lat="44.046030" lon="5.253810">
						<ele>451</ele>
						<time>2021-08-31T12:35:49Z</time>
					</trkpt>
					<trkpt lat="44.046860" lon="5.254110">
						<ele>457</ele>
						<time>2021-08-31T12:36:32Z</time>
					</trkpt>
					<trkpt lat="44.046940" lon="5.254160">
						<ele>458</ele>
						<time>2021-08-31T12:36:36Z</time>
					</trkpt>
					<trkpt lat="44.047100" lon="5.254300">
						<ele>460</ele>
						<time>2021-08-31T12:36:46Z</time>
					</trkpt>
					<trkpt lat="44.047520" lon="5.254770">
						<ele>465</ele>
						<time>2021-08-31T12:37:13Z</time>
					</trkpt>
					<trkpt lat="44.047740" lon="5.254950">
						<ele>466</ele>
						<time>2021-08-31T12:37:25Z</time>
					</trkpt>
					<trkpt lat="44.048080" lon="5.255310">
						<ele>469</ele>
						<time>2021-08-31T12:37:47Z</time>
					</trkpt>
					<trkpt lat="44.048310" lon="5.255650">
						<ele>473</ele>
						<time>2021-08-31T12:38:04Z</time>
					</trkpt>
					<trkpt lat="44.048480" lon="5.255830">
						<ele>476</ele>
						<time>2021-08-31T12:38:14Z</time>
					</trkpt>
					<trkpt lat="44.048700" lon="5.256010">
						<ele>479</ele>
						<time>2021-08-31T12:38:27Z</time>
					</trkpt>
					<trkpt lat="44.048760" lon="5.256010">
						<ele>480</ele>
						<time>2021-08-31T12:38:30Z</time>
					</trkpt>
					<trkpt lat="44.049040" lon="5.255730">
						<ele>478</ele>
						<time>2021-08-31T12:38:47Z</time>
					</trkpt>
					<trkpt lat="44.049210" lon="5.255640">
						<ele>477</ele>
						<time>2021-08-31T12:38:56Z</time>
					</trkpt>
					<trkpt lat="44.049280" lon="5.255620">
						<ele>477</ele>
						<time>2021-08-31T12:39:00Z</time>
					</trkpt>
					<trkpt lat="44.049450" lon="5.255660">
						<ele>478</ele>
						<time>2021-08-31T12:39:09Z</time>
					</trkpt>
					<trkpt lat="44.050510" lon="5.256360">
						<ele>490</ele>
						<time>2021-08-31T12:40:07Z</time>
					</trkpt>
					<trkpt lat="44.050820" lon="5.256600">
						<ele>494</ele>
						<time>2021-08-31T12:40:25Z</time>
					</trkpt>
					<trkpt lat="44.051070" lon="5.256860">
						<ele>497</ele>
						<time>2021-08-31T12:40:41Z</time>
					</trkpt>
					<trkpt lat="44.051340" lon="5.257300">
						<ele>501</ele>
						<time>2021-08-31T12:41:02Z</time>
					</trkpt>
					<trkpt lat="44.051460" lon="5.257610">
						<ele>503</ele>
						<time>2021-08-31T12:41:14Z</time>
					</trkpt>
					<trkpt lat="44.051670" lon="5.258440">
						<ele>509</ele>
						<time>2021-08-31T12:41:46Z</time>
					</trkpt>
					<trkpt lat="44.051700" lon="5.258840">
						<ele>514</ele>
						<time>2021-08-31T12:42:00Z</time>
					</trkpt>
					<trkpt lat="44.051780" lon="5.259090">
						<ele>517</ele>
						<time>2021-08-31T12:42:10Z</time>
					</trkpt>
					<trkpt lat="44.051890" lon="5.259270">
						<ele>519</ele>
						<time>2021-08-31T12:42:19Z</time>
					</trkpt>
					<trkpt lat="44.051960" lon="5.259260">
						<ele>519</ele>
						<time>2021-08-31T12:42:22Z</time>
					</trkpt>
					<trkpt lat="44.052000" lon="5.259210">
						<ele>519</ele>
						<time>2021-08-31T12:42:25Z</time>
					</trkpt>
					<trkpt lat="44.052150" lon="5.258750">
						<ele>516</ele>
						<time>2021-08-31T12:42:43Z</time>
					</trkpt>
					<trkpt lat="44.052420" lon="5.258410">
						<ele>516</ele>
						<time>2021-08-31T12:43:01Z</time>
					</trkpt>
					<trkpt lat="44.052770" lon="5.258240">
						<ele>517</ele>
						<time>2021-08-31T12:43:20Z</time>
					</trkpt>
					<trkpt lat="44.053000" lon="5.258230">
						<ele>518</ele>
						<time>2021-08-31T12:43:31Z</time>
					</trkpt>
					<trkpt lat="44.053210" lon="5.258270">
						<ele>520</ele>
						<time>2021-08-31T12:43:42Z</time>
					</trkpt>
					<trkpt lat="44.053630" lon="5.258480">
						<ele>523</ele>
						<time>2021-08-31T12:44:04Z</time>
					</trkpt>
					<trkpt lat="44.053840" lon="5.258620">
						<ele>525</ele>
						<time>2021-08-31T12:44:16Z</time>
					</trkpt>
					<trkpt lat="44.054550" lon="5.259280">
						<ele>532</ele>
						<time>2021-08-31T12:44:59Z</time>
					</trkpt>
					<trkpt lat="44.054950" lon="5.259600">
						<ele>535</ele>
						<time>2021-08-31T12:45:22Z</time>
					</trkpt>
					<trkpt lat="44.055700" lon="5.260100">
						<ele>540</ele>
						<time>2021-08-31T12:46:03Z</time>
					</trkpt>
					<trkpt lat="44.055990" lon="5.260380">
						<ele>542</ele>
						<time>2021-08-31T12:46:21Z</time>
					</trkpt>
					<trkpt lat="44.056200" lon="5.260760">
						<ele>544</ele>
						<time>2021-08-31T12:46:38Z</time>
					</trkpt>
					<trkpt lat="44.056430" lon="5.261480">
						<ele>548</ele>
						<time>2021-08-31T12:47:07Z</time>
					</trkpt>
					<trkpt lat="44.056450" lon="5.261780">
						<ele>549</ele>
						<time>2021-08-31T12:47:17Z</time>
					</trkpt>
					<trkpt lat="44.056370" lon="5.262160">
						<ele>549</ele>
						<time>2021-08-31T12:47:32Z</time>
					</trkpt>
					<trkpt lat="44.055660" lon="5.263590">
						<ele>555</ele>
						<time>2021-08-31T12:48:34Z</time>
					</trkpt>
					<trkpt lat="44.055480" lon="5.263850">
						<ele>556</ele>
						<time>2021-08-31T12:48:47Z</time>
					</trkpt>
					<trkpt lat="44.055330" lon="5.264020">
						<ele>558</ele>
						<time>2021-08-31T12:48:57Z</time>
					</trkpt>
					<trkpt lat="44.054780" lon="5.264810">
						<ele>561</ele>
						<time>2021-08-31T12:49:36Z</time>
					</trkpt>
					<trkpt lat="44.054580" lon="5.265120">
						<ele>561</ele>
						<time>2021-08-31T12:49:51Z</time>
					</trkpt>
					<trkpt lat="44.054340" lon="5.265580">
						<ele>561</ele>
						<time>2021-08-31T12:50:12Z</time>
					</trkpt>
					<trkpt lat="44.054320" lon="5.265560">
						<ele>561</ele>
						<time>2021-08-31T12:50:13Z</time>
					</trkpt>
					<trkpt lat="44.054710" lon="5.266420">
						<ele>562</ele>
						<time>2021-08-31T12:50:50Z</time>
					</trkpt>
					<trkpt lat="44.054740" lon="5.266610">
						<ele>562</ele>
						<time>2021-08-31T12:50:57Z</time>
					</trkpt>
					<trkpt lat="44.054880" lon="5.266990">
						<ele>566</ele>
						<time>2021-08-31T12:51:12Z</time>
					</trkpt>
					<trkpt lat="44.054910" lon="5.267430">
						<ele>569</ele>
						<time>2021-08-31T12:51:28Z</time>
					</trkpt>
					<trkpt lat="44.054980" lon="5.267550">
						<ele>572</ele>
						<time>2021-08-31T12:51:33Z</time>
					</trkpt>
					<trkpt lat="44.055400" lon="5.267820">
						<ele>576</ele>
						<time>2021-08-31T12:51:57Z</time>
					</trkpt>
					<trkpt lat="44.055940" lon="5.268380">
						<ele>585</ele>
						<time>2021-08-31T12:52:30Z</time>
					</trkpt>
					<trkpt lat="44.056110" lon="5.268520">
						<ele>586</ele>
						<time>2021-08-31T12:52:40Z</time>
					</trkpt>
					<trkpt lat="44.056130" lon="5.268670">
						<ele>587</ele>
						<time>2021-08-31T12:52:46Z</time>
					</trkpt>
					<trkpt lat="44.055900" lon="5.268960">
						<ele>589</ele>
						<time>2021-08-31T12:53:01Z</time>
					</trkpt>
					<trkpt lat="44.055700" lon="5.269370">
						<ele>588</ele>
						<time>2021-08-31T12:53:19Z</time>
					</trkpt>
					<trkpt lat="44.055610" lon="5.269750">
						<ele>586</ele>
						<time>2021-08-31T12:53:33Z</time>
					</trkpt>
					<trkpt lat="44.055660" lon="5.269970">
						<ele>588</ele>
						<time>2021-08-31T12:53:42Z</time>
					</trkpt>
					<trkpt lat="44.055790" lon="5.270090">
						<ele>591</ele>
						<time>2021-08-31T12:53:50Z</time>
					</trkpt>
					<trkpt lat="44.056120" lon="5.270280">
						<ele>594</ele>
						<time>2021-08-31T12:54:07Z</time>
					</trkpt>
					<trkpt lat="44.056580" lon="5.270650">
						<ele>599</ele>
						<time>2021-08-31T12:54:34Z</time>
					</trkpt>
					<trkpt lat="44.057400" lon="5.271540">
						<ele>606</ele>
						<time>2021-08-31T12:55:26Z</time>
					</trkpt>
					<trkpt lat="44.057950" lon="5.272360">
						<ele>608</ele>
						<time>2021-08-31T12:56:06Z</time>
					</trkpt>
					<trkpt lat="44.058500" lon="5.273390">
						<ele>610</ele>
						<time>2021-08-31T12:56:53Z</time>
					</trkpt>
					<trkpt lat="44.058620" lon="5.273560">
						<ele>611</ele>
						<time>2021-08-31T12:57:01Z</time>
					</trkpt>
					<trkpt lat="44.059040" lon="5.273970">
						<ele>615</ele>
						<time>2021-08-31T12:57:27Z</time>
					</trkpt>
					<trkpt lat="44.059170" lon="5.274160">
						<ele>617</ele>
						<time>2021-08-31T12:57:36Z</time>
					</trkpt>
					<trkpt lat="44.059350" lon="5.274340">
						<ele>618</ele>
						<time>2021-08-31T12:57:47Z</time>
					</trkpt>
					<trkpt lat="44.059480" lon="5.274550">
						<ele>620</ele>
						<time>2021-08-31T12:57:57Z</time>
					</trkpt>
					<trkpt lat="44.059570" lon="5.274730">
						<ele>621</ele>
						<time>2021-08-31T12:58:05Z</time>
					</trkpt>
					<trkpt lat="44.059750" lon="5.275800">
						<ele>625</ele>
						<time>2021-08-31T12:58:45Z</time>
					</trkpt>
					<trkpt lat="44.059890" lon="5.275990">
						<ele>627</ele>
						<time>2021-08-31T12:58:54Z</time>
					</trkpt>
					<trkpt lat="44.060120" lon="5.276110">
						<ele>628</ele>
						<time>2021-08-31T12:59:07Z</time>
					</trkpt>
					<trkpt lat="44.060240" lon="5.276300">
						<ele>630</ele>
						<time>2021-08-31T12:59:16Z</time>
					</trkpt>
					<trkpt lat="44.060650" lon="5.278750">
						<ele>651</ele>
						<time>2021-08-31T13:00:46Z</time>
					</trkpt>
					<trkpt lat="44.061100" lon="5.281000">
						<ele>673</ele>
						<time>2021-08-31T13:02:10Z</time>
					</trkpt>
					<trkpt lat="44.060820" lon="5.281570">
						<ele>678</ele>
						<time>2021-08-31T13:02:35Z</time>
					</trkpt>
					<trkpt lat="44.060800" lon="5.281660">
						<ele>679</ele>
						<time>2021-08-31T13:02:39Z</time>
					</trkpt>
					<trkpt lat="44.060610" lon="5.281980">
						<ele>680</ele>
						<time>2021-08-31T13:02:53Z</time>
					</trkpt>
					<trkpt lat="44.060500" lon="5.282240">
						<ele>682</ele>
						<time>2021-08-31T13:03:04Z</time>
					</trkpt>
					<trkpt lat="44.060490" lon="5.282340">
						<ele>682</ele>
						<time>2021-08-31T13:03:08Z</time>
					</trkpt>
					<trkpt lat="44.060580" lon="5.282740">
						<ele>685</ele>
						<time>2021-08-31T13:03:23Z</time>
					</trkpt>
					<trkpt lat="44.060580" lon="5.282930">
						<ele>686</ele>
						<time>2021-08-31T13:03:30Z</time>
					</trkpt>
					<trkpt lat="44.060630" lon="5.283230">
						<ele>687</ele>
						<time>2021-08-31T13:03:41Z</time>
					</trkpt>
					<trkpt lat="44.060640" lon="5.283480">
						<ele>688</ele>
						<time>2021-08-31T13:03:50Z</time>
					</trkpt>
					<trkpt lat="44.060690" lon="5.283650">
						<ele>690</ele>
						<time>2021-08-31T13:03:57Z</time>
					</trkpt>
					<trkpt lat="44.061160" lon="5.284230">
						<ele>697</ele>
						<time>2021-08-31T13:04:28Z</time>
					</trkpt>
					<trkpt lat="44.061730" lon="5.285460">
						<ele>704</ele>
						<time>2021-08-31T13:05:21Z</time>
					</trkpt>
					<trkpt lat="44.061840" lon="5.285920">
						<ele>704</ele>
						<time>2021-08-31T13:05:38Z</time>
					</trkpt>
					<trkpt lat="44.061840" lon="5.286010">
						<ele>704</ele>
						<time>2021-08-31T13:05:41Z</time>
					</trkpt>
					<trkpt lat="44.061620" lon="5.286010">
						<ele>704</ele>
						<time>2021-08-31T13:05:52Z</time>
					</trkpt>
					<trkpt lat="44.061500" lon="5.286080">
						<ele>705</ele>
						<time>2021-08-31T13:05:59Z</time>
					</trkpt>
					<trkpt lat="44.061220" lon="5.286380">
						<ele>707</ele>
						<time>2021-08-31T13:06:16Z</time>
					</trkpt>
					<trkpt lat="44.061110" lon="5.286660">
						<ele>709</ele>
						<time>2021-08-31T13:06:28Z</time>
					</trkpt>
					<trkpt lat="44.061070" lon="5.286900">
						<ele>710</ele>
						<time>2021-08-31T13:06:37Z</time>
					</trkpt>
					<trkpt lat="44.060780" lon="5.287450">
						<ele>714</ele>
						<time>2021-08-31T13:07:01Z</time>
					</trkpt>
					<trkpt lat="44.060680" lon="5.287700">
						<ele>715</ele>
						<time>2021-08-31T13:07:12Z</time>
					</trkpt>
					<trkpt lat="44.060530" lon="5.288270">
						<ele>717</ele>
						<time>2021-08-31T13:07:33Z</time>
					</trkpt>
					<trkpt lat="44.060450" lon="5.288350">
						<ele>718</ele>
						<time>2021-08-31T13:07:38Z</time>
					</trkpt>
					<trkpt lat="44.060530" lon="5.288270">
						<ele>717</ele>
						<time>2021-08-31T13:07:43Z</time>
					</trkpt>
					<trkpt lat="44.060560" lon="5.288160">
						<ele>717</ele>
						<time>2021-08-31T13:07:48Z</time>
					</trkpt>
					<trkpt lat="44.060820" lon="5.287950">
						<ele>716</ele>
						<time>2021-08-31T13:08:03Z</time>
					</trkpt>
					<trkpt lat="44.061690" lon="5.287810">
						<ele>711</ele>
						<time>2021-08-31T13:08:46Z</time>
					</trkpt>
					<trkpt lat="44.061940" lon="5.288020">
						<ele>710</ele>
						<time>2021-08-31T13:09:01Z</time>
					</trkpt>
					<trkpt lat="44.061870" lon="5.287830">
						<ele>709</ele>
						<time>2021-08-31T13:09:09Z</time>
					</trkpt>
					<trkpt lat="44.061850" lon="5.287320">
						<ele>707</ele>
						<time>2021-08-31T13:09:27Z</time>
					</trkpt>
					<trkpt lat="44.062260" lon="5.287240">
						<ele>703</ele>
						<time>2021-08-31T13:09:48Z</time>
					</trkpt>
					<trkpt lat="44.062380" lon="5.287360">
						<ele>702</ele>
						<time>2021-08-31T13:09:55Z</time>
					</trkpt>
					<trkpt lat="44.063560" lon="5.287000">
						<ele>689</ele>
						<time>2021-08-31T13:10:56Z</time>
					</trkpt>
					<trkpt lat="44.063970" lon="5.286830">
						<ele>685</ele>
						<time>2021-08-31T13:11:17Z</time>
					</trkpt>
					<trkpt lat="44.064560" lon="5.286680">
						<ele>678</ele>
						<time>2021-08-31T13:11:47Z</time>
					</trkpt>
					<trkpt lat="44.065340" lon="5.286380">
						<ele>672</ele>
						<time>2021-08-31T13:12:28Z</time>
					</trkpt>
					<trkpt lat="44.065540" lon="5.286330">
						<ele>670</ele>
						<time>2021-08-31T13:12:38Z</time>
					</trkpt>
					<trkpt lat="44.065690" lon="5.286240">
						<ele>668</ele>
						<time>2021-08-31T13:12:46Z</time>
					</trkpt>
					<trkpt lat="44.065790" lon="5.286110">
						<ele>667</ele>
						<time>2021-08-31T13:12:53Z</time>
					</trkpt>
					<trkpt lat="44.065850" lon="5.285910">
						<ele>665</ele>
						<time>2021-08-31T13:13:01Z</time>
					</trkpt>
					<trkpt lat="44.065940" lon="5.285740">
						<ele>665</ele>
						<time>2021-08-31T13:13:08Z</time>
					</trkpt>
					<trkpt lat="44.066100" lon="5.285560">
						<ele>665</ele>
						<time>2021-08-31T13:13:18Z</time>
					</trkpt>
					<trkpt lat="44.066240" lon="5.285440">
						<ele>664</ele>
						<time>2021-08-31T13:13:27Z</time>
					</trkpt>
					<trkpt lat="44.066900" lon="5.285010">
						<ele>654</ele>
						<time>2021-08-31T13:14:03Z</time>
					</trkpt>
					<trkpt lat="44.067170" lon="5.284900">
						<ele>653</ele>
						<time>2021-08-31T13:14:17Z</time>
					</trkpt>
					<trkpt lat="44.067310" lon="5.284800">
						<ele>652</ele>
						<time>2021-08-31T13:14:25Z</time>
					</trkpt>
					<trkpt lat="44.067790" lon="5.284220">
						<ele>646</ele>
						<time>2021-08-31T13:14:57Z</time>
					</trkpt>
					<trkpt lat="44.068200" lon="5.283780">
						<ele>642</ele>
						<time>2021-08-31T13:15:23Z</time>
					</trkpt>
					<trkpt lat="44.069040" lon="5.282360">
						<ele>628</ele>
						<time>2021-08-31T13:16:29Z</time>
					</trkpt>
					<trkpt lat="44.069130" lon="5.282170">
						<ele>625</ele>
						<time>2021-08-31T13:16:37Z</time>
					</trkpt>
					<trkpt lat="44.069300" lon="5.281330">
						<ele>625</ele>
						<time>2021-08-31T13:17:08Z</time>
					</trkpt>
					<trkpt lat="44.069370" lon="5.281100">
						<ele>625</ele>
						<time>2021-08-31T13:17:17Z</time>
					</trkpt>
					<trkpt lat="44.069990" lon="5.280000">
						<ele>615</ele>
						<time>2021-08-31T13:18:08Z</time>
					</trkpt>
					<trkpt lat="44.070190" lon="5.279700">
						<ele>616</ele>
						<time>2021-08-31T13:18:22Z</time>
					</trkpt>
					<trkpt lat="44.070410" lon="5.279580">
						<ele>614</ele>
						<time>2021-08-31T13:18:34Z</time>
					</trkpt>
					<trkpt lat="44.070630" lon="5.279340">
						<ele>609</ele>
						<time>2021-08-31T13:18:48Z</time>
					</trkpt>
					<trkpt lat="44.070760" lon="5.279120">
						<ele>605</ele>
						<time>2021-08-31T13:18:58Z</time>
					</trkpt>
					<trkpt lat="44.071030" lon="5.278840">
						<ele>604</ele>
						<time>2021-08-31T13:19:15Z</time>
					</trkpt>
					<trkpt lat="44.071310" lon="5.278380">
						<ele>601</ele>
						<time>2021-08-31T13:19:37Z</time>
					</trkpt>
					<trkpt lat="44.071390" lon="5.277970">
						<ele>596</ele>
						<time>2021-08-31T13:19:52Z</time>
					</trkpt>
					<trkpt lat="44.071350" lon="5.277670">
						<ele>593</ele>
						<time>2021-08-31T13:20:03Z</time>
					</trkpt>
					<trkpt lat="44.071280" lon="5.277530">
						<ele>592</ele>
						<time>2021-08-31T13:20:09Z</time>
					</trkpt>
					<trkpt lat="44.071090" lon="5.277480">
						<ele>595</ele>
						<time>2021-08-31T13:20:19Z</time>
					</trkpt>
					<trkpt lat="44.071040" lon="5.277440">
						<ele>596</ele>
						<time>2021-08-31T13:20:22Z</time>
					</trkpt>
					<trkpt lat="44.070990" lon="5.277290">
						<ele>597</ele>
						<time>2021-08-31T13:20:28Z</time>
					</trkpt>
					<trkpt lat="44.071010" lon="5.277210">
						<ele>597</ele>
						<time>2021-08-31T13:20:31Z</time>
					</trkpt>
					<trkpt lat="44.071110" lon="5.277070">
						<ele>595</ele>
						<time>2021-08-31T13:20:38Z</time>
					</trkpt>
					<trkpt lat="44.071260" lon="5.276940">
						<ele>591</ele>
						<time>2021-08-31T13:20:47Z</time>
					</trkpt>
					<trkpt lat="44.071500" lon="5.276670">
						<ele>582</ele>
						<time>2021-08-31T13:21:02Z</time>
					</trkpt>
					<trkpt lat="44.071560" lon="5.276650">
						<ele>581</ele>
						<time>2021-08-31T13:21:05Z</time>
					</trkpt>
					<trkpt lat="44.071890" lon="5.276670">
						<ele>574</ele>
						<time>2021-08-31T13:21:22Z</time>
					</trkpt>
					<trkpt lat="44.072090" lon="5.276600">
						<ele>573</ele>
						<time>2021-08-31T13:21:32Z</time>
					</trkpt>
					<trkpt lat="44.072250" lon="5.276520">
						<ele>571</ele>
						<time>2021-08-31T13:21:41Z</time>
					</trkpt>
					<trkpt lat="44.072470" lon="5.276360">
						<ele>568</ele>
						<time>2021-08-31T13:21:53Z</time>
					</trkpt>
					<trkpt lat="44.072680" lon="5.276070">
						<ele>566</ele>
						<time>2021-08-31T13:22:08Z</time>
					</trkpt>
					<trkpt lat="44.072820" lon="5.275920">
						<ele>564</ele>
						<time>2021-08-31T13:22:17Z</time>
					</trkpt>
					<trkpt lat="44.073060" lon="5.275740">
						<ele>561</ele>
						<time>2021-08-31T13:22:30Z</time>
					</trkpt>
					<trkpt lat="44.073370" lon="5.275650">
						<ele>557</ele>
						<time>2021-08-31T13:22:46Z</time>
					</trkpt>
					<trkpt lat="44.073640" lon="5.275610">
						<ele>556</ele>
						<time>2021-08-31T13:23:00Z</time>
					</trkpt>
					<trkpt lat="44.073780" lon="5.275550">
						<ele>556</ele>
						<time>2021-08-31T13:23:07Z</time>
					</trkpt>
					<trkpt lat="44.074170" lon="5.275060">
						<ele>550</ele>
						<time>2021-08-31T13:23:34Z</time>
					</trkpt>
					<trkpt lat="44.074530" lon="5.274520">
						<ele>551</ele>
						<time>2021-08-31T13:24:00Z</time>
					</trkpt>
					<trkpt lat="44.074810" lon="5.273990">
						<ele>547</ele>
						<time>2021-08-31T13:24:24Z</time>
					</trkpt>
					<trkpt lat="44.074940" lon="5.273670">
						<ele>544</ele>
						<time>2021-08-31T13:24:37Z</time>
					</trkpt>
					<trkpt lat="44.075000" lon="5.273440">
						<ele>541</ele>
						<time>2021-08-31T13:24:46Z</time>
					</trkpt>
					<trkpt lat="44.075000" lon="5.273320">
						<ele>540</ele>
						<time>2021-08-31T13:24:50Z</time>
					</trkpt>
					<trkpt lat="44.074940" lon="5.273080">
						<ele>542</ele>
						<time>2021-08-31T13:24:59Z</time>
					</trkpt>
					<trkpt lat="44.074640" lon="5.272590">
						<ele>547</ele>
						<time>2021-08-31T13:25:22Z</time>
					</trkpt>
					<trkpt lat="44.074520" lon="5.272190">
						<ele>546</ele>
						<time>2021-08-31T13:25:38Z</time>
					</trkpt>
					<trkpt lat="44.074500" lon="5.271710">
						<ele>541</ele>
						<time>2021-08-31T13:25:55Z</time>
					</trkpt>
					<trkpt lat="44.074520" lon="5.271360">
						<ele>536</ele>
						<time>2021-08-31T13:26:08Z</time>
					</trkpt>
					<trkpt lat="44.074560" lon="5.271050">
						<ele>532</ele>
						<time>2021-08-31T13:26:19Z</time>
					</trkpt>
					<trkpt lat="44.074620" lon="5.270870">
						<ele>529</ele>
						<time>2021-08-31T13:26:26Z</time>
					</trkpt>
					<trkpt lat="44.074640" lon="5.270700">
						<ele>528</ele>
						<time>2021-08-31T13:26:32Z</time>
					</trkpt>
					<trkpt lat="44.074630" lon="5.270550">
						<ele>526</ele>
						<time>2021-08-31T13:26:38Z</time>
					</trkpt>
					<trkpt lat="44.074570" lon="5.270340">
						<ele>523</ele>
						<time>2021-08-31T13:26:46Z</time>
					</trkpt>
					<trkpt lat="44.074430" lon="5.270170">
						<ele>519</ele>
						<time>2021-08-31T13:26:55Z</time>
					</trkpt>
					<trkpt lat="44.074210" lon="5.270040">
						<ele>513</ele>
						<time>2021-08-31T13:27:07Z</time>
					</trkpt>
					<trkpt lat="44.074020" lon="5.269970">
						<ele>512</ele>
						<time>2021-08-31T13:27:17Z</time>
					</trkpt>
					<trkpt lat="44.073750" lon="5.269830">
						<ele>512</ele>
						<time>2021-08-31T13:27:31Z</time>
					</trkpt>
					<trkpt lat="44.073630" lon="5.269710">
						<ele>511</ele>
						<time>2021-08-31T13:27:39Z</time>
					</trkpt>
					<trkpt lat="44.073520" lon="5.269540">
						<ele>509</ele>
						<time>2021-08-31T13:27:47Z</time>
					</trkpt>
					<trkpt lat="44.073200" lon="5.269160">
						<ele>501</ele>
						<time>2021-08-31T13:28:08Z</time>
					</trkpt>
					<trkpt lat="44.072730" lon="5.268860">
						<ele>499</ele>
						<time>2021-08-31T13:28:34Z</time>
					</trkpt>
					<trkpt lat="44.072480" lon="5.268820">
						<ele>496</ele>
						<time>2021-08-31T13:28:47Z</time>
					</trkpt>
					<trkpt lat="44.072300" lon="5.268730">
						<ele>496</ele>
						<time>2021-08-31T13:28:56Z</time>
					</trkpt>
					<trkpt lat="44.071930" lon="5.268410">
						<ele>491</ele>
						<time>2021-08-31T13:29:18Z</time>
					</trkpt>
					<trkpt lat="44.071820" lon="5.268230">
						<ele>488</ele>
						<time>2021-08-31T13:29:26Z</time>
					</trkpt>
					<trkpt lat="44.071720" lon="5.267970">
						<ele>487</ele>
						<time>2021-08-31T13:29:37Z</time>
					</trkpt>
					<trkpt lat="44.071510" lon="5.267670">
						<ele>485</ele>
						<time>2021-08-31T13:29:52Z</time>
					</trkpt>
					<trkpt lat="44.071190" lon="5.267320">
						<ele>484</ele>
						<time>2021-08-31T13:30:13Z</time>
					</trkpt>
					<trkpt lat="44.071090" lon="5.267140">
						<ele>483</ele>
						<time>2021-08-31T13:30:21Z</time>
					</trkpt>
					<trkpt lat="44.071070" lon="5.266980">
						<ele>481</ele>
						<time>2021-08-31T13:30:27Z</time>
					</trkpt>
					<trkpt lat="44.071080" lon="5.266160">
						<ele>478</ele>
						<time>2021-08-31T13:30:56Z</time>
					</trkpt>
					<trkpt lat="44.071030" lon="5.265940">
						<ele>476</ele>
						<time>2021-08-31T13:31:04Z</time>
					</trkpt>
					<trkpt lat="44.070940" lon="5.265820">
						<ele>473</ele>
						<time>2021-08-31T13:31:11Z</time>
					</trkpt>
					<trkpt lat="44.070700" lon="5.265650">
						<ele>470</ele>
						<time>2021-08-31T13:31:24Z</time>
					</trkpt>
					<trkpt lat="44.070410" lon="5.265140">
						<ele>470</ele>
						<time>2021-08-31T13:31:47Z</time>
					</trkpt>
					<trkpt lat="44.070040" lon="5.264650">
						<ele>463</ele>
						<time>2021-08-31T13:32:13Z</time>
					</trkpt>
					<trkpt lat="44.070100" lon="5.264820">
						<ele>464</ele>
						<time>2021-08-31T13:32:20Z</time>
					</trkpt>
					<trkpt lat="44.070140" lon="5.265110">
						<ele>465</ele>
						<time>2021-08-31T13:32:30Z</time>
					</trkpt>
					<trkpt lat="44.070100" lon="5.264820">
						<ele>464</ele>
						<time>2021-08-31T13:32:41Z</time>
					</trkpt>
					<trkpt lat="44.070040" lon="5.264650">
						<ele>463</ele>
						<time>2021-08-31T13:32:48Z</time>
					</trkpt>
					<trkpt lat="44.069930" lon="5.264440">
						<ele>463</ele>
						<time>2021-08-31T13:32:57Z</time>
					</trkpt>
					<trkpt lat="44.069710" lon="5.264120">
						<ele>463</ele>
						<time>2021-08-31T13:33:13Z</time>
					</trkpt>
					<trkpt lat="44.069600" lon="5.263900">
						<ele>465</ele>
						<time>2021-08-31T13:33:23Z</time>
					</trkpt>
					<trkpt lat="44.069340" lon="5.263650">
						<ele>464</ele>
						<time>2021-08-31T13:33:39Z</time>
					</trkpt>
					<trkpt lat="44.068850" lon="5.263400">
						<ele>460</ele>
						<time>2021-08-31T13:34:05Z</time>
					</trkpt>
					<trkpt lat="44.067740" lon="5.262670">
						<ele>452</ele>
						<time>2021-08-31T13:35:06Z</time>
					</trkpt>
					<trkpt lat="44.067310" lon="5.262230">
						<ele>448</ele>
						<time>2021-08-31T13:35:33Z</time>
					</trkpt>
					<trkpt lat="44.067170" lon="5.262040">
						<ele>448</ele>
						<time>2021-08-31T13:35:43Z</time>
					</trkpt>
					<trkpt lat="44.067070" lon="5.261750">
						<ele>447</ele>
						<time>2021-08-31T13:35:54Z</time>
					</trkpt>
					<trkpt lat="44.066980" lon="5.261650">
						<ele>446</ele>
						<time>2021-08-31T13:36:00Z</time>
					</trkpt>
					<trkpt lat="44.066600" lon="5.261500">
						<ele>443</ele>
						<time>2021-08-31T13:36:20Z</time>
					</trkpt>
					<trkpt lat="44.066510" lon="5.261410">
						<ele>445</ele>
						<time>2021-08-31T13:36:25Z</time>
					</trkpt>
					<trkpt lat="44.066480" lon="5.261280">
						<ele>445</ele>
						<time>2021-08-31T13:36:30Z</time>
					</trkpt>
					<trkpt lat="44.066480" lon="5.261100">
						<ele>445</ele>
						<time>2021-08-31T13:36:37Z</time>
					</trkpt>
					<trkpt lat="44.066610" lon="5.260790">
						<ele>440</ele>
						<time>2021-08-31T13:36:50Z</time>
					</trkpt>
					<trkpt lat="44.066670" lon="5.260580">
						<ele>438</ele>
						<time>2021-08-31T13:36:58Z</time>
					</trkpt>
					<trkpt lat="44.066690" lon="5.260380">
						<ele>439</ele>
						<time>2021-08-31T13:37:05Z</time>
					</trkpt>
					<trkpt lat="44.066680" lon="5.260170">
						<ele>438</ele>
						<time>2021-08-31T13:37:12Z</time>
					</trkpt>
					<trkpt lat="44.066590" lon="5.259760">
						<ele>438</ele>
						<time>2021-08-31T13:37:28Z</time>
					</trkpt>
					<trkpt lat="44.066400" lon="5.259170">
						<ele>438</ele>
						<time>2021-08-31T13:37:51Z</time>
					</trkpt>
					<trkpt lat="44.066250" lon="5.258790">
						<ele>437</ele>
						<time>2021-08-31T13:38:07Z</time>
					</trkpt>
					<trkpt lat="44.065830" lon="5.257490">
						<ele>424</ele>
						<time>2021-08-31T13:38:58Z</time>
					</trkpt>
					<trkpt lat="44.065750" lon="5.257290">
						<ele>426</ele>
						<time>2021-08-31T13:39:06Z</time>
					</trkpt>
					<trkpt lat="44.065650" lon="5.257130">
						<ele>426</ele>
						<time>2021-08-31T13:39:14Z</time>
					</trkpt>
					<trkpt lat="44.065560" lon="5.257110">
						<ele>425</ele>
						<time>2021-08-31T13:39:18Z</time>
					</trkpt>
					<trkpt lat="44.065330" lon="5.257180">
						<ele>421</ele>
						<time>2021-08-31T13:39:30Z</time>
					</trkpt>
					<trkpt lat="44.065200" lon="5.257250">
						<ele>419</ele>
						<time>2021-08-31T13:39:37Z</time>
					</trkpt>
					<trkpt lat="44.065060" lon="5.257460">
						<ele>418</ele>
						<time>2021-08-31T13:39:47Z</time>
					</trkpt>
					<trkpt lat="44.064970" lon="5.257540">
						<ele>418</ele>
						<time>2021-08-31T13:39:53Z</time>
					</trkpt>
					<trkpt lat="44.064850" lon="5.257530">
						<ele>419</ele>
						<time>2021-08-31T13:39:59Z</time>
					</trkpt>
					<trkpt lat="44.064750" lon="5.257450">
						<ele>419</ele>
						<time>2021-08-31T13:40:05Z</time>
					</trkpt>
					<trkpt lat="44.064750" lon="5.256940">
						<ele>417</ele>
						<time>2021-08-31T13:40:23Z</time>
					</trkpt>
					<trkpt lat="44.064660" lon="5.256750">
						<ele>417</ele>
						<time>2021-08-31T13:40:31Z</time>
					</trkpt>
					<trkpt lat="44.064530" lon="5.256580">
						<ele>416</ele>
						<time>2021-08-31T13:40:40Z</time>
					</trkpt>
					<trkpt lat="44.064420" lon="5.256190">
						<ele>413</ele>
						<time>2021-08-31T13:40:55Z</time>
					</trkpt>
					<trkpt lat="44.064320" lon="5.256050">
						<ele>411</ele>
						<time>2021-08-31T13:41:02Z</time>
					</trkpt>
					<trkpt lat="44.064240" lon="5.255860">
						<ele>409</ele>
						<time>2021-08-31T13:41:10Z</time>
					</trkpt>
					<trkpt lat="44.064220" lon="5.255540">
						<ele>407</ele>
						<time>2021-08-31T13:41:22Z</time>
					</trkpt>
					<trkpt lat="44.064160" lon="5.255410">
						<ele>406</ele>
						<time>2021-08-31T13:41:27Z</time>
					</trkpt>
					<trkpt lat="44.063980" lon="5.255120">
						<ele>404</ele>
						<time>2021-08-31T13:41:41Z</time>
					</trkpt>
					<trkpt lat="44.063960" lon="5.255050">
						<ele>403</ele>
						<time>2021-08-31T13:41:44Z</time>
					</trkpt>
					<trkpt lat="44.063880" lon="5.255160">
						<ele>404</ele>
						<time>2021-08-31T13:41:49Z</time>
					</trkpt>
					<trkpt lat="44.063960" lon="5.255050">
						<ele>403</ele>
						<time>2021-08-31T13:41:55Z</time>
					</trkpt>
					<trkpt lat="44.063900" lon="5.254920">
						<ele>403</ele>
						<time>2021-08-31T13:42:01Z</time>
					</trkpt>
					<trkpt lat="44.063820" lon="5.254880">
						<ele>403</ele>
						<time>2021-08-31T13:42:05Z</time>
					</trkpt>
					<trkpt lat="44.063470" lon="5.254990">
						<ele>400</ele>
						<time>2021-08-31T13:42:23Z</time>
					</trkpt>
					<trkpt lat="44.063000" lon="5.254910">
						<ele>402</ele>
						<time>2021-08-31T13:42:46Z</time>
					</trkpt>
					<trkpt lat="44.062740" lon="5.254920">
						<ele>404</ele>
						<time>2021-08-31T13:42:59Z</time>
					</trkpt>
					<trkpt lat="44.062600" lon="5.254860">
						<ele>405</ele>
						<time>2021-08-31T13:43:07Z</time>
					</trkpt>
					<trkpt lat="44.062520" lon="5.254730">
						<ele>404</ele>
						<time>2021-08-31T13:43:13Z</time>
					</trkpt>
					<trkpt lat="44.062470" lon="5.254550">
						<ele>404</ele>
						<time>2021-08-31T13:43:20Z</time>
					</trkpt>
					<trkpt lat="44.062450" lon="5.254350">
						<ele>403</ele>
						<time>2021-08-31T13:43:27Z</time>
					</trkpt>
					<trkpt lat="44.062580" lon="5.253840">
						<ele>398</ele>
						<time>2021-08-31T13:43:47Z</time>
					</trkpt>
					<trkpt lat="44.062600" lon="5.253680">
						<ele>397</ele>
						<time>2021-08-31T13:43:52Z</time>
					</trkpt>
					<trkpt lat="44.062600" lon="5.253410">
						<ele>396</ele>
						<time>2021-08-31T13:44:02Z</time>
					</trkpt>
					<trkpt lat="44.062550" lon="5.253210">
						<ele>397</ele>
						<time>2021-08-31T13:44:10Z</time>
					</trkpt>
					<trkpt lat="44.062470" lon="5.253060">
						<ele>398</ele>
						<time>2021-08-31T13:44:16Z</time>
					</trkpt>
					<trkpt lat="44.062080" lon="5.252750">
						<ele>399</ele>
						<time>2021-08-31T13:44:39Z</time>
					</trkpt>
					<trkpt lat="44.061900" lon="5.252470">
						<ele>394</ele>
						<time>2021-08-31T13:44:52Z</time>
					</trkpt>
					<trkpt lat="44.061810" lon="5.252160">
						<ele>392</ele>
						<time>2021-08-31T13:45:04Z</time>
					</trkpt>
					<trkpt lat="44.061780" lon="5.251640">
						<ele>391</ele>
						<time>2021-08-31T13:45:23Z</time>
					</trkpt>
					<trkpt lat="44.061700" lon="5.251500">
						<ele>392</ele>
						<time>2021-08-31T13:45:30Z</time>
					</trkpt>
					<trkpt lat="44.061640" lon="5.251450">
						<ele>392</ele>
						<time>2021-08-31T13:45:33Z</time>
					</trkpt>
					<trkpt lat="44.061540" lon="5.251480">
						<ele>391</ele>
						<time>2021-08-31T13:45:38Z</time>
					</trkpt>
					<trkpt lat="44.061430" lon="5.251560">
						<ele>389</ele>
						<time>2021-08-31T13:45:45Z</time>
					</trkpt>
					<trkpt lat="44.061230" lon="5.251750">
						<ele>386</ele>
						<time>2021-08-31T13:45:57Z</time>
					</trkpt>
					<trkpt lat="44.061020" lon="5.252050">
						<ele>385</ele>
						<time>2021-08-31T13:46:12Z</time>
					</trkpt>
					<trkpt lat="44.060930" lon="5.252120">
						<ele>385</ele>
						<time>2021-08-31T13:46:17Z</time>
					</trkpt>
					<trkpt lat="44.060840" lon="5.252080">
						<ele>385</ele>
						<time>2021-08-31T13:46:22Z</time>
					</trkpt>
					<trkpt lat="44.060570" lon="5.251860">
						<ele>383</ele>
						<time>2021-08-31T13:46:37Z</time>
					</trkpt>
					<trkpt lat="44.060370" lon="5.251760">
						<ele>381</ele>
						<time>2021-08-31T13:46:48Z</time>
					</trkpt>
					<trkpt lat="44.060160" lon="5.251740">
						<ele>379</ele>
						<time>2021-08-31T13:46:58Z</time>
					</trkpt>
					<trkpt lat="44.060060" lon="5.251670">
						<ele>377</ele>
						<time>2021-08-31T13:47:04Z</time>
					</trkpt>
					<trkpt lat="44.059960" lon="5.251320">
						<ele>378</ele>
						<time>2021-08-31T13:47:18Z</time>
					</trkpt>
					<trkpt lat="44.060050" lon="5.250790">
						<ele>380</ele>
						<time>2021-08-31T13:47:37Z</time>
					</trkpt>
					<trkpt lat="44.060030" lon="5.250620">
						<ele>382</ele>
						<time>2021-08-31T13:47:43Z</time>
					</trkpt>
					<trkpt lat="44.059950" lon="5.250470">
						<ele>383</ele>
						<time>2021-08-31T13:47:50Z</time>
					</trkpt>
					<trkpt lat="44.059860" lon="5.250350">
						<ele>383</ele>
						<time>2021-08-31T13:47:56Z</time>
					</trkpt>
					<trkpt lat="44.059480" lon="5.250140">
						<ele>379</ele>
						<time>2021-08-31T13:48:17Z</time>
					</trkpt>
					<trkpt lat="44.059370" lon="5.250040">
						<ele>376</ele>
						<time>2021-08-31T13:48:23Z</time>
					</trkpt>
					<trkpt lat="44.059320" lon="5.249950">
						<ele>374</ele>
						<time>2021-08-31T13:48:27Z</time>
					</trkpt>
					<trkpt lat="44.058910" lon="5.249710">
						<ele>371</ele>
						<time>2021-08-31T13:48:50Z</time>
					</trkpt>
					<trkpt lat="44.058820" lon="5.249590">
						<ele>370</ele>
						<time>2021-08-31T13:48:56Z</time>
					</trkpt>
					<trkpt lat="44.058770" lon="5.249390">
						<ele>366</ele>
						<time>2021-08-31T13:49:04Z</time>
					</trkpt>
					<trkpt lat="44.058590" lon="5.249170">
						<ele>360</ele>
						<time>2021-08-31T13:49:16Z</time>
					</trkpt>
					<trkpt lat="44.058530" lon="5.248990">
						<ele>360</ele>
						<time>2021-08-31T13:49:23Z</time>
					</trkpt>
					<trkpt lat="44.058360" lon="5.248770">
						<ele>357</ele>
						<time>2021-08-31T13:49:34Z</time>
					</trkpt>
					<trkpt lat="44.058100" lon="5.248570">
						<ele>357</ele>
						<time>2021-08-31T13:49:49Z</time>
					</trkpt>
					<trkpt lat="44.058050" lon="5.248480">
						<ele>357</ele>
						<time>2021-08-31T13:49:53Z</time>
					</trkpt>
					<trkpt lat="44.057930" lon="5.248420">
						<ele>356</ele>
						<time>2021-08-31T13:50:00Z</time>
					</trkpt>
					<trkpt lat="44.057580" lon="5.248000">
						<ele>358</ele>
						<time>2021-08-31T13:50:23Z</time>
					</trkpt>
					<trkpt lat="44.057110" lon="5.247530">
						<ele>358</ele>
						<time>2021-08-31T13:50:52Z</time>
					</trkpt>
					<trkpt lat="44.056860" lon="5.247050">
						<ele>357</ele>
						<time>2021-08-31T13:51:13Z</time>
					</trkpt>
					<trkpt lat="44.056460" lon="5.246410">
						<ele>352</ele>
						<time>2021-08-31T13:51:44Z</time>
					</trkpt>
					<trkpt lat="44.056330" lon="5.246140">
						<ele>351</ele>
						<time>2021-08-31T13:51:55Z</time>
					</trkpt>
					<trkpt lat="44.055790" lon="5.245250">
						<ele>342</ele>
						<time>2021-08-31T13:52:37Z</time>
					</trkpt>
					<trkpt lat="44.055580" lon="5.244780">
						<ele>341</ele>
						<time>2021-08-31T13:52:57Z</time>
					</trkpt>
					<trkpt lat="44.055360" lon="5.244410">
						<ele>339</ele>
						<time>2021-08-31T13:53:14Z</time>
					</trkpt>
					<trkpt lat="44.055250" lon="5.244330">
						<ele>337</ele>
						<time>2021-08-31T13:53:20Z</time>
					</trkpt>
					<trkpt lat="44.054850" lon="5.244150">
						<ele>332</ele>
						<time>2021-08-31T13:53:42Z</time>
					</trkpt>
					<trkpt lat="44.054660" lon="5.244010">
						<ele>333</ele>
						<time>2021-08-31T13:53:52Z</time>
					</trkpt>
					<trkpt lat="44.053700" lon="5.241830">
						<ele>324</ele>
						<time>2021-08-31T13:55:24Z</time>
					</trkpt>
					<trkpt lat="44.053430" lon="5.241300">
						<ele>320</ele>
						<time>2021-08-31T13:55:48Z</time>
					</trkpt>
					<trkpt lat="44.053340" lon="5.241060">
						<ele>319</ele>
						<time>2021-08-31T13:55:57Z</time>
					</trkpt>
					<trkpt lat="44.053280" lon="5.241080">
						<ele>319</ele>
						<time>2021-08-31T13:56:00Z</time>
					</trkpt>
					<trkpt lat="44.053140" lon="5.241260">
						<ele>319</ele>
						<time>2021-08-31T13:56:10Z</time>
					</trkpt>
					<trkpt lat="44.053270" lon="5.241100">
						<ele>319</ele>
						<time>2021-08-31T13:56:19Z</time>
					</trkpt>
					<trkpt lat="44.053320" lon="5.241000">
						<ele>319</ele>
						<time>2021-08-31T13:56:23Z</time>
					</trkpt>
					<trkpt lat="44.053250" lon="5.240650">
						<ele>319</ele>
						<time>2021-08-31T13:56:36Z</time>
					</trkpt>
					<trkpt lat="44.053240" lon="5.239280">
						<ele>315</ele>
						<time>2021-08-31T13:57:25Z</time>
					</trkpt>
					<trkpt lat="44.053200" lon="5.238450">
						<ele>311</ele>
						<time>2021-08-31T13:57:55Z</time>
					</trkpt>
					<trkpt lat="44.053330" lon="5.237920">
						<ele>309</ele>
						<time>2021-08-31T13:58:15Z</time>
					</trkpt>
					<trkpt lat="44.053670" lon="5.237040">
						<ele>306</ele>
						<time>2021-08-31T13:58:51Z</time>
					</trkpt>
					<trkpt lat="44.054550" lon="5.235380">
						<ele>301</ele>
						<time>2021-08-31T14:00:06Z</time>
					</trkpt>
					<trkpt lat="44.054990" lon="5.235040">
						<ele>300</ele>
						<time>2021-08-31T14:00:31Z</time>
					</trkpt>
					<trkpt lat="44.055470" lon="5.234720">
						<ele>298</ele>
						<time>2021-08-31T14:00:57Z</time>
					</trkpt>
					<trkpt lat="44.055750" lon="5.234580">
						<ele>297</ele>
						<time>2021-08-31T14:01:12Z</time>
					</trkpt>
					<trkpt lat="44.056120" lon="5.234300">
						<ele>296</ele>
						<time>2021-08-31T14:01:33Z</time>
					</trkpt>
					<trkpt lat="44.056220" lon="5.234290">
						<ele>296</ele>
						<time>2021-08-31T14:01:38Z</time>
					</trkpt>
					<trkpt lat="44.056220" lon="5.234320">
						<ele>296</ele>
						<time>2021-08-31T14:01:39Z</time>
					</trkpt>
					</trkseg>
				</trk>
			</gpx>